{"type": "FeatureCollection", "features": [{"type": "Feature", "properties": {"product": "forest_loss", "area_ha": 7.84}, "geometry": {"type": "Polygon", "coordinates": [[[86.22416666666668, 23.820833333333333], [86.22416666666668, 23.821666666666665], [86.22500000000001, 23.821666666666665], [86.22583333333334, 23.821666666666665], [86.22583333333334, 23.820833333333333], [86.22666666666667, 23.820833333333333], [86.2275, 23.820833333333333], [86.2275, 23.82], [86.2275, 23.819166666666668], [86.2275, 23.81833333333333], [86.22666666666667, 23.81833333333333], [86.22583333333334, 23.81833333333333], [86.22583333333334, 23.819166666666668], [86.22500000000001, 23.819166666666668], [86.22500000000001, 23.82], [86.22500000000001, 23.820833333333333], [86.22416666666668, 23.820833333333333]]]}}, {"type": "Feature", "properties": {"product": "forest_loss", "area_ha": 15.67}, "geometry": {"type": "Polygon", "coordinates": [[[86.25416666666666, 23.83833333333333], [86.25416666666666, 23.839166666666667], [86.25500000000001, 23.839166666666667], [86.25500000000001, 23.83833333333333], [86.25583333333334, 23.83833333333333], [86.25583333333334, 23.8375], [86.25666666666667, 23.8375], [86.25750000000001, 23.8375], [86.25833333333334, 23.8375], [86.25833333333334, 23.836666666666666], [86.25916666666667, 23.836666666666666], [86.25916666666667, 23.835833333333333], [86.26, 23.835833333333333], [86.26, 23.835], [86.25916666666667, 23.835], [86.25833333333334, 23.835], [86.25750000000001, 23.835], [86.25750000000001, 23.835833333333333], [86.25666666666667, 23.835833333333333], [86.25583333333334, 23.835833333333333], [86.25583333333334, 23.836666666666666], [86.25500000000001, 23.836666666666666], [86.25416666666666, 23.836666666666666], [86.25333333333333, 23.836666666666666], [86.2525, 23.836666666666666], [86.2525, 23.8375], [86.25166666666667, 23.8375], [86.25166666666667, 23.83833333333333], [86.2525, 23.83833333333333], [86.25333333333333, 23.83833333333333], [86.25416666666666, 23.83833333333333]]]}}, {"type": "Feature", "properties": {"product": "forest_loss", "area_ha": 14.9}, "geometry": {"type": "Polygon", "coordinates": [[[86.25500000000001, 23.776666666666667], [86.25500000000001, 23.7775], [86.25583333333334, 23.7775], [86.25666666666667, 23.7775], [86.25750000000001, 23.7775], [86.25750000000001, 23.776666666666667], [86.25833333333334, 23.776666666666667], [86.25833333333334, 23.77583333333333], [86.25916666666667, 23.77583333333333], [86.25916666666667, 23.775], [86.25833333333334, 23.775], [86.25833333333334, 23.774166666666666], [86.25750000000001, 23.774166666666666], [86.25750000000001, 23.773333333333333], [86.25666666666667, 23.773333333333333], [86.25583333333334, 23.773333333333333], [86.25583333333334, 23.774166666666666], [86.25583333333334, 23.775], [86.25500000000001, 23.775], [86.25416666666666, 23.775], [86.25416666666666, 23.77583333333333], [86.25416666666666, 23.776666666666667], [86.25500000000001, 23.776666666666667]]]}}, {"type": "Feature", "properties": {"product": "forest_loss", "area_ha": 7.84}, "geometry": {"type": "Polygon", "coordinates": [[[86.36083333333333, 23.77], [86.36083333333333, 23.770833333333332], [86.36083333333333, 23.771666666666665], [86.36166666666666, 23.771666666666665], [86.36166666666666, 23.770833333333332], [86.3625, 23.770833333333332], [86.36333333333333, 23.770833333333332], [86.36333333333333, 23.77], [86.3625, 23.77], [86.3625, 23.769166666666667], [86.3625, 23.76833333333333], [86.3625, 23.7675], [86.36166666666666, 23.7675], [86.36083333333333, 23.7675], [86.36083333333333, 23.76833333333333], [86.36083333333333, 23.769166666666667], [86.36083333333333, 23.77]]]}}, {"type": "Feature", "properties": {"product": "forest_loss", "area_ha": 6.27}, "geometry": {"type": "Polygon", "coordinates": [[[86.34833333333333, 23.809166666666666], [86.34916666666668, 23.809166666666666], [86.35000000000001, 23.809166666666666], [86.35000000000001, 23.808333333333334], [86.35000000000001, 23.8075], [86.35000000000001, 23.806666666666665], [86.35000000000001, 23.805833333333332], [86.34916666666668, 23.805833333333332], [86.34916666666668, 23.806666666666665], [86.34916666666668, 23.8075], [86.34833333333333, 23.8075], [86.3475, 23.8075], [86.3475, 23.808333333333334], [86.3475, 23.809166666666666], [86.34833333333333, 23.809166666666666]]]}}, {"type": "Feature", "properties": {"product": "forest_loss", "area_ha": 6.27}, "geometry": {"type": "Polygon", "coordinates": [[[86.33500000000001, 23.815833333333334], [86.33583333333334, 23.815833333333334], [86.33666666666667, 23.815833333333334], [86.33666666666667, 23.814999999999998], [86.33666666666667, 23.814166666666665], [86.33583333333334, 23.814166666666665], [86.33583333333334, 23.813333333333333], [86.33500000000001, 23.813333333333333], [86.33500000000001, 23.814166666666665], [86.33416666666668, 23.814166666666665], [86.33416666666668, 23.814999999999998], [86.33416666666668, 23.815833333333334], [86.33416666666668, 23.816666666666666], [86.33500000000001, 23.816666666666666], [86.33500000000001, 23.815833333333334]]]}}, {"type": "Feature", "properties": {"product": "forest_loss", "area_ha": 8.62}, "geometry": {"type": "Polygon", "coordinates": [[[86.355, 23.8375], [86.355, 23.83833333333333], [86.355, 23.839166666666667], [86.35583333333334, 23.839166666666667], [86.35583333333334, 23.83833333333333], [86.35666666666667, 23.83833333333333], [86.35666666666667, 23.839166666666667], [86.35666666666667, 23.84], [86.3575, 23.84], [86.3575, 23.839166666666667], [86.35833333333333, 23.839166666666667], [86.35916666666667, 23.839166666666667], [86.35916666666667, 23.83833333333333], [86.35833333333333, 23.83833333333333], [86.3575, 23.83833333333333], [86.3575, 23.8375], [86.35666666666667, 23.8375], [86.35666666666667, 23.836666666666666], [86.35583333333334, 23.836666666666666], [86.35583333333334, 23.835833333333333], [86.355, 23.835833333333333], [86.355, 23.836666666666666], [86.355, 23.8375]]]}}, {"type": "Feature", "properties": {"product": "forest_loss", "area_ha": 9.41}, "geometry": {"type": "Polygon", "coordinates": [[[86.39083333333333, 23.694166666666668], [86.39083333333333, 23.69333333333333], [86.39, 23.69333333333333], [86.39, 23.6925], [86.38916666666667, 23.6925], [86.38833333333334, 23.6925], [86.38833333333334, 23.691666666666666], [86.3875, 23.691666666666666], [86.38666666666667, 23.691666666666666], [86.38666666666667, 23.6925], [86.3875, 23.6925], [86.3875, 23.69333333333333], [86.3875, 23.694166666666668], [86.3875, 23.695], [86.38833333333334, 23.695], [86.38916666666667, 23.695], [86.39, 23.695], [86.39, 23.694166666666668], [86.39083333333333, 23.694166666666668]]]}}, {"type": "Feature", "properties": {"product": "forest_loss", "area_ha": 6.27}, "geometry": {"type": "Polygon", "coordinates": [[[86.37416666666667, 23.74083333333333], [86.375, 23.74083333333333], [86.375, 23.74], [86.37583333333333, 23.74], [86.37583333333333, 23.739166666666666], [86.375, 23.739166666666666], [86.375, 23.738333333333333], [86.37416666666667, 23.738333333333333], [86.37333333333333, 23.738333333333333], [86.3725, 23.738333333333333], [86.3725, 23.739166666666666], [86.3725, 23.74], [86.37333333333333, 23.74], [86.37416666666667, 23.74], [86.37416666666667, 23.74083333333333]]]}}, {"type": "Feature", "properties": {"product": "forest_loss", "area_ha": 6.27}, "geometry": {"type": "Polygon", "coordinates": [[[86.36333333333333, 23.756666666666668], [86.36416666666668, 23.756666666666668], [86.36500000000001, 23.756666666666668], [86.36583333333334, 23.756666666666668], [86.36666666666667, 23.756666666666668], [86.36666666666667, 23.75583333333333], [86.36666666666667, 23.755], [86.36583333333334, 23.755], [86.36583333333334, 23.754166666666666], [86.36500000000001, 23.754166666666666], [86.36500000000001, 23.755], [86.36500000000001, 23.75583333333333], [86.36416666666668, 23.75583333333333], [86.36333333333333, 23.75583333333333], [86.3625, 23.75583333333333], [86.3625, 23.756666666666668], [86.36333333333333, 23.756666666666668]]]}}, {"type": "Feature", "properties": {"product": "forest_loss", "area_ha": 19.61}, "geometry": {"type": "Polygon", "coordinates": [[[86.395, 23.674166666666665], [86.39583333333334, 23.674166666666665], [86.39583333333334, 23.675], [86.395, 23.675], [86.395, 23.675833333333333], [86.39583333333334, 23.675833333333333], [86.39666666666668, 23.675833333333333], [86.39666666666668, 23.675], [86.39750000000001, 23.675], [86.39833333333334, 23.675], [86.39916666666667, 23.675], [86.4, 23.675], [86.4, 23.674166666666665], [86.40083333333334, 23.674166666666665], [86.40083333333334, 23.673333333333332], [86.40083333333334, 23.6725], [86.40083333333334, 23.671666666666667], [86.4, 23.671666666666667], [86.39916666666667, 23.671666666666667], [86.39833333333334, 23.671666666666667], [86.39750000000001, 23.671666666666667], [86.39666666666668, 23.671666666666667], [86.39666666666668, 23.6725], [86.39583333333334, 23.6725], [86.39583333333334, 23.673333333333332], [86.395, 23.673333333333332], [86.395, 23.674166666666665]]]}}, {"type": "Feature", "properties": {"product": "forest_loss", "area_ha": 18.04}, "geometry": {"type": "Polygon", "coordinates": [[[86.42083333333333, 23.694166666666668], [86.42166666666667, 23.694166666666668], [86.4225, 23.694166666666668], [86.42333333333333, 23.694166666666668], [86.42333333333333, 23.69333333333333], [86.42416666666666, 23.69333333333333], [86.425, 23.69333333333333], [86.425, 23.694166666666668], [86.425, 23.695], [86.42416666666666, 23.695], [86.42333333333333, 23.695], [86.42333333333333, 23.695833333333333], [86.4225, 23.695833333333333], [86.4225, 23.696666666666665], [86.4225, 23.697499999999998], [86.42333333333333, 23.697499999999998], [86.42333333333333, 23.698333333333334], [86.42416666666666, 23.698333333333334], [86.42416666666666, 23.697499999999998], [86.42416666666666, 23.696666666666665], [86.425, 23.696666666666665], [86.425, 23.695833333333333], [86.42583333333333, 23.695833333333333], [86.42583333333333, 23.695], [86.42583333333333, 23.694166666666668], [86.42666666666668, 23.694166666666668], [86.42666666666668, 23.69333333333333], [86.42666666666668, 23.6925], [86.42583333333333, 23.6925], [86.425, 23.6925], [86.42416666666666, 23.6925], [86.42333333333333, 23.6925], [86.4225, 23.6925], [86.4225, 23.69333333333333], [86.42166666666667, 23.69333333333333], [86.42083333333333, 23.69333333333333], [86.42083333333333, 23.6925], [86.42, 23.6925], [86.41916666666667, 23.6925], [86.41916666666667, 23.69333333333333], [86.42, 23.69333333333333], [86.42, 23.694166666666668], [86.42083333333333, 23.694166666666668]]]}}, {"type": "Feature", "properties": {"product": "forest_loss", "area_ha": 11.77}, "geometry": {"type": "Polygon", "coordinates": [[[86.44, 23.68583333333333], [86.44, 23.686666666666667], [86.44, 23.6875], [86.44083333333333, 23.6875], [86.44083333333333, 23.688333333333333], [86.44166666666666, 23.688333333333333], [86.44166666666666, 23.6875], [86.44250000000001, 23.6875], [86.44250000000001, 23.686666666666667], [86.44166666666666, 23.686666666666667], [86.44166666666666, 23.68583333333333], [86.44083333333333, 23.68583333333333], [86.44083333333333, 23.685], [86.44, 23.685], [86.44, 23.684166666666666], [86.43916666666667, 23.684166666666666], [86.43916666666667, 23.683333333333334], [86.43833333333333, 23.683333333333334], [86.4375, 23.683333333333334], [86.43666666666667, 23.683333333333334], [86.43666666666667, 23.684166666666666], [86.4375, 23.684166666666666], [86.4375, 23.685], [86.43833333333333, 23.685], [86.43833333333333, 23.68583333333333], [86.43916666666667, 23.68583333333333], [86.44, 23.68583333333333]]]}}, {"type": "Feature", "properties": {"product": "forest_loss", "area_ha": 9.41}, "geometry": {"type": "Polygon", "coordinates": [[[86.44416666666667, 23.690833333333334], [86.44416666666667, 23.691666666666666], [86.44416666666667, 23.6925], [86.44500000000001, 23.6925], [86.44583333333334, 23.6925], [86.44666666666667, 23.6925], [86.44666666666667, 23.691666666666666], [86.44583333333334, 23.691666666666666], [86.44500000000001, 23.691666666666666], [86.44500000000001, 23.690833333333334], [86.44500000000001, 23.689999999999998], [86.44416666666667, 23.689999999999998], [86.44416666666667, 23.689166666666665], [86.44416666666667, 23.688333333333333], [86.44333333333334, 23.688333333333333], [86.44250000000001, 23.688333333333333], [86.44166666666666, 23.688333333333333], [86.44166666666666, 23.689166666666665], [86.44250000000001, 23.689166666666665], [86.44250000000001, 23.689999999999998], [86.44250000000001, 23.690833333333334], [86.44333333333334, 23.690833333333334], [86.44416666666667, 23.690833333333334]]]}}, {"type": "Feature", "properties": {"product": "forest_loss", "area_ha": 18.83}, "geometry": {"type": "Polygon", "coordinates": [[[86.435, 23.694166666666668], [86.435, 23.695], [86.43583333333333, 23.695], [86.43583333333333, 23.695833333333333], [86.435, 23.695833333333333], [86.435, 23.696666666666665], [86.435, 23.697499999999998], [86.43583333333333, 23.697499999999998], [86.43666666666667, 23.697499999999998], [86.43666666666667, 23.698333333333334], [86.4375, 23.698333333333334], [86.4375, 23.699166666666667], [86.4375, 23.7], [86.43833333333333, 23.7], [86.43833333333333, 23.699166666666667], [86.43916666666667, 23.699166666666667], [86.43916666666667, 23.698333333333334], [86.43833333333333, 23.698333333333334], [86.43833333333333, 23.697499999999998], [86.43916666666667, 23.697499999999998], [86.43916666666667, 23.696666666666665], [86.43916666666667, 23.695833333333333], [86.43833333333333, 23.695833333333333], [86.4375, 23.695833333333333], [86.4375, 23.695], [86.43666666666667, 23.695], [86.43666666666667, 23.694166666666668], [86.43666666666667, 23.69333333333333], [86.43583333333333, 23.69333333333333], [86.43583333333333, 23.6925], [86.435, 23.6925], [86.435, 23.691666666666666], [86.43416666666667, 23.691666666666666], [86.43416666666667, 23.6925], [86.43333333333334, 23.6925], [86.43333333333334, 23.69333333333333], [86.43416666666667, 23.69333333333333], [86.43416666666667, 23.694166666666668], [86.435, 23.694166666666668]], [[86.43666666666667, 23.695833333333333], [86.43666666666667, 23.696666666666665], [86.43583333333333, 23.696666666666665], [86.43583333333333, 23.695833333333333], [86.43666666666667, 23.695833333333333]], [[86.4375, 23.697499999999998], [86.4375, 23.696666666666665], [86.43833333333333, 23.696666666666665], [86.43833333333333, 23.697499999999998], [86.4375, 23.697499999999998]]]}}, {"type": "Feature", "properties": {"product": "forest_loss", "area_ha": 12.55}, "geometry": {"type": "Polygon", "coordinates": [[[86.45083333333334, 23.696666666666665], [86.45083333333334, 23.697499999999998], [86.45166666666667, 23.697499999999998], [86.45166666666667, 23.698333333333334], [86.4525, 23.698333333333334], [86.4525, 23.697499999999998], [86.4525, 23.696666666666665], [86.45333333333333, 23.696666666666665], [86.45416666666667, 23.696666666666665], [86.45416666666667, 23.695833333333333], [86.45333333333333, 23.695833333333333], [86.45333333333333, 23.695], [86.4525, 23.695], [86.45166666666667, 23.695], [86.45083333333334, 23.695], [86.45083333333334, 23.694166666666668], [86.45083333333334, 23.69333333333333], [86.45, 23.69333333333333], [86.45, 23.6925], [86.44916666666667, 23.6925], [86.44916666666667, 23.69333333333333], [86.44916666666667, 23.694166666666668], [86.44833333333334, 23.694166666666668], [86.44833333333334, 23.695], [86.44916666666667, 23.695], [86.45, 23.695], [86.45, 23.695833333333333], [86.45083333333334, 23.695833333333333], [86.45083333333334, 23.696666666666665]], [[86.45166666666667, 23.696666666666665], [86.45166666666667, 23.695833333333333], [86.4525, 23.695833333333333], [86.4525, 23.696666666666665], [86.45166666666667, 23.696666666666665]]]}}, {"type": "Feature", "properties": {"product": "forest_loss", "area_ha": 15.69}, "geometry": {"type": "Polygon", "coordinates": [[[86.4625, 23.703333333333333], [86.4625, 23.704166666666666], [86.4625, 23.705], [86.46166666666667, 23.705], [86.46166666666667, 23.70583333333333], [86.4625, 23.70583333333333], [86.46333333333334, 23.70583333333333], [86.46416666666667, 23.70583333333333], [86.465, 23.70583333333333], [86.465, 23.705], [86.46583333333334, 23.705], [86.46666666666667, 23.705], [86.46666666666667, 23.704166666666666], [86.46666666666667, 23.703333333333333], [86.46666666666667, 23.7025], [86.46583333333334, 23.7025], [86.465, 23.7025], [86.46416666666667, 23.7025], [86.46333333333334, 23.7025], [86.4625, 23.7025], [86.46166666666667, 23.7025], [86.46166666666667, 23.703333333333333], [86.4625, 23.703333333333333]]]}}, {"type": "Feature", "properties": {"product": "forest_loss", "area_ha": 6.27}, "geometry": {"type": "Polygon", "coordinates": [[[86.45416666666667, 23.745833333333334], [86.455, 23.745833333333334], [86.455, 23.745], [86.45583333333333, 23.745], [86.45583333333333, 23.744166666666665], [86.455, 23.744166666666665], [86.45416666666667, 23.744166666666665], [86.45333333333333, 23.744166666666665], [86.4525, 23.744166666666665], [86.4525, 23.745], [86.45166666666667, 23.745], [86.45166666666667, 23.745833333333334], [86.4525, 23.745833333333334], [86.45333333333333, 23.745833333333334], [86.45416666666667, 23.745833333333334]]]}}, {"type": "Feature", "properties": {"product": "forest_loss", "area_ha": 7.84}, "geometry": {"type": "Polygon", "coordinates": [[[86.46083333333334, 23.7475], [86.46000000000001, 23.7475], [86.46000000000001, 23.74833333333333], [86.46000000000001, 23.749166666666667], [86.46083333333334, 23.749166666666667], [86.46166666666667, 23.749166666666667], [86.46166666666667, 23.74833333333333], [86.46166666666667, 23.7475], [86.4625, 23.7475], [86.4625, 23.746666666666666], [86.4625, 23.745833333333334], [86.4625, 23.745], [86.46166666666667, 23.745], [86.46166666666667, 23.745833333333334], [86.46083333333334, 23.745833333333334], [86.46000000000001, 23.745833333333334], [86.46000000000001, 23.746666666666666], [86.46083333333334, 23.746666666666666], [86.46083333333334, 23.7475]]]}}, {"type": "Feature", "properties": {"product": "forest_loss", "area_ha": 11.76}, "geometry": {"type": "Polygon", "coordinates": [[[86.45916666666668, 23.74833333333333], [86.45916666666668, 23.7475], [86.45833333333334, 23.7475], [86.45833333333334, 23.746666666666666], [86.4575, 23.746666666666666], [86.4575, 23.7475], [86.45666666666666, 23.7475], [86.45666666666666, 23.74833333333333], [86.45583333333333, 23.74833333333333], [86.45583333333333, 23.7475], [86.455, 23.7475], [86.455, 23.74833333333333], [86.45416666666667, 23.74833333333333], [86.45416666666667, 23.749166666666667], [86.455, 23.749166666666667], [86.455, 23.75], [86.455, 23.750833333333333], [86.45583333333333, 23.750833333333333], [86.45583333333333, 23.751666666666665], [86.45666666666666, 23.751666666666665], [86.45666666666666, 23.750833333333333], [86.45666666666666, 23.75], [86.4575, 23.75], [86.4575, 23.749166666666667], [86.4575, 23.74833333333333], [86.45833333333334, 23.74833333333333], [86.45916666666668, 23.74833333333333]]]}}, {"type": "Feature", "properties": {"product": "forest_loss", "area_ha": 7.06}, "geometry": {"type": "Polygon", "coordinates": [[[86.45416666666667, 23.75583333333333], [86.45416666666667, 23.756666666666668], [86.455, 23.756666666666668], [86.455, 23.75583333333333], [86.45583333333333, 23.75583333333333], [86.45583333333333, 23.755], [86.45583333333333, 23.754166666666666], [86.455, 23.754166666666666], [86.45416666666667, 23.754166666666666], [86.45416666666667, 23.753333333333334], [86.45333333333333, 23.753333333333334], [86.45333333333333, 23.754166666666666], [86.4525, 23.754166666666666], [86.4525, 23.755], [86.45333333333333, 23.755], [86.45333333333333, 23.75583333333333], [86.45416666666667, 23.75583333333333]]]}}, {"type": "Feature", "properties": {"product": "forest_loss", "area_ha": 11.76}, "geometry": {"type": "Polygon", "coordinates": [[[86.47083333333333, 23.74], [86.47166666666666, 23.74], [86.47166666666666, 23.74083333333333], [86.4725, 23.74083333333333], [86.4725, 23.74], [86.4725, 23.739166666666666], [86.4725, 23.738333333333333], [86.4725, 23.7375], [86.47333333333333, 23.7375], [86.47416666666668, 23.7375], [86.47416666666668, 23.736666666666665], [86.47333333333333, 23.736666666666665], [86.47333333333333, 23.735833333333332], [86.4725, 23.735833333333332], [86.4725, 23.735], [86.4725, 23.734166666666667], [86.47166666666666, 23.734166666666667], [86.47166666666666, 23.735], [86.47166666666666, 23.735833333333332], [86.47083333333333, 23.735833333333332], [86.47083333333333, 23.736666666666665], [86.47166666666666, 23.736666666666665], [86.47166666666666, 23.7375], [86.47166666666666, 23.738333333333333], [86.47083333333333, 23.738333333333333], [86.47083333333333, 23.739166666666666], [86.47, 23.739166666666666], [86.47, 23.74], [86.47083333333333, 23.74]]]}}, {"type": "Feature", "properties": {"product": "forest_loss", "area_ha": 15.68}, "geometry": {"type": "Polygon", "coordinates": [[[86.46833333333333, 23.749166666666667], [86.46833333333333, 23.75], [86.46916666666667, 23.75], [86.47, 23.75], [86.47083333333333, 23.75], [86.47083333333333, 23.750833333333333], [86.47, 23.750833333333333], [86.47, 23.751666666666665], [86.47083333333333, 23.751666666666665], [86.47166666666666, 23.751666666666665], [86.47166666666666, 23.750833333333333], [86.4725, 23.750833333333333], [86.4725, 23.75], [86.4725, 23.749166666666667], [86.47333333333333, 23.749166666666667], [86.47333333333333, 23.74833333333333], [86.4725, 23.74833333333333], [86.4725, 23.7475], [86.47166666666666, 23.7475], [86.47083333333333, 23.7475], [86.47, 23.7475], [86.46916666666667, 23.7475], [86.46833333333333, 23.7475], [86.4675, 23.7475], [86.4675, 23.74833333333333], [86.46833333333333, 23.74833333333333], [86.46916666666667, 23.74833333333333], [86.46916666666667, 23.749166666666667], [86.46833333333333, 23.749166666666667]]]}}, {"type": "Feature", "properties": {"product": "forest_loss", "area_ha": 31.37}, "geometry": {"type": "Polygon", "coordinates": [[[86.47500000000001, 23.733333333333334], [86.47416666666668, 23.733333333333334], [86.47416666666668, 23.734166666666667], [86.47333333333333, 23.734166666666667], [86.47333333333333, 23.735], [86.47416666666668, 23.735], [86.47416666666668, 23.735833333333332], [86.47416666666668, 23.736666666666665], [86.47500000000001, 23.736666666666665], [86.47500000000001, 23.7375], [86.47583333333334, 23.7375], [86.47583333333334, 23.738333333333333], [86.47666666666667, 23.738333333333333], [86.4775, 23.738333333333333], [86.4775, 23.7375], [86.47833333333334, 23.7375], [86.47916666666667, 23.7375], [86.47916666666667, 23.736666666666665], [86.48, 23.736666666666665], [86.48083333333334, 23.736666666666665], [86.48166666666667, 23.736666666666665], [86.48166666666667, 23.735833333333332], [86.48166666666667, 23.735], [86.48166666666667, 23.734166666666667], [86.4825, 23.734166666666667], [86.4825, 23.733333333333334], [86.48166666666667, 23.733333333333334], [86.48166666666667, 23.732499999999998], [86.4825, 23.732499999999998], [86.4825, 23.731666666666666], [86.48166666666667, 23.731666666666666], [86.48083333333334, 23.731666666666666], [86.48083333333334, 23.732499999999998], [86.48083333333334, 23.733333333333334], [86.48, 23.733333333333334], [86.47916666666667, 23.733333333333334], [86.47833333333334, 23.733333333333334], [86.4775, 23.733333333333334], [86.47666666666667, 23.733333333333334], [86.47583333333334, 23.733333333333334], [86.47500000000001, 23.733333333333334]], [[86.47666666666667, 23.735], [86.4775, 23.735], [86.4775, 23.735833333333332], [86.47833333333334, 23.735833333333332], [86.47833333333334, 23.736666666666665], [86.4775, 23.736666666666665], [86.47666666666667, 23.736666666666665], [86.47666666666667, 23.735833333333332], [86.47583333333334, 23.735833333333332], [86.47583333333334, 23.735], [86.47583333333334, 23.734166666666667], [86.47666666666667, 23.734166666666667], [86.47666666666667, 23.735]], [[86.47916666666667, 23.734166666666667], [86.48, 23.734166666666667], [86.48, 23.735], [86.48083333333334, 23.735], [86.48083333333334, 23.735833333333332], [86.48, 23.735833333333332], [86.47916666666667, 23.735833333333332], [86.47916666666667, 23.735], [86.47916666666667, 23.734166666666667]]]}}, {"type": "Feature", "properties": {"product": "forest_loss", "area_ha": 7.06}, "geometry": {"type": "Polygon", "coordinates": [[[86.47416666666668, 23.744166666666665], [86.47500000000001, 23.744166666666665], [86.47500000000001, 23.743333333333332], [86.47583333333334, 23.743333333333332], [86.47583333333334, 23.744166666666665], [86.47666666666667, 23.744166666666665], [86.47666666666667, 23.743333333333332], [86.4775, 23.743333333333332], [86.4775, 23.7425], [86.47666666666667, 23.7425], [86.47583333333334, 23.7425], [86.47583333333334, 23.741666666666667], [86.47500000000001, 23.741666666666667], [86.47500000000001, 23.7425], [86.47416666666668, 23.7425], [86.47333333333333, 23.7425], [86.47333333333333, 23.743333333333332], [86.47333333333333, 23.744166666666665], [86.47416666666668, 23.744166666666665]]]}}, {"type": "Feature", "properties": {"product": "forest_loss", "area_ha": 12.55}, "geometry": {"type": "Polygon", "coordinates": [[[86.47833333333334, 23.750833333333333], [86.47916666666667, 23.750833333333333], [86.47916666666667, 23.751666666666665], [86.48, 23.751666666666665], [86.48, 23.752499999999998], [86.48, 23.753333333333334], [86.48083333333334, 23.753333333333334], [86.48083333333334, 23.752499999999998], [86.48083333333334, 23.751666666666665], [86.48166666666667, 23.751666666666665], [86.48166666666667, 23.750833333333333], [86.48166666666667, 23.75], [86.48083333333334, 23.75], [86.48, 23.75], [86.47916666666667, 23.75], [86.47833333333334, 23.75], [86.47833333333334, 23.749166666666667], [86.47833333333334, 23.74833333333333], [86.4775, 23.74833333333333], [86.47666666666667, 23.74833333333333], [86.47666666666667, 23.7475], [86.47583333333334, 23.7475], [86.47583333333334, 23.74833333333333], [86.47583333333334, 23.749166666666667], [86.47666666666667, 23.749166666666667], [86.47666666666667, 23.75], [86.4775, 23.75], [86.4775, 23.750833333333333], [86.47833333333334, 23.750833333333333]]]}}, {"type": "Feature", "properties": {"product": "forest_loss", "area_ha": 7.06}, "geometry": {"type": "Polygon", "coordinates": [[[86.47500000000001, 23.764166666666664], [86.47583333333334, 23.764166666666664], [86.47666666666667, 23.764166666666664], [86.4775, 23.764166666666664], [86.4775, 23.765], [86.47833333333334, 23.765], [86.47833333333334, 23.764166666666664], [86.47916666666667, 23.764166666666664], [86.48, 23.764166666666664], [86.48, 23.763333333333332], [86.47916666666667, 23.763333333333332], [86.47833333333334, 23.763333333333332], [86.47833333333334, 23.7625], [86.4775, 23.7625], [86.47666666666667, 23.7625], [86.47666666666667, 23.763333333333332], [86.47583333333334, 23.763333333333332], [86.47500000000001, 23.763333333333332], [86.47500000000001, 23.764166666666664]]]}}, {"type": "Feature", "properties": {"product": "forest_loss", "area_ha": 7.85}, "geometry": {"type": "Polygon", "coordinates": [[[86.47833333333334, 23.675], [86.47916666666667, 23.675], [86.47916666666667, 23.675833333333333], [86.48, 23.675833333333333], [86.48, 23.675], [86.48, 23.674166666666665], [86.48083333333334, 23.674166666666665], [86.48166666666667, 23.674166666666665], [86.48166666666667, 23.675], [86.4825, 23.675], [86.4825, 23.674166666666665], [86.4825, 23.673333333333332], [86.48166666666667, 23.673333333333332], [86.48083333333334, 23.673333333333332], [86.48083333333334, 23.6725], [86.48, 23.6725], [86.47916666666667, 23.6725], [86.47916666666667, 23.673333333333332], [86.47916666666667, 23.674166666666665], [86.47833333333334, 23.674166666666665], [86.47833333333334, 23.675]]]}}, {"type": "Feature", "properties": {"product": "forest_loss", "area_ha": 26.67}, "geometry": {"type": "Polygon", "coordinates": [[[86.4825, 23.68], [86.4825, 23.680833333333332], [86.48333333333333, 23.680833333333332], [86.48416666666667, 23.680833333333332], [86.48416666666667, 23.68], [86.485, 23.68], [86.48583333333333, 23.68], [86.48583333333333, 23.679166666666667], [86.48666666666666, 23.679166666666667], [86.48666666666666, 23.68], [86.4875, 23.68], [86.4875, 23.679166666666667], [86.48833333333333, 23.679166666666667], [86.48833333333333, 23.67833333333333], [86.4875, 23.67833333333333], [86.48666666666666, 23.67833333333333], [86.48583333333333, 23.67833333333333], [86.48583333333333, 23.6775], [86.48666666666666, 23.6775], [86.48666666666666, 23.676666666666666], [86.48583333333333, 23.676666666666666], [86.48583333333333, 23.675833333333333], [86.48666666666666, 23.675833333333333], [86.4875, 23.675833333333333], [86.4875, 23.675], [86.4875, 23.674166666666665], [86.48666666666666, 23.674166666666665], [86.48666666666666, 23.675], [86.48583333333333, 23.675], [86.485, 23.675], [86.485, 23.675833333333333], [86.485, 23.676666666666666], [86.48416666666667, 23.676666666666666], [86.48416666666667, 23.675833333333333], [86.48416666666667, 23.675], [86.48416666666667, 23.674166666666665], [86.48333333333333, 23.674166666666665], [86.48333333333333, 23.675], [86.48333333333333, 23.675833333333333], [86.48333333333333, 23.676666666666666], [86.48333333333333, 23.6775], [86.4825, 23.6775], [86.4825, 23.67833333333333], [86.48166666666667, 23.67833333333333], [86.48166666666667, 23.679166666666667], [86.48083333333334, 23.679166666666667], [86.48, 23.679166666666667], [86.48, 23.68], [86.48, 23.680833333333332], [86.48083333333334, 23.680833333333332], [86.48166666666667, 23.680833333333332], [86.48166666666667, 23.68], [86.4825, 23.68]], [[86.48333333333333, 23.67833333333333], [86.48416666666667, 23.67833333333333], [86.48416666666667, 23.679166666666667], [86.48333333333333, 23.679166666666667], [86.4825, 23.679166666666667], [86.4825, 23.67833333333333], [86.48333333333333, 23.67833333333333]]]}}, {"type": "Feature", "properties": {"product": "forest_loss", "area_ha": 7.06}, "geometry": {"type": "Polygon", "coordinates": [[[86.48, 23.683333333333334], [86.48, 23.684166666666666], [86.48, 23.685], [86.48, 23.68583333333333], [86.48083333333334, 23.68583333333333], [86.48083333333334, 23.685], [86.48166666666667, 23.685], [86.4825, 23.685], [86.48333333333333, 23.685], [86.48333333333333, 23.684166666666666], [86.48333333333333, 23.683333333333334], [86.4825, 23.683333333333334], [86.48166666666667, 23.683333333333334], [86.48083333333334, 23.683333333333334], [86.48, 23.683333333333334]]]}}, {"type": "Feature", "properties": {"product": "forest_loss", "area_ha": 7.06}, "geometry": {"type": "Polygon", "coordinates": [[[86.48, 23.715833333333332], [86.48083333333334, 23.715833333333332], [86.48083333333334, 23.715], [86.48166666666667, 23.715], [86.4825, 23.715], [86.4825, 23.714166666666667], [86.48166666666667, 23.714166666666667], [86.48166666666667, 23.71333333333333], [86.48166666666667, 23.7125], [86.48083333333334, 23.7125], [86.48083333333334, 23.71333333333333], [86.48, 23.71333333333333], [86.47916666666667, 23.71333333333333], [86.47916666666667, 23.714166666666667], [86.47916666666667, 23.715], [86.48, 23.715], [86.48, 23.715833333333332]]]}}, {"type": "Feature", "properties": {"product": "forest_loss", "area_ha": 10.2}, "geometry": {"type": "Polygon", "coordinates": [[[86.48166666666667, 23.721666666666668], [86.4825, 23.721666666666668], [86.4825, 23.72083333333333], [86.4825, 23.72], [86.48333333333333, 23.72], [86.48416666666667, 23.72], [86.48416666666667, 23.719166666666666], [86.485, 23.719166666666666], [86.485, 23.718333333333334], [86.48416666666667, 23.718333333333334], [86.48416666666667, 23.717499999999998], [86.485, 23.717499999999998], [86.485, 23.716666666666665], [86.48416666666667, 23.716666666666665], [86.48333333333333, 23.716666666666665], [86.48333333333333, 23.717499999999998], [86.48333333333333, 23.718333333333334], [86.4825, 23.718333333333334], [86.4825, 23.719166666666666], [86.48166666666667, 23.719166666666666], [86.48166666666667, 23.72], [86.48166666666667, 23.72083333333333], [86.48083333333334, 23.72083333333333], [86.48083333333334, 23.721666666666668], [86.48083333333334, 23.7225], [86.48166666666667, 23.7225], [86.48166666666667, 23.721666666666668]]]}}, {"type": "Feature", "properties": {"product": "forest_loss", "area_ha": 10.98}, "geometry": {"type": "Polygon", "coordinates": [[[86.47833333333334, 23.7425], [86.47833333333334, 23.743333333333332], [86.47833333333334, 23.744166666666665], [86.47916666666667, 23.744166666666665], [86.47916666666667, 23.745], [86.48, 23.745], [86.48, 23.744166666666665], [86.48083333333334, 23.744166666666665], [86.48083333333334, 23.743333333333332], [86.48166666666667, 23.743333333333332], [86.48166666666667, 23.7425], [86.48166666666667, 23.741666666666667], [86.48166666666667, 23.74083333333333], [86.48083333333334, 23.74083333333333], [86.48, 23.74083333333333], [86.47916666666667, 23.74083333333333], [86.47916666666667, 23.741666666666667], [86.47916666666667, 23.7425], [86.47833333333334, 23.7425]]]}}, {"type": "Feature", "properties": {"product": "forest_loss", "area_ha": 50.18}, "geometry": {"type": "Polygon", "coordinates": [[[86.48, 23.745833333333334], [86.48, 23.746666666666666], [86.48083333333334, 23.746666666666666], [86.48083333333334, 23.745833333333334], [86.48166666666667, 23.745833333333334], [86.48166666666667, 23.746666666666666], [86.48166666666667, 23.7475], [86.48166666666667, 23.74833333333333], [86.48166666666667, 23.749166666666667], [86.4825, 23.749166666666667], [86.4825, 23.74833333333333], [86.4825, 23.7475], [86.48333333333333, 23.7475], [86.48416666666667, 23.7475], [86.485, 23.7475], [86.485, 23.746666666666666], [86.48583333333333, 23.746666666666666], [86.48583333333333, 23.7475], [86.48666666666666, 23.7475], [86.48666666666666, 23.746666666666666], [86.48666666666666, 23.745833333333334], [86.4875, 23.745833333333334], [86.48833333333333, 23.745833333333334], [86.48833333333333, 23.745], [86.48916666666668, 23.745], [86.48916666666668, 23.745833333333334], [86.49000000000001, 23.745833333333334], [86.49000000000001, 23.746666666666666], [86.49083333333334, 23.746666666666666], [86.49166666666667, 23.746666666666666], [86.49166666666667, 23.745833333333334], [86.4925, 23.745833333333334], [86.4925, 23.745], [86.49166666666667, 23.745], [86.49166666666667, 23.744166666666665], [86.49166666666667, 23.743333333333332], [86.49083333333334, 23.743333333333332], [86.49000000000001, 23.743333333333332], [86.49000000000001, 23.7425], [86.48916666666668, 23.7425], [86.48916666666668, 23.743333333333332], [86.48833333333333, 23.743333333333332], [86.48833333333333, 23.744166666666665], [86.4875, 23.744166666666665], [86.48666666666666, 23.744166666666665], [86.48583333333333, 23.744166666666665], [86.48583333333333, 23.743333333333332], [86.48666666666666, 23.743333333333332], [86.48666666666666, 23.7425], [86.4875, 23.7425], [86.48833333333333, 23.7425], [86.48833333333333, 23.741666666666667], [86.48916666666668, 23.741666666666667], [86.48916666666668, 23.74083333333333], [86.48916666666668, 23.74], [86.48833333333333, 23.74], [86.4875, 23.74], [86.48666666666666, 23.74], [86.48666666666666, 23.74083333333333], [86.48666666666666, 23.741666666666667], [86.48583333333333, 23.741666666666667], [86.485, 23.741666666666667], [86.485, 23.74083333333333], [86.48416666666667, 23.74083333333333], [86.48416666666667, 23.741666666666667], [86.48416666666667, 23.7425], [86.48416666666667, 23.743333333333332], [86.48333333333333, 23.743333333333332], [86.48333333333333, 23.7425], [86.4825, 23.7425], [86.4825, 23.743333333333332], [86.4825, 23.744166666666665], [86.48166666666667, 23.744166666666665], [86.48083333333334, 23.744166666666665], [86.48083333333334, 23.745], [86.48, 23.745], [86.48, 23.745833333333334]], [[86.48166666666667, 23.745], [86.4825, 23.745], [86.4825, 23.745833333333334], [86.48166666666667, 23.745833333333334], [86.48166666666667, 23.745]], [[86.48916666666668, 23.744166666666665], [86.49000000000001, 23.744166666666665], [86.49000000000001, 23.745], [86.48916666666668, 23.745], [86.48916666666668, 23.744166666666665]], [[86.485, 23.745], [86.48416666666667, 23.745], [86.48416666666667, 23.744166666666665], [86.485, 23.744166666666665], [86.485, 23.745]], [[86.48416666666667, 23.745833333333334], [86.48333333333333, 23.745833333333334], [86.48333333333333, 23.745], [86.48416666666667, 23.745], [86.48416666666667, 23.745833333333334]]]}}, {"type": "Feature", "properties": {"product": "forest_loss", "area_ha": 7.84}, "geometry": {"type": "Polygon", "coordinates": [[[86.48083333333334, 23.7575], [86.48083333333334, 23.756666666666668], [86.48083333333334, 23.75583333333333], [86.48, 23.75583333333333], [86.48, 23.755], [86.48, 23.754166666666666], [86.47916666666667, 23.754166666666666], [86.47916666666667, 23.755], [86.47916666666667, 23.75583333333333], [86.47833333333334, 23.75583333333333], [86.47833333333334, 23.756666666666668], [86.47833333333334, 23.7575], [86.47916666666667, 23.7575], [86.47916666666667, 23.758333333333333], [86.48, 23.758333333333333], [86.48083333333334, 23.758333333333333], [86.48083333333334, 23.7575]]]}}, {"type": "Feature", "properties": {"product": "forest_loss", "area_ha": 10.19}, "geometry": {"type": "Polygon", "coordinates": [[[86.48333333333333, 23.739166666666666], [86.48416666666667, 23.739166666666666], [86.485, 23.739166666666666], [86.485, 23.738333333333333], [86.48416666666667, 23.738333333333333], [86.48416666666667, 23.7375], [86.485, 23.7375], [86.485, 23.736666666666665], [86.485, 23.735833333333332], [86.485, 23.735], [86.48416666666667, 23.735], [86.48333333333333, 23.735], [86.48333333333333, 23.735833333333332], [86.4825, 23.735833333333332], [86.4825, 23.736666666666665], [86.4825, 23.7375], [86.4825, 23.738333333333333], [86.48166666666667, 23.738333333333333], [86.48166666666667, 23.739166666666666], [86.4825, 23.739166666666666], [86.48333333333333, 23.739166666666666]], [[86.48416666666667, 23.735833333333332], [86.48416666666667, 23.736666666666665], [86.48333333333333, 23.736666666666665], [86.48333333333333, 23.735833333333332], [86.48416666666667, 23.735833333333332]]]}}, {"type": "Feature", "properties": {"product": "forest_loss", "area_ha": 8.62}, "geometry": {"type": "Polygon", "coordinates": [[[86.49000000000001, 23.763333333333332], [86.49083333333334, 23.763333333333332], [86.49083333333334, 23.764166666666664], [86.49083333333334, 23.765], [86.49166666666667, 23.765], [86.49166666666667, 23.764166666666664], [86.4925, 23.764166666666664], [86.4925, 23.763333333333332], [86.49166666666667, 23.763333333333332], [86.49166666666667, 23.7625], [86.49083333333334, 23.7625], [86.49083333333334, 23.761666666666667], [86.49166666666667, 23.761666666666667], [86.49166666666667, 23.760833333333334], [86.49083333333334, 23.760833333333334], [86.49000000000001, 23.760833333333334], [86.48916666666668, 23.760833333333334], [86.48833333333333, 23.760833333333334], [86.48833333333333, 23.761666666666667], [86.48916666666668, 23.761666666666667], [86.48916666666668, 23.7625], [86.49000000000001, 23.7625], [86.49000000000001, 23.763333333333332]]]}}, {"type": "Feature", "properties": {"product": "forest_loss", "area_ha": 16.48}, "geometry": {"type": "Polygon", "coordinates": [[[86.495, 23.674166666666665], [86.495, 23.675], [86.495, 23.675833333333333], [86.49583333333334, 23.675833333333333], [86.49583333333334, 23.675], [86.49666666666667, 23.675], [86.4975, 23.675], [86.4975, 23.675833333333333], [86.49833333333333, 23.675833333333333], [86.49833333333333, 23.675], [86.49833333333333, 23.674166666666665], [86.4975, 23.674166666666665], [86.49666666666667, 23.674166666666665], [86.49666666666667, 23.673333333333332], [86.49666666666667, 23.6725], [86.4975, 23.6725], [86.49833333333333, 23.6725], [86.49833333333333, 23.673333333333332], [86.49916666666667, 23.673333333333332], [86.49916666666667, 23.6725], [86.49916666666667, 23.671666666666667], [86.49833333333333, 23.671666666666667], [86.4975, 23.671666666666667], [86.4975, 23.670833333333334], [86.4975, 23.669999999999998], [86.49666666666667, 23.669999999999998], [86.49666666666667, 23.670833333333334], [86.49583333333334, 23.670833333333334], [86.495, 23.670833333333334], [86.495, 23.671666666666667], [86.49416666666667, 23.671666666666667], [86.49416666666667, 23.6725], [86.495, 23.6725], [86.495, 23.673333333333332], [86.495, 23.674166666666665]]]}}, {"type": "Feature", "properties": {"product": "forest_loss", "area_ha": 24.32}, "geometry": {"type": "Polygon", "coordinates": [[[86.495, 23.6825], [86.495, 23.683333333333334], [86.49583333333334, 23.683333333333334], [86.49666666666667, 23.683333333333334], [86.4975, 23.683333333333334], [86.4975, 23.6825], [86.49833333333333, 23.6825], [86.49833333333333, 23.681666666666665], [86.49833333333333, 23.680833333333332], [86.49916666666667, 23.680833333333332], [86.49916666666667, 23.68], [86.5, 23.68], [86.5, 23.679166666666667], [86.5, 23.67833333333333], [86.5, 23.6775], [86.49916666666667, 23.6775], [86.49833333333333, 23.6775], [86.4975, 23.6775], [86.49666666666667, 23.6775], [86.49666666666667, 23.67833333333333], [86.49583333333334, 23.67833333333333], [86.495, 23.67833333333333], [86.495, 23.679166666666667], [86.49416666666667, 23.679166666666667], [86.49416666666667, 23.68], [86.49333333333334, 23.68], [86.49333333333334, 23.680833333333332], [86.49416666666667, 23.680833333333332], [86.495, 23.680833333333332], [86.495, 23.681666666666665], [86.495, 23.6825]], [[86.4975, 23.679166666666667], [86.49833333333333, 23.679166666666667], [86.49833333333333, 23.68], [86.4975, 23.68], [86.4975, 23.680833333333332], [86.49666666666667, 23.680833333333332], [86.49583333333334, 23.680833333333332], [86.49583333333334, 23.68], [86.49666666666667, 23.68], [86.49666666666667, 23.679166666666667], [86.4975, 23.679166666666667]]]}}, {"type": "Feature", "properties": {"product": "forest_loss", "area_ha": 9.41}, "geometry": {"type": "Polygon", "coordinates": [[[86.49583333333334, 23.700833333333332], [86.49666666666667, 23.700833333333332], [86.4975, 23.700833333333332], [86.4975, 23.7], [86.4975, 23.699166666666667], [86.49833333333333, 23.699166666666667], [86.49833333333333, 23.698333333333334], [86.4975, 23.698333333333334], [86.4975, 23.697499999999998], [86.49666666666667, 23.697499999999998], [86.49666666666667, 23.698333333333334], [86.49666666666667, 23.699166666666667], [86.49583333333334, 23.699166666666667], [86.49583333333334, 23.7], [86.495, 23.7], [86.495, 23.699166666666667], [86.49416666666667, 23.699166666666667], [86.49416666666667, 23.7], [86.49333333333334, 23.7], [86.49333333333334, 23.700833333333332], [86.49416666666667, 23.700833333333332], [86.495, 23.700833333333332], [86.495, 23.701666666666664], [86.49583333333334, 23.701666666666664], [86.49583333333334, 23.700833333333332]]]}}, {"type": "Feature", "properties": {"product": "forest_loss", "area_ha": 6.27}, "geometry": {"type": "Polygon", "coordinates": [[[86.49166666666667, 23.71], [86.49083333333334, 23.71], [86.49083333333334, 23.710833333333333], [86.49166666666667, 23.710833333333333], [86.4925, 23.710833333333333], [86.49333333333334, 23.710833333333333], [86.49333333333334, 23.71], [86.49416666666667, 23.71], [86.49416666666667, 23.709166666666665], [86.49416666666667, 23.708333333333332], [86.49333333333334, 23.708333333333332], [86.49333333333334, 23.709166666666665], [86.4925, 23.709166666666665], [86.4925, 23.708333333333332], [86.49166666666667, 23.708333333333332], [86.49166666666667, 23.709166666666665], [86.49166666666667, 23.71]]]}}, {"type": "Feature", "properties": {"product": "forest_loss", "area_ha": 27.45}, "geometry": {"type": "Polygon", "coordinates": [[[86.49333333333334, 23.731666666666666], [86.49333333333334, 23.732499999999998], [86.49416666666667, 23.732499999999998], [86.49416666666667, 23.733333333333334], [86.495, 23.733333333333334], [86.49583333333334, 23.733333333333334], [86.49583333333334, 23.734166666666667], [86.49666666666667, 23.734166666666667], [86.49666666666667, 23.735], [86.4975, 23.735], [86.4975, 23.734166666666667], [86.4975, 23.733333333333334], [86.49666666666667, 23.733333333333334], [86.49666666666667, 23.732499999999998], [86.49583333333334, 23.732499999999998], [86.49583333333334, 23.731666666666666], [86.49583333333334, 23.730833333333333], [86.49666666666667, 23.730833333333333], [86.4975, 23.730833333333333], [86.4975, 23.731666666666666], [86.49833333333333, 23.731666666666666], [86.49916666666667, 23.731666666666666], [86.49916666666667, 23.730833333333333], [86.49833333333333, 23.730833333333333], [86.49833333333333, 23.73], [86.4975, 23.73], [86.49666666666667, 23.73], [86.49583333333334, 23.73], [86.49583333333334, 23.729166666666664], [86.49583333333334, 23.72833333333333], [86.495, 23.72833333333333], [86.495, 23.7275], [86.49416666666667, 23.7275], [86.49333333333334, 23.7275], [86.49333333333334, 23.726666666666667], [86.4925, 23.726666666666667], [86.49166666666667, 23.726666666666667], [86.49166666666667, 23.725833333333334], [86.49083333333334, 23.725833333333334], [86.49083333333334, 23.726666666666667], [86.49083333333334, 23.7275], [86.49166666666667, 23.7275], [86.4925, 23.7275], [86.4925, 23.72833333333333], [86.4925, 23.729166666666664], [86.4925, 23.73], [86.49333333333334, 23.73], [86.49333333333334, 23.730833333333333], [86.49333333333334, 23.731666666666666]]]}}], "properties": {"aoi": "jharia", "product": "forest_loss", "total_ha": 544.3, "n_patches": 42}}