{"type": "FeatureCollection", "features": [{"type": "Feature", "properties": {"product": "urban_growth", "area_ha": 10.2}, "geometry": {"type": "Polygon", "coordinates": [[[86.205, 23.654166666666665], [86.205, 23.654999999999998], [86.205, 23.655833333333334], [86.20583333333333, 23.655833333333334], [86.20666666666666, 23.655833333333334], [86.20666666666666, 23.654999999999998], [86.2075, 23.654999999999998], [86.20833333333334, 23.654999999999998], [86.20916666666668, 23.654999999999998], [86.20916666666668, 23.655833333333334], [86.21000000000001, 23.655833333333334], [86.21083333333334, 23.655833333333334], [86.21083333333334, 23.654999999999998], [86.21000000000001, 23.654999999999998], [86.21000000000001, 23.654166666666665], [86.20916666666668, 23.654166666666665], [86.20916666666668, 23.653333333333332], [86.20916666666668, 23.6525], [86.20833333333334, 23.6525], [86.20833333333334, 23.653333333333332], [86.20833333333334, 23.654166666666665], [86.2075, 23.654166666666665], [86.20666666666666, 23.654166666666665], [86.20666666666666, 23.653333333333332], [86.20583333333333, 23.653333333333332], [86.20583333333333, 23.654166666666665], [86.205, 23.654166666666665]]]}}, {"type": "Feature", "properties": {"product": "urban_growth", "area_ha": 47.86}, "geometry": {"type": "Polygon", "coordinates": [[[86.20916666666668, 23.65833333333333], [86.21000000000001, 23.65833333333333], [86.21000000000001, 23.6575], [86.21083333333334, 23.6575], [86.21083333333334, 23.65833333333333], [86.21083333333334, 23.659166666666668], [86.21166666666667, 23.659166666666668], [86.21166666666667, 23.66], [86.21083333333334, 23.66], [86.21000000000001, 23.66], [86.21000000000001, 23.660833333333333], [86.21083333333334, 23.660833333333333], [86.21166666666667, 23.660833333333333], [86.2125, 23.660833333333333], [86.2125, 23.661666666666665], [86.21333333333334, 23.661666666666665], [86.21333333333334, 23.662499999999998], [86.21416666666667, 23.662499999999998], [86.21416666666667, 23.663333333333334], [86.215, 23.663333333333334], [86.215, 23.664166666666667], [86.21416666666667, 23.664166666666667], [86.21416666666667, 23.665], [86.21416666666667, 23.66583333333333], [86.215, 23.66583333333333], [86.215, 23.666666666666664], [86.21583333333334, 23.666666666666664], [86.21666666666667, 23.666666666666664], [86.21666666666667, 23.6675], [86.21583333333334, 23.6675], [86.21583333333334, 23.668333333333333], [86.215, 23.668333333333333], [86.215, 23.669166666666666], [86.21583333333334, 23.669166666666666], [86.21666666666667, 23.669166666666666], [86.21666666666667, 23.668333333333333], [86.2175, 23.668333333333333], [86.2175, 23.6675], [86.21833333333333, 23.6675], [86.21833333333333, 23.666666666666664], [86.21916666666667, 23.666666666666664], [86.22, 23.666666666666664], [86.22, 23.66583333333333], [86.21916666666667, 23.66583333333333], [86.21833333333333, 23.66583333333333], [86.2175, 23.66583333333333], [86.2175, 23.665], [86.21666666666667, 23.665], [86.21583333333334, 23.665], [86.21583333333334, 23.664166666666667], [86.21666666666667, 23.664166666666667], [86.2175, 23.664166666666667], [86.21833333333333, 23.664166666666667], [86.21916666666667, 23.664166666666667], [86.21916666666667, 23.663333333333334], [86.21833333333333, 23.663333333333334], [86.21833333333333, 23.662499999999998], [86.2175, 23.662499999999998], [86.2175, 23.661666666666665], [86.21666666666667, 23.661666666666665], [86.21666666666667, 23.662499999999998], [86.21583333333334, 23.662499999999998], [86.21583333333334, 23.661666666666665], [86.21583333333334, 23.660833333333333], [86.21583333333334, 23.66], [86.215, 23.66], [86.21416666666667, 23.66], [86.21333333333334, 23.66], [86.21333333333334, 23.659166666666668], [86.21333333333334, 23.65833333333333], [86.2125, 23.65833333333333], [86.2125, 23.6575], [86.2125, 23.656666666666666], [86.21333333333334, 23.656666666666666], [86.21333333333334, 23.655833333333334], [86.21416666666667, 23.655833333333334], [86.21416666666667, 23.654999999999998], [86.21333333333334, 23.654999999999998], [86.21333333333334, 23.654166666666665], [86.2125, 23.654166666666665], [86.2125, 23.654999999999998], [86.2125, 23.655833333333334], [86.21166666666667, 23.655833333333334], [86.21083333333334, 23.655833333333334], [86.21083333333334, 23.656666666666666], [86.21000000000001, 23.656666666666666], [86.20916666666668, 23.656666666666666], [86.20916666666668, 23.6575], [86.20916666666668, 23.65833333333333]]]}}, {"type": "Feature", "properties": {"product": "urban_growth", "area_ha": 10.98}, "geometry": {"type": "Polygon", "coordinates": [[[86.20583333333333, 23.660833333333333], [86.20666666666666, 23.660833333333333], [86.2075, 23.660833333333333], [86.2075, 23.66], [86.20833333333334, 23.66], [86.20833333333334, 23.659166666666668], [86.20833333333334, 23.65833333333333], [86.2075, 23.65833333333333], [86.2075, 23.659166666666668], [86.20666666666666, 23.659166666666668], [86.20583333333333, 23.659166666666668], [86.205, 23.659166666666668], [86.205, 23.65833333333333], [86.20416666666667, 23.65833333333333], [86.20333333333333, 23.65833333333333], [86.20333333333333, 23.659166666666668], [86.20333333333333, 23.66], [86.20333333333333, 23.660833333333333], [86.20416666666667, 23.660833333333333], [86.205, 23.660833333333333], [86.20583333333333, 23.660833333333333]]]}}, {"type": "Feature", "properties": {"product": "urban_growth", "area_ha": 6.28}, "geometry": {"type": "Polygon", "coordinates": [[[86.20916666666668, 23.700833333333332], [86.21000000000001, 23.700833333333332], [86.21083333333334, 23.700833333333332], [86.21083333333334, 23.7], [86.21166666666667, 23.7], [86.21166666666667, 23.699166666666667], [86.2125, 23.699166666666667], [86.2125, 23.7], [86.21333333333334, 23.7], [86.21333333333334, 23.699166666666667], [86.21333333333334, 23.698333333333334], [86.2125, 23.698333333333334], [86.21166666666667, 23.698333333333334], [86.21083333333334, 23.698333333333334], [86.21083333333334, 23.699166666666667], [86.21000000000001, 23.699166666666667], [86.21000000000001, 23.7], [86.20916666666668, 23.7], [86.20916666666668, 23.700833333333332]]]}}, {"type": "Feature", "properties": {"product": "urban_growth", "area_ha": 10.98}, "geometry": {"type": "Polygon", "coordinates": [[[86.205, 23.70583333333333], [86.20416666666667, 23.70583333333333], [86.20333333333333, 23.70583333333333], [86.20333333333333, 23.705], [86.2025, 23.705], [86.2025, 23.70583333333333], [86.2025, 23.706666666666667], [86.20333333333333, 23.706666666666667], [86.20333333333333, 23.7075], [86.20416666666667, 23.7075], [86.20416666666667, 23.706666666666667], [86.205, 23.706666666666667], [86.205, 23.7075], [86.20583333333333, 23.7075], [86.20666666666666, 23.7075], [86.2075, 23.7075], [86.2075, 23.706666666666667], [86.20666666666666, 23.706666666666667], [86.20666666666666, 23.70583333333333], [86.2075, 23.70583333333333], [86.2075, 23.705], [86.2075, 23.704166666666666], [86.2075, 23.703333333333333], [86.20666666666666, 23.703333333333333], [86.20666666666666, 23.704166666666666], [86.20666666666666, 23.705], [86.20583333333333, 23.705], [86.20583333333333, 23.70583333333333], [86.205, 23.70583333333333]]]}}, {"type": "Feature", "properties": {"product": "urban_growth", "area_ha": 13.33}, "geometry": {"type": "Polygon", "coordinates": [[[86.205, 23.734166666666667], [86.20583333333333, 23.734166666666667], [86.20583333333333, 23.735], [86.20666666666666, 23.735], [86.20666666666666, 23.735833333333332], [86.2075, 23.735833333333332], [86.20833333333334, 23.735833333333332], [86.20916666666668, 23.735833333333332], [86.21000000000001, 23.735833333333332], [86.21000000000001, 23.735], [86.20916666666668, 23.735], [86.20916666666668, 23.734166666666667], [86.20833333333334, 23.734166666666667], [86.20833333333334, 23.733333333333334], [86.2075, 23.733333333333334], [86.20666666666666, 23.733333333333334], [86.20583333333333, 23.733333333333334], [86.205, 23.733333333333334], [86.205, 23.732499999999998], [86.20416666666667, 23.732499999999998], [86.20416666666667, 23.731666666666666], [86.20333333333333, 23.731666666666666], [86.20333333333333, 23.732499999999998], [86.20333333333333, 23.733333333333334], [86.20333333333333, 23.734166666666667], [86.20416666666667, 23.734166666666667], [86.205, 23.734166666666667]]]}}, {"type": "Feature", "properties": {"product": "urban_growth", "area_ha": 13.32}, "geometry": {"type": "Polygon", "coordinates": [[[86.205, 23.8625], [86.20416666666667, 23.8625], [86.20333333333333, 23.8625], [86.20333333333333, 23.863333333333333], [86.2025, 23.863333333333333], [86.2025, 23.864166666666666], [86.2025, 23.865], [86.20333333333333, 23.865], [86.20416666666667, 23.865], [86.20416666666667, 23.864166666666666], [86.205, 23.864166666666666], [86.205, 23.863333333333333], [86.20583333333333, 23.863333333333333], [86.20583333333333, 23.8625], [86.20666666666666, 23.8625], [86.20666666666666, 23.861666666666665], [86.2075, 23.861666666666665], [86.2075, 23.860833333333332], [86.20833333333334, 23.860833333333332], [86.20833333333334, 23.86], [86.20916666666668, 23.86], [86.20916666666668, 23.859166666666667], [86.20833333333334, 23.859166666666667], [86.2075, 23.859166666666667], [86.2075, 23.86], [86.20666666666666, 23.86], [86.20666666666666, 23.860833333333332], [86.20583333333333, 23.860833333333332], [86.205, 23.860833333333332], [86.205, 23.861666666666665], [86.205, 23.8625]]]}}, {"type": "Feature", "properties": {"product": "urban_growth", "area_ha": 7.05}, "geometry": {"type": "Polygon", "coordinates": [[[86.20916666666668, 23.924166666666665], [86.20916666666668, 23.925], [86.21000000000001, 23.925], [86.21000000000001, 23.924166666666665], [86.21000000000001, 23.923333333333332], [86.21083333333334, 23.923333333333332], [86.21083333333334, 23.924166666666665], [86.21166666666667, 23.924166666666665], [86.2125, 23.924166666666665], [86.21333333333334, 23.924166666666665], [86.21333333333334, 23.923333333333332], [86.2125, 23.923333333333332], [86.21166666666667, 23.923333333333332], [86.21166666666667, 23.9225], [86.21083333333334, 23.9225], [86.21000000000001, 23.9225], [86.21000000000001, 23.921666666666667], [86.20916666666668, 23.921666666666667], [86.20916666666668, 23.9225], [86.20916666666668, 23.923333333333332], [86.20916666666668, 23.924166666666665]]]}}, {"type": "Feature", "properties": {"product": "urban_growth", "area_ha": 8.62}, "geometry": {"type": "Polygon", "coordinates": [[[86.2225, 23.76833333333333], [86.22166666666666, 23.76833333333333], [86.22083333333333, 23.76833333333333], [86.22, 23.76833333333333], [86.22, 23.769166666666667], [86.22, 23.77], [86.22, 23.770833333333332], [86.21916666666667, 23.770833333333332], [86.21833333333333, 23.770833333333332], [86.2175, 23.770833333333332], [86.2175, 23.771666666666665], [86.21833333333333, 23.771666666666665], [86.21916666666667, 23.771666666666665], [86.22, 23.771666666666665], [86.22083333333333, 23.771666666666665], [86.22083333333333, 23.770833333333332], [86.22083333333333, 23.77], [86.22166666666666, 23.77], [86.2225, 23.77], [86.2225, 23.769166666666667], [86.2225, 23.76833333333333]]]}}, {"type": "Feature", "properties": {"product": "urban_growth", "area_ha": 19.62}, "geometry": {"type": "Polygon", "coordinates": [[[86.22333333333333, 23.6525], [86.2225, 23.6525], [86.2225, 23.653333333333332], [86.2225, 23.654166666666665], [86.22333333333333, 23.654166666666665], [86.22416666666668, 23.654166666666665], [86.22500000000001, 23.654166666666665], [86.22583333333334, 23.654166666666665], [86.22583333333334, 23.653333333333332], [86.22583333333334, 23.6525], [86.22666666666667, 23.6525], [86.2275, 23.6525], [86.2275, 23.653333333333332], [86.22666666666667, 23.653333333333332], [86.22666666666667, 23.654166666666665], [86.2275, 23.654166666666665], [86.22833333333334, 23.654166666666665], [86.22916666666667, 23.654166666666665], [86.22916666666667, 23.653333333333332], [86.22916666666667, 23.6525], [86.22916666666667, 23.651666666666667], [86.22833333333334, 23.651666666666667], [86.22833333333334, 23.65083333333333], [86.2275, 23.65083333333333], [86.2275, 23.65], [86.22666666666667, 23.65], [86.22583333333334, 23.65], [86.22583333333334, 23.65083333333333], [86.22583333333334, 23.651666666666667], [86.22500000000001, 23.651666666666667], [86.22416666666668, 23.651666666666667], [86.22333333333333, 23.651666666666667], [86.22333333333333, 23.6525]]]}}, {"type": "Feature", "properties": {"product": "urban_growth", "area_ha": 6.28}, "geometry": {"type": "Polygon", "coordinates": [[[86.22416666666668, 23.659166666666668], [86.22500000000001, 23.659166666666668], [86.22500000000001, 23.65833333333333], [86.22500000000001, 23.6575], [86.22500000000001, 23.656666666666666], [86.22416666666668, 23.656666666666666], [86.22416666666668, 23.6575], [86.22333333333333, 23.6575], [86.22333333333333, 23.656666666666666], [86.2225, 23.656666666666666], [86.2225, 23.6575], [86.2225, 23.65833333333333], [86.22333333333333, 23.65833333333333], [86.22333333333333, 23.659166666666668], [86.22333333333333, 23.66], [86.22416666666668, 23.66], [86.22416666666668, 23.659166666666668]]]}}, {"type": "Feature", "properties": {"product": "urban_growth", "area_ha": 8.63}, "geometry": {"type": "Polygon", "coordinates": [[[86.23083333333334, 23.665], [86.23166666666667, 23.665], [86.23166666666667, 23.66583333333333], [86.2325, 23.66583333333333], [86.23333333333333, 23.66583333333333], [86.23333333333333, 23.666666666666664], [86.23416666666667, 23.666666666666664], [86.23416666666667, 23.66583333333333], [86.23416666666667, 23.665], [86.23333333333333, 23.665], [86.23333333333333, 23.664166666666667], [86.23333333333333, 23.663333333333334], [86.23333333333333, 23.662499999999998], [86.23333333333333, 23.661666666666665], [86.2325, 23.661666666666665], [86.2325, 23.662499999999998], [86.2325, 23.663333333333334], [86.2325, 23.664166666666667], [86.23166666666667, 23.664166666666667], [86.23083333333334, 23.664166666666667], [86.23, 23.664166666666667], [86.23, 23.665], [86.23083333333334, 23.665]]]}}, {"type": "Feature", "properties": {"product": "urban_growth", "area_ha": 8.62}, "geometry": {"type": "Polygon", "coordinates": [[[86.23083333333334, 23.763333333333332], [86.23166666666667, 23.763333333333332], [86.2325, 23.763333333333332], [86.23333333333333, 23.763333333333332], [86.23333333333333, 23.7625], [86.23333333333333, 23.761666666666667], [86.23333333333333, 23.760833333333334], [86.2325, 23.760833333333334], [86.2325, 23.761666666666667], [86.23166666666667, 23.761666666666667], [86.23166666666667, 23.7625], [86.23083333333334, 23.7625], [86.23083333333334, 23.761666666666667], [86.23, 23.761666666666667], [86.22916666666667, 23.761666666666667], [86.22833333333334, 23.761666666666667], [86.22833333333334, 23.7625], [86.22916666666667, 23.7625], [86.23, 23.7625], [86.23, 23.763333333333332], [86.23, 23.764166666666664], [86.23083333333334, 23.764166666666664], [86.23083333333334, 23.763333333333332]]]}}, {"type": "Feature", "properties": {"product": "urban_growth", "area_ha": 11.77}, "geometry": {"type": "Polygon", "coordinates": [[[86.24000000000001, 23.665], [86.24083333333334, 23.665], [86.24083333333334, 23.66583333333333], [86.24166666666667, 23.66583333333333], [86.24166666666667, 23.665], [86.2425, 23.665], [86.2425, 23.66583333333333], [86.24333333333334, 23.66583333333333], [86.24333333333334, 23.665], [86.24416666666667, 23.665], [86.245, 23.665], [86.245, 23.664166666666667], [86.24416666666667, 23.664166666666667], [86.24333333333334, 23.664166666666667], [86.2425, 23.664166666666667], [86.24166666666667, 23.664166666666667], [86.24166666666667, 23.663333333333334], [86.24083333333334, 23.663333333333334], [86.24083333333334, 23.662499999999998], [86.24000000000001, 23.662499999999998], [86.23916666666668, 23.662499999999998], [86.23916666666668, 23.663333333333334], [86.23916666666668, 23.664166666666667], [86.23833333333333, 23.664166666666667], [86.23833333333333, 23.665], [86.23916666666668, 23.665], [86.24000000000001, 23.665]]]}}, {"type": "Feature", "properties": {"product": "urban_growth", "area_ha": 8.63}, "geometry": {"type": "Polygon", "coordinates": [[[86.24416666666667, 23.6825], [86.24416666666667, 23.681666666666665], [86.24416666666667, 23.680833333333332], [86.24333333333334, 23.680833333333332], [86.24333333333334, 23.68], [86.2425, 23.68], [86.2425, 23.679166666666667], [86.24166666666667, 23.679166666666667], [86.24166666666667, 23.67833333333333], [86.24166666666667, 23.6775], [86.2425, 23.6775], [86.2425, 23.676666666666666], [86.24166666666667, 23.676666666666666], [86.24083333333334, 23.676666666666666], [86.24083333333334, 23.6775], [86.24083333333334, 23.67833333333333], [86.24083333333334, 23.679166666666667], [86.24083333333334, 23.68], [86.24166666666667, 23.68], [86.24166666666667, 23.680833333333332], [86.2425, 23.680833333333332], [86.2425, 23.681666666666665], [86.24333333333334, 23.681666666666665], [86.24333333333334, 23.6825], [86.24416666666667, 23.6825]]]}}, {"type": "Feature", "properties": {"product": "urban_growth", "area_ha": 8.62}, "geometry": {"type": "Polygon", "coordinates": [[[86.24416666666667, 23.764166666666664], [86.245, 23.764166666666664], [86.245, 23.763333333333332], [86.245, 23.7625], [86.245, 23.761666666666667], [86.24416666666667, 23.761666666666667], [86.24333333333334, 23.761666666666667], [86.24333333333334, 23.760833333333334], [86.2425, 23.760833333333334], [86.24166666666667, 23.760833333333334], [86.24166666666667, 23.761666666666667], [86.24166666666667, 23.7625], [86.2425, 23.7625], [86.2425, 23.763333333333332], [86.24333333333334, 23.763333333333332], [86.24333333333334, 23.764166666666664], [86.24416666666667, 23.764166666666664]]]}}, {"type": "Feature", "properties": {"product": "urban_growth", "area_ha": 25.11}, "geometry": {"type": "Polygon", "coordinates": [[[86.24833333333333, 23.6675], [86.24833333333333, 23.668333333333333], [86.24833333333333, 23.669166666666666], [86.24916666666667, 23.669166666666666], [86.24916666666667, 23.669999999999998], [86.25, 23.669999999999998], [86.25, 23.670833333333334], [86.24916666666667, 23.670833333333334], [86.24833333333333, 23.670833333333334], [86.2475, 23.670833333333334], [86.24666666666667, 23.670833333333334], [86.24666666666667, 23.671666666666667], [86.24583333333334, 23.671666666666667], [86.24583333333334, 23.6725], [86.24583333333334, 23.673333333333332], [86.24583333333334, 23.674166666666665], [86.24583333333334, 23.675], [86.24666666666667, 23.675], [86.2475, 23.675], [86.2475, 23.675833333333333], [86.24833333333333, 23.675833333333333], [86.24833333333333, 23.675], [86.24833333333333, 23.674166666666665], [86.2475, 23.674166666666665], [86.24666666666667, 23.674166666666665], [86.24666666666667, 23.673333333333332], [86.24666666666667, 23.6725], [86.2475, 23.6725], [86.2475, 23.673333333333332], [86.24833333333333, 23.673333333333332], [86.24833333333333, 23.6725], [86.24916666666667, 23.6725], [86.25, 23.6725], [86.25083333333333, 23.6725], [86.25166666666667, 23.6725], [86.25166666666667, 23.671666666666667], [86.25083333333333, 23.671666666666667], [86.25083333333333, 23.670833333333334], [86.25083333333333, 23.669999999999998], [86.25083333333333, 23.669166666666666], [86.25083333333333, 23.668333333333333], [86.25166666666667, 23.668333333333333], [86.25166666666667, 23.6675], [86.2525, 23.6675], [86.2525, 23.666666666666664], [86.2525, 23.66583333333333], [86.25166666666667, 23.66583333333333], [86.25166666666667, 23.666666666666664], [86.25083333333333, 23.666666666666664], [86.25, 23.666666666666664], [86.25, 23.6675], [86.25, 23.668333333333333], [86.24916666666667, 23.668333333333333], [86.24916666666667, 23.6675], [86.24833333333333, 23.6675]]]}}, {"type": "Feature", "properties": {"product": "urban_growth", "area_ha": 7.06}, "geometry": {"type": "Polygon", "coordinates": [[[86.2525, 23.675], [86.2525, 23.675833333333333], [86.25333333333333, 23.675833333333333], [86.25333333333333, 23.675], [86.25333333333333, 23.674166666666665], [86.25333333333333, 23.673333333333332], [86.2525, 23.673333333333332], [86.25166666666667, 23.673333333333332], [86.25083333333333, 23.673333333333332], [86.25, 23.673333333333332], [86.25, 23.674166666666665], [86.25, 23.675], [86.25083333333333, 23.675], [86.25166666666667, 23.675], [86.2525, 23.675]]]}}, {"type": "Feature", "properties": {"product": "urban_growth", "area_ha": 25.1}, "geometry": {"type": "Polygon", "coordinates": [[[86.25583333333334, 23.679166666666667], [86.25583333333334, 23.68], [86.25583333333334, 23.680833333333332], [86.25500000000001, 23.680833333333332], [86.25500000000001, 23.681666666666665], [86.25500000000001, 23.6825], [86.25500000000001, 23.683333333333334], [86.25500000000001, 23.684166666666666], [86.25583333333334, 23.684166666666666], [86.25583333333334, 23.685], [86.25583333333334, 23.68583333333333], [86.25666666666667, 23.68583333333333], [86.25666666666667, 23.686666666666667], [86.25666666666667, 23.6875], [86.25750000000001, 23.6875], [86.25750000000001, 23.688333333333333], [86.25833333333334, 23.688333333333333], [86.25833333333334, 23.6875], [86.25833333333334, 23.686666666666667], [86.25833333333334, 23.68583333333333], [86.25750000000001, 23.68583333333333], [86.25750000000001, 23.685], [86.25666666666667, 23.685], [86.25666666666667, 23.684166666666666], [86.25666666666667, 23.683333333333334], [86.25583333333334, 23.683333333333334], [86.25583333333334, 23.6825], [86.25583333333334, 23.681666666666665], [86.25666666666667, 23.681666666666665], [86.25666666666667, 23.680833333333332], [86.25750000000001, 23.680833333333332], [86.25750000000001, 23.68], [86.25833333333334, 23.68], [86.25833333333334, 23.679166666666667], [86.25833333333334, 23.67833333333333], [86.25833333333334, 23.6775], [86.25916666666667, 23.6775], [86.25916666666667, 23.676666666666666], [86.25833333333334, 23.676666666666666], [86.25750000000001, 23.676666666666666], [86.25750000000001, 23.675833333333333], [86.25666666666667, 23.675833333333333], [86.25583333333334, 23.675833333333333], [86.25583333333334, 23.676666666666666], [86.25583333333334, 23.6775], [86.25500000000001, 23.6775], [86.25500000000001, 23.67833333333333], [86.25583333333334, 23.67833333333333], [86.25583333333334, 23.679166666666667]]]}}, {"type": "Feature", "properties": {"product": "urban_growth", "area_ha": 6.28}, "geometry": {"type": "Polygon", "coordinates": [[[86.25166666666667, 23.680833333333332], [86.25083333333333, 23.680833333333332], [86.25083333333333, 23.68], [86.25, 23.68], [86.25, 23.680833333333332], [86.25, 23.681666666666665], [86.25, 23.6825], [86.25, 23.683333333333334], [86.24916666666667, 23.683333333333334], [86.24916666666667, 23.684166666666666], [86.25, 23.684166666666666], [86.25, 23.685], [86.25083333333333, 23.685], [86.25083333333333, 23.684166666666666], [86.25083333333333, 23.683333333333334], [86.25083333333333, 23.6825], [86.25083333333333, 23.681666666666665], [86.25166666666667, 23.681666666666665], [86.25166666666667, 23.680833333333332]]]}}, {"type": "Feature", "properties": {"product": "urban_growth", "area_ha": 7.06}, "geometry": {"type": "Polygon", "coordinates": [[[86.25, 23.6875], [86.25083333333333, 23.6875], [86.25083333333333, 23.686666666666667], [86.25, 23.686666666666667], [86.25, 23.68583333333333], [86.25, 23.685], [86.24916666666667, 23.685], [86.24916666666667, 23.68583333333333], [86.24833333333333, 23.68583333333333], [86.2475, 23.68583333333333], [86.2475, 23.685], [86.24666666666667, 23.685], [86.24666666666667, 23.68583333333333], [86.24583333333334, 23.68583333333333], [86.24583333333334, 23.686666666666667], [86.24666666666667, 23.686666666666667], [86.2475, 23.686666666666667], [86.24833333333333, 23.686666666666667], [86.24916666666667, 23.686666666666667], [86.24916666666667, 23.6875], [86.25, 23.6875]]]}}, {"type": "Feature", "properties": {"product": "urban_growth", "area_ha": 6.27}, "geometry": {"type": "Polygon", "coordinates": [[[86.2475, 23.729166666666664], [86.2475, 23.72833333333333], [86.2475, 23.7275], [86.2475, 23.726666666666667], [86.2475, 23.725833333333334], [86.24666666666667, 23.725833333333334], [86.24583333333334, 23.725833333333334], [86.245, 23.725833333333334], [86.245, 23.726666666666667], [86.245, 23.7275], [86.24583333333334, 23.7275], [86.24666666666667, 23.7275], [86.24666666666667, 23.72833333333333], [86.24666666666667, 23.729166666666664], [86.2475, 23.729166666666664]]]}}, {"type": "Feature", "properties": {"product": "urban_growth", "area_ha": 14.11}, "geometry": {"type": "Polygon", "coordinates": [[[86.25416666666666, 23.758333333333333], [86.25500000000001, 23.758333333333333], [86.25583333333334, 23.758333333333333], [86.25583333333334, 23.7575], [86.25666666666667, 23.7575], [86.25666666666667, 23.756666666666668], [86.25666666666667, 23.75583333333333], [86.25750000000001, 23.75583333333333], [86.25750000000001, 23.755], [86.25666666666667, 23.755], [86.25666666666667, 23.754166666666666], [86.25666666666667, 23.753333333333334], [86.25666666666667, 23.752499999999998], [86.25583333333334, 23.752499999999998], [86.25583333333334, 23.751666666666665], [86.25500000000001, 23.751666666666665], [86.25500000000001, 23.752499999999998], [86.25500000000001, 23.753333333333334], [86.25500000000001, 23.754166666666666], [86.25500000000001, 23.755], [86.25416666666666, 23.755], [86.25416666666666, 23.75583333333333], [86.25500000000001, 23.75583333333333], [86.25500000000001, 23.756666666666668], [86.25416666666666, 23.756666666666668], [86.25416666666666, 23.7575], [86.25416666666666, 23.758333333333333]]]}}, {"type": "Feature", "properties": {"product": "urban_growth", "area_ha": 25.09}, "geometry": {"type": "Polygon", "coordinates": [[[86.24666666666667, 23.761666666666667], [86.2475, 23.761666666666667], [86.2475, 23.7625], [86.24666666666667, 23.7625], [86.24666666666667, 23.763333333333332], [86.24666666666667, 23.764166666666664], [86.24666666666667, 23.765], [86.24666666666667, 23.765833333333333], [86.24666666666667, 23.766666666666666], [86.24666666666667, 23.7675], [86.24666666666667, 23.76833333333333], [86.24666666666667, 23.769166666666667], [86.24583333333334, 23.769166666666667], [86.24583333333334, 23.77], [86.24583333333334, 23.770833333333332], [86.24583333333334, 23.771666666666665], [86.24583333333334, 23.7725], [86.24583333333334, 23.773333333333333], [86.24666666666667, 23.773333333333333], [86.24666666666667, 23.7725], [86.24666666666667, 23.771666666666665], [86.24666666666667, 23.770833333333332], [86.2475, 23.770833333333332], [86.24833333333333, 23.770833333333332], [86.24833333333333, 23.77], [86.2475, 23.77], [86.2475, 23.769166666666667], [86.2475, 23.76833333333333], [86.2475, 23.7675], [86.2475, 23.766666666666666], [86.24833333333333, 23.766666666666666], [86.24833333333333, 23.765833333333333], [86.24833333333333, 23.765], [86.24833333333333, 23.764166666666664], [86.24833333333333, 23.763333333333332], [86.24833333333333, 23.7625], [86.24916666666667, 23.7625], [86.24916666666667, 23.761666666666667], [86.25, 23.761666666666667], [86.25083333333333, 23.761666666666667], [86.25083333333333, 23.760833333333334], [86.25083333333333, 23.759999999999998], [86.25, 23.759999999999998], [86.24916666666667, 23.759999999999998], [86.24916666666667, 23.760833333333334], [86.24833333333333, 23.760833333333334], [86.2475, 23.760833333333334], [86.2475, 23.759999999999998], [86.24666666666667, 23.759999999999998], [86.24666666666667, 23.760833333333334], [86.24583333333334, 23.760833333333334], [86.24583333333334, 23.761666666666667], [86.24666666666667, 23.761666666666667]]]}}, {"type": "Feature", "properties": {"product": "urban_growth", "area_ha": 7.06}, "geometry": {"type": "Polygon", "coordinates": [[[86.29166666666667, 23.67833333333333], [86.29166666666667, 23.6775], [86.29166666666667, 23.676666666666666], [86.29166666666667, 23.675833333333333], [86.29166666666667, 23.675], [86.29166666666667, 23.674166666666665], [86.29166666666667, 23.673333333333332], [86.29166666666667, 23.6725], [86.29083333333334, 23.6725], [86.29, 23.6725], [86.29, 23.673333333333332], [86.29083333333334, 23.673333333333332], [86.29083333333334, 23.674166666666665], [86.29083333333334, 23.675], [86.29083333333334, 23.675833333333333], [86.29083333333334, 23.676666666666666], [86.29083333333334, 23.6775], [86.29083333333334, 23.67833333333333], [86.29083333333334, 23.679166666666667], [86.29166666666667, 23.679166666666667], [86.29166666666667, 23.67833333333333]]]}}, {"type": "Feature", "properties": {"product": "urban_growth", "area_ha": 8.63}, "geometry": {"type": "Polygon", "coordinates": [[[86.2825, 23.686666666666667], [86.28333333333333, 23.686666666666667], [86.28333333333333, 23.68583333333333], [86.28416666666666, 23.68583333333333], [86.285, 23.68583333333333], [86.28583333333333, 23.68583333333333], [86.28666666666668, 23.68583333333333], [86.28666666666668, 23.686666666666667], [86.28750000000001, 23.686666666666667], [86.28750000000001, 23.68583333333333], [86.28750000000001, 23.685], [86.28666666666668, 23.685], [86.28583333333333, 23.685], [86.28583333333333, 23.684166666666666], [86.285, 23.684166666666666], [86.28416666666666, 23.684166666666666], [86.28416666666666, 23.685], [86.28333333333333, 23.685], [86.2825, 23.685], [86.2825, 23.68583333333333], [86.28166666666667, 23.68583333333333], [86.28166666666667, 23.686666666666667], [86.2825, 23.686666666666667]]]}}, {"type": "Feature", "properties": {"product": "urban_growth", "area_ha": 8.63}, "geometry": {"type": "Polygon", "coordinates": [[[86.29, 23.69333333333333], [86.29, 23.694166666666668], [86.28916666666667, 23.694166666666668], [86.28916666666667, 23.695], [86.29, 23.695], [86.29, 23.695833333333333], [86.29083333333334, 23.695833333333333], [86.29083333333334, 23.696666666666665], [86.29166666666667, 23.696666666666665], [86.29166666666667, 23.695833333333333], [86.29166666666667, 23.695], [86.29166666666667, 23.694166666666668], [86.29083333333334, 23.694166666666668], [86.29083333333334, 23.69333333333333], [86.29166666666667, 23.69333333333333], [86.29166666666667, 23.6925], [86.29166666666667, 23.691666666666666], [86.29083333333334, 23.691666666666666], [86.29, 23.691666666666666], [86.29, 23.6925], [86.29, 23.69333333333333]]]}}, {"type": "Feature", "properties": {"product": "urban_growth", "area_ha": 6.28}, "geometry": {"type": "Polygon", "coordinates": [[[86.295, 23.695833333333333], [86.295, 23.695], [86.29583333333333, 23.695], [86.29583333333333, 23.695833333333333], [86.29666666666667, 23.695833333333333], [86.29666666666667, 23.695], [86.29666666666667, 23.694166666666668], [86.29583333333333, 23.694166666666668], [86.29583333333333, 23.69333333333333], [86.29583333333333, 23.6925], [86.295, 23.6925], [86.295, 23.69333333333333], [86.295, 23.694166666666668], [86.29416666666667, 23.694166666666668], [86.29416666666667, 23.695], [86.29333333333334, 23.695], [86.29333333333334, 23.695833333333333], [86.29416666666667, 23.695833333333333], [86.295, 23.695833333333333]]]}}, {"type": "Feature", "properties": {"product": "urban_growth", "area_ha": 6.27}, "geometry": {"type": "Polygon", "coordinates": [[[86.29333333333334, 23.788333333333334], [86.29416666666667, 23.788333333333334], [86.29416666666667, 23.787499999999998], [86.29333333333334, 23.787499999999998], [86.29333333333334, 23.786666666666665], [86.2925, 23.786666666666665], [86.29166666666667, 23.786666666666665], [86.29083333333334, 23.786666666666665], [86.29083333333334, 23.787499999999998], [86.29083333333334, 23.788333333333334], [86.29166666666667, 23.788333333333334], [86.29166666666667, 23.789166666666667], [86.2925, 23.789166666666667], [86.2925, 23.788333333333334], [86.29333333333334, 23.788333333333334]]]}}, {"type": "Feature", "properties": {"product": "urban_growth", "area_ha": 21.95}, "geometry": {"type": "Polygon", "coordinates": [[[86.3125, 23.788333333333334], [86.31333333333333, 23.788333333333334], [86.31333333333333, 23.789166666666667], [86.31416666666667, 23.789166666666667], [86.31416666666667, 23.79], [86.315, 23.79], [86.31583333333333, 23.79], [86.31583333333333, 23.789166666666667], [86.31666666666666, 23.789166666666667], [86.31750000000001, 23.789166666666667], [86.31833333333334, 23.789166666666667], [86.31833333333334, 23.788333333333334], [86.31750000000001, 23.788333333333334], [86.31750000000001, 23.787499999999998], [86.31833333333334, 23.787499999999998], [86.31833333333334, 23.786666666666665], [86.31916666666667, 23.786666666666665], [86.31916666666667, 23.785833333333333], [86.31916666666667, 23.785], [86.31833333333334, 23.785], [86.31833333333334, 23.784166666666668], [86.31750000000001, 23.784166666666668], [86.31750000000001, 23.785], [86.31666666666666, 23.785], [86.31666666666666, 23.784166666666668], [86.31583333333333, 23.784166666666668], [86.31583333333333, 23.785], [86.315, 23.785], [86.315, 23.785833333333333], [86.315, 23.786666666666665], [86.315, 23.787499999999998], [86.31416666666667, 23.787499999999998], [86.31333333333333, 23.787499999999998], [86.31333333333333, 23.786666666666665], [86.3125, 23.786666666666665], [86.3125, 23.787499999999998], [86.3125, 23.788333333333334]], [[86.315, 23.789166666666667], [86.315, 23.788333333333334], [86.31583333333333, 23.788333333333334], [86.31583333333333, 23.789166666666667], [86.315, 23.789166666666667]], [[86.31666666666666, 23.786666666666665], [86.31583333333333, 23.786666666666665], [86.31583333333333, 23.785833333333333], [86.31666666666666, 23.785833333333333], [86.31750000000001, 23.785833333333333], [86.31750000000001, 23.786666666666665], [86.31666666666666, 23.786666666666665]]]}}, {"type": "Feature", "properties": {"product": "urban_growth", "area_ha": 6.27}, "geometry": {"type": "Polygon", "coordinates": [[[86.3125, 23.794166666666666], [86.31333333333333, 23.794166666666666], [86.31416666666667, 23.794166666666666], [86.315, 23.794166666666666], [86.315, 23.793333333333333], [86.31416666666667, 23.793333333333333], [86.31333333333333, 23.793333333333333], [86.31333333333333, 23.7925], [86.3125, 23.7925], [86.31166666666667, 23.7925], [86.31083333333333, 23.7925], [86.31, 23.7925], [86.31, 23.793333333333333], [86.31083333333333, 23.793333333333333], [86.31166666666667, 23.793333333333333], [86.31166666666667, 23.794166666666666], [86.3125, 23.794166666666666]]]}}, {"type": "Feature", "properties": {"product": "urban_growth", "area_ha": 7.85}, "geometry": {"type": "Polygon", "coordinates": [[[86.31833333333334, 23.6575], [86.31833333333334, 23.65833333333333], [86.31916666666667, 23.65833333333333], [86.31916666666667, 23.6575], [86.31916666666667, 23.656666666666666], [86.31916666666667, 23.655833333333334], [86.32000000000001, 23.655833333333334], [86.32000000000001, 23.654999999999998], [86.32000000000001, 23.654166666666665], [86.32000000000001, 23.653333333333332], [86.32000000000001, 23.6525], [86.32000000000001, 23.651666666666667], [86.31916666666667, 23.651666666666667], [86.31916666666667, 23.6525], [86.31916666666667, 23.653333333333332], [86.31916666666667, 23.654166666666665], [86.31916666666667, 23.654999999999998], [86.31833333333334, 23.654999999999998], [86.31833333333334, 23.655833333333334], [86.31750000000001, 23.655833333333334], [86.31750000000001, 23.656666666666666], [86.31833333333334, 23.656666666666666], [86.31833333333334, 23.6575]]]}}, {"type": "Feature", "properties": {"product": "urban_growth", "area_ha": 8.63}, "geometry": {"type": "Polygon", "coordinates": [[[86.31416666666667, 23.67833333333333], [86.315, 23.67833333333333], [86.31583333333333, 23.67833333333333], [86.31583333333333, 23.6775], [86.31666666666666, 23.6775], [86.31750000000001, 23.6775], [86.31833333333334, 23.6775], [86.31833333333334, 23.676666666666666], [86.31916666666667, 23.676666666666666], [86.31916666666667, 23.675833333333333], [86.31833333333334, 23.675833333333333], [86.31750000000001, 23.675833333333333], [86.31666666666666, 23.675833333333333], [86.31666666666666, 23.676666666666666], [86.31583333333333, 23.676666666666666], [86.31583333333333, 23.675833333333333], [86.315, 23.675833333333333], [86.315, 23.676666666666666], [86.31416666666667, 23.676666666666666], [86.31416666666667, 23.6775], [86.31416666666667, 23.67833333333333]]]}}, {"type": "Feature", "properties": {"product": "urban_growth", "area_ha": 7.06}, "geometry": {"type": "Polygon", "coordinates": [[[86.31750000000001, 23.784166666666668], [86.31750000000001, 23.78333333333333], [86.31833333333334, 23.78333333333333], [86.31833333333334, 23.7825], [86.31750000000001, 23.7825], [86.31750000000001, 23.781666666666666], [86.31833333333334, 23.781666666666666], [86.31833333333334, 23.780833333333334], [86.31916666666667, 23.780833333333334], [86.32000000000001, 23.780833333333334], [86.32000000000001, 23.779999999999998], [86.31916666666667, 23.779999999999998], [86.31833333333334, 23.779999999999998], [86.31750000000001, 23.779999999999998], [86.31750000000001, 23.780833333333334], [86.31666666666666, 23.780833333333334], [86.31666666666666, 23.781666666666666], [86.31666666666666, 23.7825], [86.31666666666666, 23.78333333333333], [86.31666666666666, 23.784166666666668], [86.31750000000001, 23.784166666666668]]]}}, {"type": "Feature", "properties": {"product": "urban_growth", "area_ha": 12.54}, "geometry": {"type": "Polygon", "coordinates": [[[86.32416666666667, 23.849999999999998], [86.32416666666667, 23.850833333333334], [86.32333333333334, 23.850833333333334], [86.32333333333334, 23.851666666666667], [86.3225, 23.851666666666667], [86.32166666666667, 23.851666666666667], [86.32166666666667, 23.8525], [86.3225, 23.8525], [86.3225, 23.85333333333333], [86.32333333333334, 23.85333333333333], [86.32333333333334, 23.8525], [86.32416666666667, 23.8525], [86.325, 23.8525], [86.325, 23.851666666666667], [86.32583333333334, 23.851666666666667], [86.32666666666667, 23.851666666666667], [86.32666666666667, 23.850833333333334], [86.3275, 23.850833333333334], [86.3275, 23.849999999999998], [86.32666666666667, 23.849999999999998], [86.32666666666667, 23.849166666666665], [86.32583333333334, 23.849166666666665], [86.32583333333334, 23.848333333333333], [86.325, 23.848333333333333], [86.325, 23.849166666666665], [86.325, 23.849999999999998], [86.32416666666667, 23.849999999999998]]]}}, {"type": "Feature", "properties": {"product": "urban_growth", "area_ha": 7.83}, "geometry": {"type": "Polygon", "coordinates": [[[86.32833333333333, 23.864166666666666], [86.32916666666667, 23.864166666666666], [86.33, 23.864166666666666], [86.33, 23.863333333333333], [86.33, 23.8625], [86.32916666666667, 23.8625], [86.32833333333333, 23.8625], [86.3275, 23.8625], [86.32666666666667, 23.8625], [86.32583333333334, 23.8625], [86.32583333333334, 23.861666666666665], [86.32583333333334, 23.860833333333332], [86.325, 23.860833333333332], [86.325, 23.861666666666665], [86.325, 23.8625], [86.325, 23.863333333333333], [86.32583333333334, 23.863333333333333], [86.32666666666667, 23.863333333333333], [86.3275, 23.863333333333333], [86.32833333333333, 23.863333333333333], [86.32833333333333, 23.864166666666666]]]}}, {"type": "Feature", "properties": {"product": "urban_growth", "area_ha": 29.77}, "geometry": {"type": "Polygon", "coordinates": [[[86.33500000000001, 23.868333333333332], [86.33583333333334, 23.868333333333332], [86.33666666666667, 23.868333333333332], [86.3375, 23.868333333333332], [86.3375, 23.869166666666665], [86.33833333333334, 23.869166666666665], [86.33833333333334, 23.868333333333332], [86.33916666666667, 23.868333333333332], [86.33916666666667, 23.869166666666665], [86.34, 23.869166666666665], [86.34, 23.868333333333332], [86.34083333333334, 23.868333333333332], [86.34166666666667, 23.868333333333332], [86.34166666666667, 23.869166666666665], [86.34166666666667, 23.87], [86.3425, 23.87], [86.3425, 23.869166666666665], [86.34333333333333, 23.869166666666665], [86.34333333333333, 23.868333333333332], [86.34416666666667, 23.868333333333332], [86.34416666666667, 23.8675], [86.345, 23.8675], [86.34583333333333, 23.8675], [86.34583333333333, 23.866666666666667], [86.345, 23.866666666666667], [86.345, 23.86583333333333], [86.345, 23.865], [86.34416666666667, 23.865], [86.34416666666667, 23.86583333333333], [86.34333333333333, 23.86583333333333], [86.34333333333333, 23.866666666666667], [86.3425, 23.866666666666667], [86.3425, 23.86583333333333], [86.34166666666667, 23.86583333333333], [86.34083333333334, 23.86583333333333], [86.34083333333334, 23.866666666666667], [86.34, 23.866666666666667], [86.33916666666667, 23.866666666666667], [86.33916666666667, 23.86583333333333], [86.33833333333334, 23.86583333333333], [86.3375, 23.86583333333333], [86.33666666666667, 23.86583333333333], [86.33666666666667, 23.866666666666667], [86.33583333333334, 23.866666666666667], [86.33500000000001, 23.866666666666667], [86.33500000000001, 23.8675], [86.33416666666668, 23.8675], [86.33416666666668, 23.868333333333332], [86.33500000000001, 23.868333333333332]]]}}, {"type": "Feature", "properties": {"product": "urban_growth", "area_ha": 7.85}, "geometry": {"type": "Polygon", "coordinates": [[[86.35000000000001, 23.673333333333332], [86.35000000000001, 23.6725], [86.35083333333334, 23.6725], [86.35166666666667, 23.6725], [86.35166666666667, 23.671666666666667], [86.35083333333334, 23.671666666666667], [86.35000000000001, 23.671666666666667], [86.35000000000001, 23.670833333333334], [86.35000000000001, 23.669999999999998], [86.34916666666668, 23.669999999999998], [86.34833333333333, 23.669999999999998], [86.34833333333333, 23.670833333333334], [86.34833333333333, 23.671666666666667], [86.34833333333333, 23.6725], [86.34833333333333, 23.673333333333332], [86.34916666666668, 23.673333333333332], [86.35000000000001, 23.673333333333332]]]}}, {"type": "Feature", "properties": {"product": "urban_growth", "area_ha": 17.26}, "geometry": {"type": "Polygon", "coordinates": [[[86.34833333333333, 23.690833333333334], [86.34916666666668, 23.690833333333334], [86.34916666666668, 23.689999999999998], [86.35000000000001, 23.689999999999998], [86.35083333333334, 23.689999999999998], [86.35083333333334, 23.690833333333334], [86.35166666666667, 23.690833333333334], [86.35166666666667, 23.691666666666666], [86.3525, 23.691666666666666], [86.3525, 23.690833333333334], [86.35333333333334, 23.690833333333334], [86.35333333333334, 23.689999999999998], [86.35416666666667, 23.689999999999998], [86.355, 23.689999999999998], [86.355, 23.689166666666665], [86.355, 23.688333333333333], [86.35416666666667, 23.688333333333333], [86.35333333333334, 23.688333333333333], [86.3525, 23.688333333333333], [86.35166666666667, 23.688333333333333], [86.35166666666667, 23.6875], [86.35166666666667, 23.686666666666667], [86.35083333333334, 23.686666666666667], [86.35083333333334, 23.6875], [86.35000000000001, 23.6875], [86.35000000000001, 23.688333333333333], [86.34916666666668, 23.688333333333333], [86.34916666666668, 23.689166666666665], [86.34833333333333, 23.689166666666665], [86.34833333333333, 23.689999999999998], [86.34833333333333, 23.690833333333334]], [[86.35083333333334, 23.688333333333333], [86.35083333333334, 23.689166666666665], [86.35000000000001, 23.689166666666665], [86.35000000000001, 23.688333333333333], [86.35083333333334, 23.688333333333333]]]}}, {"type": "Feature", "properties": {"product": "urban_growth", "area_ha": 7.05}, "geometry": {"type": "Polygon", "coordinates": [[[86.34416666666667, 23.81], [86.345, 23.81], [86.345, 23.809166666666666], [86.34583333333333, 23.809166666666666], [86.34583333333333, 23.808333333333334], [86.34666666666666, 23.808333333333334], [86.3475, 23.808333333333334], [86.3475, 23.8075], [86.34666666666666, 23.8075], [86.34666666666666, 23.806666666666665], [86.34583333333333, 23.806666666666665], [86.34583333333333, 23.8075], [86.345, 23.8075], [86.345, 23.808333333333334], [86.34416666666667, 23.808333333333334], [86.34333333333333, 23.808333333333334], [86.34333333333333, 23.809166666666666], [86.34333333333333, 23.81], [86.34416666666667, 23.81]]]}}, {"type": "Feature", "properties": {"product": "urban_growth", "area_ha": 10.97}, "geometry": {"type": "Polygon", "coordinates": [[[86.34583333333333, 23.814999999999998], [86.345, 23.814999999999998], [86.345, 23.815833333333334], [86.34583333333333, 23.815833333333334], [86.34583333333333, 23.816666666666666], [86.34583333333333, 23.8175], [86.34666666666666, 23.8175], [86.34666666666666, 23.816666666666666], [86.3475, 23.816666666666666], [86.34833333333333, 23.816666666666666], [86.34833333333333, 23.8175], [86.34916666666668, 23.8175], [86.34916666666668, 23.816666666666666], [86.34916666666668, 23.815833333333334], [86.34916666666668, 23.814999999999998], [86.34916666666668, 23.814166666666665], [86.34916666666668, 23.813333333333333], [86.34833333333333, 23.813333333333333], [86.34833333333333, 23.814166666666665], [86.3475, 23.814166666666665], [86.34666666666666, 23.814166666666665], [86.34666666666666, 23.814999999999998], [86.34583333333333, 23.814999999999998]], [[86.3475, 23.814999999999998], [86.34833333333333, 23.814999999999998], [86.34833333333333, 23.815833333333334], [86.3475, 23.815833333333334], [86.3475, 23.814999999999998]]]}}, {"type": "Feature", "properties": {"product": "urban_growth", "area_ha": 7.05}, "geometry": {"type": "Polygon", "coordinates": [[[86.3425, 23.82], [86.34333333333333, 23.82], [86.34416666666667, 23.82], [86.345, 23.82], [86.34583333333333, 23.82], [86.34583333333333, 23.819166666666668], [86.345, 23.819166666666668], [86.345, 23.81833333333333], [86.345, 23.8175], [86.34416666666667, 23.8175], [86.34333333333333, 23.8175], [86.34333333333333, 23.81833333333333], [86.3425, 23.81833333333333], [86.3425, 23.819166666666668], [86.3425, 23.82]]]}}, {"type": "Feature", "properties": {"product": "urban_growth", "area_ha": 10.97}, "geometry": {"type": "Polygon", "coordinates": [[[86.35000000000001, 23.83], [86.35000000000001, 23.83083333333333], [86.35083333333334, 23.83083333333333], [86.35166666666667, 23.83083333333333], [86.35166666666667, 23.83], [86.3525, 23.83], [86.3525, 23.829166666666666], [86.35166666666667, 23.829166666666666], [86.35166666666667, 23.828333333333333], [86.3525, 23.828333333333333], [86.35333333333334, 23.828333333333333], [86.35416666666667, 23.828333333333333], [86.35416666666667, 23.829166666666666], [86.35416666666667, 23.83], [86.355, 23.83], [86.355, 23.829166666666666], [86.355, 23.828333333333333], [86.355, 23.8275], [86.35416666666667, 23.8275], [86.35333333333334, 23.8275], [86.35333333333334, 23.826666666666664], [86.3525, 23.826666666666664], [86.35166666666667, 23.826666666666664], [86.35166666666667, 23.8275], [86.35083333333334, 23.8275], [86.35083333333334, 23.828333333333333], [86.35083333333334, 23.829166666666666], [86.35083333333334, 23.83], [86.35000000000001, 23.83]]]}}, {"type": "Feature", "properties": {"product": "urban_growth", "area_ha": 17.24}, "geometry": {"type": "Polygon", "coordinates": [[[86.35833333333333, 23.81], [86.35916666666667, 23.81], [86.36, 23.81], [86.36, 23.809166666666666], [86.36083333333333, 23.809166666666666], [86.36083333333333, 23.808333333333334], [86.36, 23.808333333333334], [86.36, 23.8075], [86.36083333333333, 23.8075], [86.36166666666666, 23.8075], [86.3625, 23.8075], [86.3625, 23.806666666666665], [86.3625, 23.805833333333332], [86.36333333333333, 23.805833333333332], [86.36333333333333, 23.805], [86.3625, 23.805], [86.36166666666666, 23.805], [86.36166666666666, 23.805833333333332], [86.36083333333333, 23.805833333333332], [86.36, 23.805833333333332], [86.36, 23.806666666666665], [86.35916666666667, 23.806666666666665], [86.35833333333333, 23.806666666666665], [86.35833333333333, 23.8075], [86.35833333333333, 23.808333333333334], [86.3575, 23.808333333333334], [86.3575, 23.809166666666666], [86.35666666666667, 23.809166666666666], [86.35666666666667, 23.81], [86.35666666666667, 23.81083333333333], [86.3575, 23.81083333333333], [86.35833333333333, 23.81083333333333], [86.35833333333333, 23.81]]]}}, {"type": "Feature", "properties": {"product": "urban_growth", "area_ha": 36.05}, "geometry": {"type": "Polygon", "coordinates": [[[86.35916666666667, 23.813333333333333], [86.35833333333333, 23.813333333333333], [86.35833333333333, 23.814166666666665], [86.3575, 23.814166666666665], [86.3575, 23.814999999999998], [86.35833333333333, 23.814999999999998], [86.35916666666667, 23.814999999999998], [86.35916666666667, 23.815833333333334], [86.35916666666667, 23.816666666666666], [86.35833333333333, 23.816666666666666], [86.35833333333333, 23.8175], [86.3575, 23.8175], [86.35666666666667, 23.8175], [86.35583333333334, 23.8175], [86.35583333333334, 23.816666666666666], [86.355, 23.816666666666666], [86.35416666666667, 23.816666666666666], [86.35416666666667, 23.815833333333334], [86.35333333333334, 23.815833333333334], [86.35333333333334, 23.816666666666666], [86.35333333333334, 23.8175], [86.35333333333334, 23.81833333333333], [86.35416666666667, 23.81833333333333], [86.35416666666667, 23.8175], [86.355, 23.8175], [86.355, 23.81833333333333], [86.355, 23.819166666666668], [86.35583333333334, 23.819166666666668], [86.35583333333334, 23.81833333333333], [86.35666666666667, 23.81833333333333], [86.35666666666667, 23.819166666666668], [86.3575, 23.819166666666668], [86.3575, 23.82], [86.35833333333333, 23.82], [86.35916666666667, 23.82], [86.35916666666667, 23.820833333333333], [86.36, 23.820833333333333], [86.36, 23.82], [86.36083333333333, 23.82], [86.36083333333333, 23.819166666666668], [86.36166666666666, 23.819166666666668], [86.36166666666666, 23.81833333333333], [86.3625, 23.81833333333333], [86.3625, 23.8175], [86.36166666666666, 23.8175], [86.36166666666666, 23.816666666666666], [86.3625, 23.816666666666666], [86.36333333333333, 23.816666666666666], [86.36333333333333, 23.815833333333334], [86.3625, 23.815833333333334], [86.36166666666666, 23.815833333333334], [86.36083333333333, 23.815833333333334], [86.36083333333333, 23.814999999999998], [86.36166666666666, 23.814999999999998], [86.3625, 23.814999999999998], [86.3625, 23.814166666666665], [86.36333333333333, 23.814166666666665], [86.36333333333333, 23.813333333333333], [86.36333333333333, 23.8125], [86.3625, 23.8125], [86.3625, 23.813333333333333], [86.36166666666666, 23.813333333333333], [86.36166666666666, 23.814166666666665], [86.36083333333333, 23.814166666666665], [86.36, 23.814166666666665], [86.35916666666667, 23.814166666666665], [86.35916666666667, 23.813333333333333]], [[86.35916666666667, 23.8175], [86.35916666666667, 23.81833333333333], [86.35833333333333, 23.81833333333333], [86.35833333333333, 23.8175], [86.35916666666667, 23.8175]]]}}, {"type": "Feature", "properties": {"product": "urban_growth", "area_ha": 86.2}, "geometry": {"type": "Polygon", "coordinates": [[[86.35333333333334, 23.824166666666667], [86.3525, 23.824166666666667], [86.35166666666667, 23.824166666666667], [86.35083333333334, 23.824166666666667], [86.35083333333334, 23.825], [86.35166666666667, 23.825], [86.3525, 23.825], [86.35333333333334, 23.825], [86.35416666666667, 23.825], [86.35416666666667, 23.824166666666667], [86.355, 23.824166666666667], [86.35583333333334, 23.824166666666667], [86.35583333333334, 23.823333333333334], [86.35666666666667, 23.823333333333334], [86.35666666666667, 23.824166666666667], [86.3575, 23.824166666666667], [86.3575, 23.825], [86.3575, 23.825833333333332], [86.3575, 23.826666666666664], [86.35666666666667, 23.826666666666664], [86.35583333333334, 23.826666666666664], [86.35583333333334, 23.8275], [86.35666666666667, 23.8275], [86.35666666666667, 23.828333333333333], [86.3575, 23.828333333333333], [86.35833333333333, 23.828333333333333], [86.35916666666667, 23.828333333333333], [86.35916666666667, 23.829166666666666], [86.36, 23.829166666666666], [86.36, 23.83], [86.36, 23.83083333333333], [86.35916666666667, 23.83083333333333], [86.35916666666667, 23.831666666666667], [86.36, 23.831666666666667], [86.36083333333333, 23.831666666666667], [86.36083333333333, 23.83083333333333], [86.36166666666666, 23.83083333333333], [86.36166666666666, 23.83], [86.36083333333333, 23.83], [86.36083333333333, 23.829166666666666], [86.36166666666666, 23.829166666666666], [86.36166666666666, 23.828333333333333], [86.3625, 23.828333333333333], [86.36333333333333, 23.828333333333333], [86.36416666666668, 23.828333333333333], [86.36416666666668, 23.8275], [86.36333333333333, 23.8275], [86.36333333333333, 23.826666666666664], [86.3625, 23.826666666666664], [86.36166666666666, 23.826666666666664], [86.36166666666666, 23.8275], [86.36083333333333, 23.8275], [86.36083333333333, 23.826666666666664], [86.36083333333333, 23.825833333333332], [86.36083333333333, 23.825], [86.36166666666666, 23.825], [86.3625, 23.825], [86.36333333333333, 23.825], [86.36333333333333, 23.824166666666667], [86.36416666666668, 23.824166666666667], [86.36500000000001, 23.824166666666667], [86.36500000000001, 23.825], [86.36500000000001, 23.825833333333332], [86.36500000000001, 23.826666666666664], [86.36500000000001, 23.8275], [86.36583333333334, 23.8275], [86.36583333333334, 23.826666666666664], [86.36583333333334, 23.825833333333332], [86.36583333333334, 23.825], [86.36666666666667, 23.825], [86.3675, 23.825], [86.3675, 23.825833333333332], [86.3675, 23.826666666666664], [86.36833333333334, 23.826666666666664], [86.36833333333334, 23.8275], [86.36916666666667, 23.8275], [86.37, 23.8275], [86.37, 23.826666666666664], [86.37083333333334, 23.826666666666664], [86.37083333333334, 23.825833333333332], [86.37, 23.825833333333332], [86.37, 23.825], [86.36916666666667, 23.825], [86.36916666666667, 23.824166666666667], [86.37, 23.824166666666667], [86.37, 23.823333333333334], [86.36916666666667, 23.823333333333334], [86.36916666666667, 23.822499999999998], [86.37, 23.822499999999998], [86.37, 23.821666666666665], [86.37083333333334, 23.821666666666665], [86.37166666666667, 23.821666666666665], [86.37166666666667, 23.820833333333333], [86.37083333333334, 23.820833333333333], [86.37, 23.820833333333333], [86.37, 23.82], [86.37, 23.819166666666668], [86.36916666666667, 23.819166666666668], [86.36833333333334, 23.819166666666668], [86.36833333333334, 23.82], [86.3675, 23.82], [86.36666666666667, 23.82], [86.36666666666667, 23.820833333333333], [86.36583333333334, 23.820833333333333], [86.36500000000001, 23.820833333333333], [86.36416666666668, 23.820833333333333], [86.36333333333333, 23.820833333333333], [86.36333333333333, 23.821666666666665], [86.36416666666668, 23.821666666666665], [86.36500000000001, 23.821666666666665], [86.36583333333334, 23.821666666666665], [86.36583333333334, 23.822499999999998], [86.36500000000001, 23.822499999999998], [86.36416666666668, 23.822499999999998], [86.36333333333333, 23.822499999999998], [86.3625, 23.822499999999998], [86.36166666666666, 23.822499999999998], [86.36166666666666, 23.823333333333334], [86.36083333333333, 23.823333333333334], [86.36, 23.823333333333334], [86.36, 23.822499999999998], [86.36, 23.821666666666665], [86.35916666666667, 23.821666666666665], [86.35833333333333, 23.821666666666665], [86.3575, 23.821666666666665], [86.3575, 23.822499999999998], [86.35666666666667, 23.822499999999998], [86.35583333333334, 23.822499999999998], [86.355, 23.822499999999998], [86.355, 23.823333333333334], [86.35416666666667, 23.823333333333334], [86.35333333333334, 23.823333333333334], [86.35333333333334, 23.824166666666667]], [[86.36, 23.825], [86.36, 23.825833333333332], [86.36, 23.826666666666664], [86.36, 23.8275], [86.35916666666667, 23.8275], [86.35833333333333, 23.8275], [86.35833333333333, 23.826666666666664], [86.35916666666667, 23.826666666666664], [86.35916666666667, 23.825833333333332], [86.35833333333333, 23.825833333333332], [86.35833333333333, 23.825], [86.35833333333333, 23.824166666666667], [86.35916666666667, 23.824166666666667], [86.36, 23.824166666666667], [86.36083333333333, 23.824166666666667], [86.36083333333333, 23.825], [86.36, 23.825]], [[86.35833333333333, 23.823333333333334], [86.35833333333333, 23.822499999999998], [86.35916666666667, 23.822499999999998], [86.35916666666667, 23.823333333333334], [86.35833333333333, 23.823333333333334]]]}}, {"type": "Feature", "properties": {"product": "urban_growth", "area_ha": 6.27}, "geometry": {"type": "Polygon", "coordinates": [[[86.35583333333334, 23.8325], [86.35583333333334, 23.831666666666667], [86.35666666666667, 23.831666666666667], [86.35666666666667, 23.83083333333333], [86.35583333333334, 23.83083333333333], [86.35583333333334, 23.83], [86.355, 23.83], [86.355, 23.83083333333333], [86.35416666666667, 23.83083333333333], [86.35416666666667, 23.831666666666667], [86.35416666666667, 23.8325], [86.35333333333334, 23.8325], [86.35333333333334, 23.833333333333332], [86.35416666666667, 23.833333333333332], [86.355, 23.833333333333332], [86.355, 23.8325], [86.35583333333334, 23.8325]]]}}, {"type": "Feature", "properties": {"product": "urban_growth", "area_ha": 7.84}, "geometry": {"type": "Polygon", "coordinates": [[[86.3575, 23.8475], [86.3575, 23.848333333333333], [86.3575, 23.849166666666665], [86.35833333333333, 23.849166666666665], [86.35833333333333, 23.848333333333333], [86.35916666666667, 23.848333333333333], [86.35916666666667, 23.8475], [86.36, 23.8475], [86.36, 23.846666666666668], [86.36, 23.84583333333333], [86.36, 23.845], [86.36, 23.844166666666666], [86.35916666666667, 23.844166666666666], [86.35916666666667, 23.845], [86.35833333333333, 23.845], [86.35833333333333, 23.84583333333333], [86.35833333333333, 23.846666666666668], [86.35833333333333, 23.8475], [86.3575, 23.8475]]]}}, {"type": "Feature", "properties": {"product": "urban_growth", "area_ha": 10.18}, "geometry": {"type": "Polygon", "coordinates": [[[86.35833333333333, 23.86], [86.35916666666667, 23.86], [86.35916666666667, 23.860833333333332], [86.35916666666667, 23.861666666666665], [86.36, 23.861666666666665], [86.36, 23.860833333333332], [86.36, 23.86], [86.36, 23.859166666666667], [86.36, 23.858333333333334], [86.35916666666667, 23.858333333333334], [86.35916666666667, 23.859166666666667], [86.35833333333333, 23.859166666666667], [86.35833333333333, 23.858333333333334], [86.3575, 23.858333333333334], [86.35666666666667, 23.858333333333334], [86.35583333333334, 23.858333333333334], [86.355, 23.858333333333334], [86.355, 23.859166666666667], [86.355, 23.86], [86.35583333333334, 23.86], [86.35666666666667, 23.86], [86.3575, 23.86], [86.35833333333333, 23.86]]]}}, {"type": "Feature", "properties": {"product": "urban_growth", "area_ha": 8.63}, "geometry": {"type": "Polygon", "coordinates": [[[86.36083333333333, 23.7025], [86.36166666666666, 23.7025], [86.3625, 23.7025], [86.3625, 23.701666666666664], [86.36333333333333, 23.701666666666664], [86.36333333333333, 23.7025], [86.36416666666668, 23.7025], [86.36416666666668, 23.701666666666664], [86.36416666666668, 23.700833333333332], [86.36333333333333, 23.700833333333332], [86.36333333333333, 23.7], [86.3625, 23.7], [86.36166666666666, 23.7], [86.36083333333333, 23.7], [86.36083333333333, 23.699166666666667], [86.36, 23.699166666666667], [86.36, 23.7], [86.36, 23.700833333333332], [86.36083333333333, 23.700833333333332], [86.36166666666666, 23.700833333333332], [86.36166666666666, 23.701666666666664], [86.36083333333333, 23.701666666666664], [86.36083333333333, 23.7025]]]}}, {"type": "Feature", "properties": {"product": "urban_growth", "area_ha": 10.19}, "geometry": {"type": "Polygon", "coordinates": [[[86.36583333333334, 23.8475], [86.36583333333334, 23.846666666666668], [86.36666666666667, 23.846666666666668], [86.3675, 23.846666666666668], [86.36833333333334, 23.846666666666668], [86.36916666666667, 23.846666666666668], [86.37, 23.846666666666668], [86.37, 23.84583333333333], [86.37, 23.845], [86.36916666666667, 23.845], [86.36916666666667, 23.84583333333333], [86.36833333333334, 23.84583333333333], [86.3675, 23.84583333333333], [86.36666666666667, 23.84583333333333], [86.36666666666667, 23.845], [86.36583333333334, 23.845], [86.36500000000001, 23.845], [86.36500000000001, 23.84583333333333], [86.36416666666668, 23.84583333333333], [86.36416666666668, 23.846666666666668], [86.36416666666668, 23.8475], [86.36416666666668, 23.848333333333333], [86.36500000000001, 23.848333333333333], [86.36500000000001, 23.8475], [86.36583333333334, 23.8475]]]}}, {"type": "Feature", "properties": {"product": "urban_growth", "area_ha": 8.62}, "geometry": {"type": "Polygon", "coordinates": [[[86.36, 23.851666666666667], [86.36083333333333, 23.851666666666667], [86.36083333333333, 23.850833333333334], [86.36166666666666, 23.850833333333334], [86.3625, 23.850833333333334], [86.36333333333333, 23.850833333333334], [86.36333333333333, 23.849999999999998], [86.36333333333333, 23.849166666666665], [86.36333333333333, 23.848333333333333], [86.3625, 23.848333333333333], [86.3625, 23.849166666666665], [86.36166666666666, 23.849166666666665], [86.36166666666666, 23.849999999999998], [86.36083333333333, 23.849999999999998], [86.36, 23.849999999999998], [86.35916666666667, 23.849999999999998], [86.35916666666667, 23.850833333333334], [86.35833333333333, 23.850833333333334], [86.35833333333333, 23.851666666666667], [86.35916666666667, 23.851666666666667], [86.36, 23.851666666666667]]]}}, {"type": "Feature", "properties": {"product": "urban_growth", "area_ha": 32.92}, "geometry": {"type": "Polygon", "coordinates": [[[86.37, 23.813333333333333], [86.36916666666667, 23.813333333333333], [86.36833333333334, 23.813333333333333], [86.36833333333334, 23.814166666666665], [86.36916666666667, 23.814166666666665], [86.37, 23.814166666666665], [86.37083333333334, 23.814166666666665], [86.37166666666667, 23.814166666666665], [86.37166666666667, 23.814999999999998], [86.37166666666667, 23.815833333333334], [86.3725, 23.815833333333334], [86.3725, 23.816666666666666], [86.37166666666667, 23.816666666666666], [86.37166666666667, 23.8175], [86.37166666666667, 23.81833333333333], [86.3725, 23.81833333333333], [86.3725, 23.8175], [86.37333333333333, 23.8175], [86.37416666666667, 23.8175], [86.375, 23.8175], [86.37583333333333, 23.8175], [86.37583333333333, 23.816666666666666], [86.375, 23.816666666666666], [86.375, 23.815833333333334], [86.37583333333333, 23.815833333333334], [86.37583333333333, 23.814999999999998], [86.375, 23.814999999999998], [86.375, 23.814166666666665], [86.375, 23.813333333333333], [86.375, 23.8125], [86.37583333333333, 23.8125], [86.37666666666667, 23.8125], [86.37666666666667, 23.811666666666667], [86.3775, 23.811666666666667], [86.3775, 23.81083333333333], [86.37666666666667, 23.81083333333333], [86.37666666666667, 23.81], [86.37583333333333, 23.81], [86.37583333333333, 23.81083333333333], [86.375, 23.81083333333333], [86.375, 23.81], [86.37416666666667, 23.81], [86.37416666666667, 23.81083333333333], [86.37333333333333, 23.81083333333333], [86.37333333333333, 23.811666666666667], [86.3725, 23.811666666666667], [86.37166666666667, 23.811666666666667], [86.37083333333334, 23.811666666666667], [86.37083333333334, 23.8125], [86.37, 23.8125], [86.37, 23.813333333333333]], [[86.3725, 23.814166666666665], [86.37333333333333, 23.814166666666665], [86.37333333333333, 23.813333333333333], [86.37416666666667, 23.813333333333333], [86.37416666666667, 23.814166666666665], [86.37416666666667, 23.814999999999998], [86.37416666666667, 23.815833333333334], [86.37333333333333, 23.815833333333334], [86.37333333333333, 23.814999999999998], [86.3725, 23.814999999999998], [86.3725, 23.814166666666665]]]}}, {"type": "Feature", "properties": {"product": "urban_growth", "area_ha": 6.27}, "geometry": {"type": "Polygon", "coordinates": [[[86.3875, 23.8025], [86.3875, 23.801666666666666], [86.38666666666667, 23.801666666666666], [86.38583333333334, 23.801666666666666], [86.385, 23.801666666666666], [86.385, 23.800833333333333], [86.38416666666667, 23.800833333333333], [86.38333333333334, 23.800833333333333], [86.38333333333334, 23.801666666666666], [86.38333333333334, 23.8025], [86.38416666666667, 23.8025], [86.385, 23.8025], [86.38583333333334, 23.8025], [86.38583333333334, 23.80333333333333], [86.38666666666667, 23.80333333333333], [86.38666666666667, 23.8025], [86.3875, 23.8025]]]}}, {"type": "Feature", "properties": {"product": "urban_growth", "area_ha": 7.85}, "geometry": {"type": "Polygon", "coordinates": [[[86.41416666666667, 23.651666666666667], [86.415, 23.651666666666667], [86.41583333333334, 23.651666666666667], [86.41666666666667, 23.651666666666667], [86.41666666666667, 23.65083333333333], [86.41666666666667, 23.65], [86.41583333333334, 23.65], [86.415, 23.65], [86.41416666666667, 23.65], [86.41333333333334, 23.65], [86.41250000000001, 23.65], [86.41166666666668, 23.65], [86.41166666666668, 23.65083333333333], [86.41250000000001, 23.65083333333333], [86.41333333333334, 23.65083333333333], [86.41333333333334, 23.651666666666667], [86.41416666666667, 23.651666666666667]]]}}, {"type": "Feature", "properties": {"product": "urban_growth", "area_ha": 8.62}, "geometry": {"type": "Polygon", "coordinates": [[[86.41333333333334, 23.794999999999998], [86.41416666666667, 23.794999999999998], [86.41416666666667, 23.795833333333334], [86.41333333333334, 23.795833333333334], [86.41333333333334, 23.796666666666667], [86.41416666666667, 23.796666666666667], [86.415, 23.796666666666667], [86.415, 23.795833333333334], [86.415, 23.794999999999998], [86.415, 23.794166666666666], [86.415, 23.793333333333333], [86.41416666666667, 23.793333333333333], [86.41333333333334, 23.793333333333333], [86.41250000000001, 23.793333333333333], [86.41166666666668, 23.793333333333333], [86.41166666666668, 23.794166666666666], [86.41083333333333, 23.794166666666666], [86.41083333333333, 23.794999999999998], [86.41166666666668, 23.794999999999998], [86.41250000000001, 23.794999999999998], [86.41250000000001, 23.794166666666666], [86.41333333333334, 23.794166666666666], [86.41333333333334, 23.794999999999998]]]}}, {"type": "Feature", "properties": {"product": "urban_growth", "area_ha": 11.76}, "geometry": {"type": "Polygon", "coordinates": [[[86.40916666666666, 23.823333333333334], [86.40916666666666, 23.824166666666667], [86.40916666666666, 23.825], [86.40916666666666, 23.825833333333332], [86.41, 23.825833333333332], [86.41, 23.825], [86.41083333333333, 23.825], [86.41083333333333, 23.824166666666667], [86.41, 23.824166666666667], [86.41, 23.823333333333334], [86.41083333333333, 23.823333333333334], [86.41166666666668, 23.823333333333334], [86.41166666666668, 23.822499999999998], [86.41166666666668, 23.821666666666665], [86.41250000000001, 23.821666666666665], [86.41250000000001, 23.820833333333333], [86.41250000000001, 23.82], [86.41250000000001, 23.819166666666668], [86.41166666666668, 23.819166666666668], [86.41166666666668, 23.82], [86.41083333333333, 23.82], [86.41, 23.82], [86.41, 23.820833333333333], [86.41, 23.821666666666665], [86.41, 23.822499999999998], [86.40916666666666, 23.822499999999998], [86.40916666666666, 23.823333333333334]], [[86.41083333333333, 23.821666666666665], [86.41083333333333, 23.820833333333333], [86.41166666666668, 23.820833333333333], [86.41166666666668, 23.821666666666665], [86.41083333333333, 23.821666666666665]]]}}, {"type": "Feature", "properties": {"product": "urban_growth", "area_ha": 7.84}, "geometry": {"type": "Polygon", "coordinates": [[[86.39666666666668, 23.823333333333334], [86.39750000000001, 23.823333333333334], [86.39833333333334, 23.823333333333334], [86.39833333333334, 23.824166666666667], [86.39916666666667, 23.824166666666667], [86.39916666666667, 23.823333333333334], [86.4, 23.823333333333334], [86.4, 23.822499999999998], [86.39916666666667, 23.822499999999998], [86.39833333333334, 23.822499999999998], [86.39833333333334, 23.821666666666665], [86.39916666666667, 23.821666666666665], [86.39916666666667, 23.820833333333333], [86.39916666666667, 23.82], [86.39833333333334, 23.82], [86.39833333333334, 23.820833333333333], [86.39750000000001, 23.820833333333333], [86.39750000000001, 23.821666666666665], [86.39750000000001, 23.822499999999998], [86.39666666666668, 23.822499999999998], [86.39583333333334, 23.822499999999998], [86.39583333333334, 23.823333333333334], [86.39666666666668, 23.823333333333334]]]}}, {"type": "Feature", "properties": {"product": "urban_growth", "area_ha": 14.11}, "geometry": {"type": "Polygon", "coordinates": [[[86.40083333333334, 23.824166666666667], [86.40083333333334, 23.825], [86.4, 23.825], [86.4, 23.825833333333332], [86.39916666666667, 23.825833333333332], [86.39916666666667, 23.826666666666664], [86.4, 23.826666666666664], [86.4, 23.8275], [86.4, 23.828333333333333], [86.4, 23.829166666666666], [86.40083333333334, 23.829166666666666], [86.40166666666667, 23.829166666666666], [86.4025, 23.829166666666666], [86.40333333333334, 23.829166666666666], [86.40416666666667, 23.829166666666666], [86.40416666666667, 23.828333333333333], [86.40333333333334, 23.828333333333333], [86.40333333333334, 23.8275], [86.4025, 23.8275], [86.4025, 23.828333333333333], [86.40166666666667, 23.828333333333333], [86.40166666666667, 23.8275], [86.40083333333334, 23.8275], [86.40083333333334, 23.826666666666664], [86.40083333333334, 23.825833333333332], [86.40166666666667, 23.825833333333332], [86.4025, 23.825833333333332], [86.40333333333334, 23.825833333333332], [86.40333333333334, 23.825], [86.40333333333334, 23.824166666666667], [86.40333333333334, 23.823333333333334], [86.4025, 23.823333333333334], [86.4025, 23.824166666666667], [86.4025, 23.825], [86.40166666666667, 23.825], [86.40166666666667, 23.824166666666667], [86.40083333333334, 23.824166666666667]]]}}, {"type": "Feature", "properties": {"product": "urban_growth", "area_ha": 17.25}, "geometry": {"type": "Polygon", "coordinates": [[[86.42916666666667, 23.743333333333332], [86.42916666666667, 23.744166666666665], [86.42833333333334, 23.744166666666665], [86.42833333333334, 23.745], [86.42833333333334, 23.745833333333334], [86.42916666666667, 23.745833333333334], [86.42916666666667, 23.745], [86.43, 23.745], [86.43, 23.744166666666665], [86.43083333333334, 23.744166666666665], [86.43083333333334, 23.743333333333332], [86.43166666666667, 23.743333333333332], [86.43166666666667, 23.7425], [86.43166666666667, 23.741666666666667], [86.43166666666667, 23.74083333333333], [86.43083333333334, 23.74083333333333], [86.43, 23.74083333333333], [86.42916666666667, 23.74083333333333], [86.42916666666667, 23.741666666666667], [86.42833333333334, 23.741666666666667], [86.42750000000001, 23.741666666666667], [86.42666666666668, 23.741666666666667], [86.42666666666668, 23.74083333333333], [86.42666666666668, 23.74], [86.42583333333333, 23.74], [86.42583333333333, 23.74083333333333], [86.425, 23.74083333333333], [86.425, 23.741666666666667], [86.42583333333333, 23.741666666666667], [86.42583333333333, 23.7425], [86.42666666666668, 23.7425], [86.42750000000001, 23.7425], [86.42750000000001, 23.743333333333332], [86.42833333333334, 23.743333333333332], [86.42916666666667, 23.743333333333332]], [[86.43, 23.743333333333332], [86.43, 23.7425], [86.43083333333334, 23.7425], [86.43083333333334, 23.743333333333332], [86.43, 23.743333333333332]]]}}, {"type": "Feature", "properties": {"product": "urban_growth", "area_ha": 14.11}, "geometry": {"type": "Polygon", "coordinates": [[[86.41416666666667, 23.754166666666666], [86.41333333333334, 23.754166666666666], [86.41333333333334, 23.755], [86.41333333333334, 23.75583333333333], [86.41416666666667, 23.75583333333333], [86.415, 23.75583333333333], [86.415, 23.756666666666668], [86.41583333333334, 23.756666666666668], [86.41666666666667, 23.756666666666668], [86.41666666666667, 23.7575], [86.4175, 23.7575], [86.41833333333334, 23.7575], [86.41833333333334, 23.756666666666668], [86.41916666666667, 23.756666666666668], [86.41916666666667, 23.75583333333333], [86.41916666666667, 23.755], [86.41916666666667, 23.754166666666666], [86.41833333333334, 23.754166666666666], [86.4175, 23.754166666666666], [86.41666666666667, 23.754166666666666], [86.41666666666667, 23.755], [86.41666666666667, 23.75583333333333], [86.41583333333334, 23.75583333333333], [86.41583333333334, 23.755], [86.415, 23.755], [86.415, 23.754166666666666], [86.41416666666667, 23.754166666666666]]]}}, {"type": "Feature", "properties": {"product": "urban_growth", "area_ha": 7.06}, "geometry": {"type": "Polygon", "coordinates": [[[86.43833333333333, 23.741666666666667], [86.43916666666667, 23.741666666666667], [86.43916666666667, 23.74083333333333], [86.43916666666667, 23.74], [86.43916666666667, 23.739166666666666], [86.43833333333333, 23.739166666666666], [86.4375, 23.739166666666666], [86.43666666666667, 23.739166666666666], [86.43666666666667, 23.74], [86.43583333333333, 23.74], [86.43583333333333, 23.74083333333333], [86.43666666666667, 23.74083333333333], [86.4375, 23.74083333333333], [86.4375, 23.741666666666667], [86.43833333333333, 23.741666666666667]]]}}, {"type": "Feature", "properties": {"product": "urban_growth", "area_ha": 8.62}, "geometry": {"type": "Polygon", "coordinates": [[[86.44333333333334, 23.835], [86.44416666666667, 23.835], [86.44500000000001, 23.835], [86.44500000000001, 23.834166666666665], [86.44583333333334, 23.834166666666665], [86.44666666666667, 23.834166666666665], [86.44666666666667, 23.833333333333332], [86.44583333333334, 23.833333333333332], [86.44583333333334, 23.8325], [86.44500000000001, 23.8325], [86.44416666666667, 23.8325], [86.44333333333334, 23.8325], [86.44250000000001, 23.8325], [86.44166666666666, 23.8325], [86.44166666666666, 23.833333333333332], [86.44250000000001, 23.833333333333332], [86.44333333333334, 23.833333333333332], [86.44333333333334, 23.834166666666665], [86.44333333333334, 23.835]]]}}, {"type": "Feature", "properties": {"product": "urban_growth", "area_ha": 17.24}, "geometry": {"type": "Polygon", "coordinates": [[[86.43916666666667, 23.8375], [86.44, 23.8375], [86.44083333333333, 23.8375], [86.44083333333333, 23.83833333333333], [86.44166666666666, 23.83833333333333], [86.44250000000001, 23.83833333333333], [86.44333333333334, 23.83833333333333], [86.44333333333334, 23.8375], [86.44416666666667, 23.8375], [86.44416666666667, 23.83833333333333], [86.44500000000001, 23.83833333333333], [86.44500000000001, 23.8375], [86.44583333333334, 23.8375], [86.44583333333334, 23.836666666666666], [86.44583333333334, 23.835833333333333], [86.44500000000001, 23.835833333333333], [86.44416666666667, 23.835833333333333], [86.44333333333334, 23.835833333333333], [86.44333333333334, 23.835], [86.44250000000001, 23.835], [86.44250000000001, 23.835833333333333], [86.44250000000001, 23.836666666666666], [86.44166666666666, 23.836666666666666], [86.44166666666666, 23.835833333333333], [86.44166666666666, 23.835], [86.44166666666666, 23.834166666666665], [86.44083333333333, 23.834166666666665], [86.44083333333333, 23.835], [86.44083333333333, 23.835833333333333], [86.44, 23.835833333333333], [86.43916666666667, 23.835833333333333], [86.43916666666667, 23.836666666666666], [86.43916666666667, 23.8375]]]}}, {"type": "Feature", "properties": {"product": "urban_growth", "area_ha": 7.85}, "geometry": {"type": "Polygon", "coordinates": [[[86.45166666666667, 23.683333333333334], [86.45166666666667, 23.6825], [86.4525, 23.6825], [86.4525, 23.681666666666665], [86.45333333333333, 23.681666666666665], [86.45333333333333, 23.680833333333332], [86.4525, 23.680833333333332], [86.4525, 23.68], [86.45166666666667, 23.68], [86.45166666666667, 23.680833333333332], [86.45083333333334, 23.680833333333332], [86.45, 23.680833333333332], [86.45, 23.681666666666665], [86.44916666666667, 23.681666666666665], [86.44916666666667, 23.6825], [86.45, 23.6825], [86.45083333333334, 23.6825], [86.45083333333334, 23.683333333333334], [86.45166666666667, 23.683333333333334]]]}}, {"type": "Feature", "properties": {"product": "urban_growth", "area_ha": 11.76}, "geometry": {"type": "Polygon", "coordinates": [[[86.44500000000001, 23.779999999999998], [86.44583333333334, 23.779999999999998], [86.44583333333334, 23.780833333333334], [86.44500000000001, 23.780833333333334], [86.44500000000001, 23.781666666666666], [86.44500000000001, 23.7825], [86.44583333333334, 23.7825], [86.44583333333334, 23.781666666666666], [86.44666666666667, 23.781666666666666], [86.44666666666667, 23.780833333333334], [86.4475, 23.780833333333334], [86.4475, 23.779999999999998], [86.4475, 23.779166666666665], [86.44666666666667, 23.779166666666665], [86.44666666666667, 23.778333333333332], [86.44583333333334, 23.778333333333332], [86.44583333333334, 23.7775], [86.44500000000001, 23.7775], [86.44500000000001, 23.778333333333332], [86.44416666666667, 23.778333333333332], [86.44416666666667, 23.779166666666665], [86.44333333333334, 23.779166666666665], [86.44333333333334, 23.779999999999998], [86.44333333333334, 23.780833333333334], [86.44416666666667, 23.780833333333334], [86.44416666666667, 23.779999999999998], [86.44500000000001, 23.779999999999998]]]}}, {"type": "Feature", "properties": {"product": "urban_growth", "area_ha": 7.05}, "geometry": {"type": "Polygon", "coordinates": [[[86.45583333333333, 23.834166666666665], [86.45583333333333, 23.833333333333332], [86.45666666666666, 23.833333333333332], [86.4575, 23.833333333333332], [86.45833333333334, 23.833333333333332], [86.45916666666668, 23.833333333333332], [86.46000000000001, 23.833333333333332], [86.46000000000001, 23.8325], [86.45916666666668, 23.8325], [86.45833333333334, 23.8325], [86.4575, 23.8325], [86.45666666666666, 23.8325], [86.45666666666666, 23.831666666666667], [86.45666666666666, 23.83083333333333], [86.45583333333333, 23.83083333333333], [86.45583333333333, 23.831666666666667], [86.45583333333333, 23.8325], [86.455, 23.8325], [86.455, 23.833333333333332], [86.455, 23.834166666666665], [86.45583333333333, 23.834166666666665]]]}}, {"type": "Feature", "properties": {"product": "urban_growth", "area_ha": 7.84}, "geometry": {"type": "Polygon", "coordinates": [[[86.47083333333333, 23.781666666666666], [86.47, 23.781666666666666], [86.47, 23.7825], [86.47, 23.78333333333333], [86.47083333333333, 23.78333333333333], [86.47166666666666, 23.78333333333333], [86.4725, 23.78333333333333], [86.47333333333333, 23.78333333333333], [86.47333333333333, 23.7825], [86.47333333333333, 23.781666666666666], [86.4725, 23.781666666666666], [86.47166666666666, 23.781666666666666], [86.47166666666666, 23.780833333333334], [86.47166666666666, 23.779999999999998], [86.47083333333333, 23.779999999999998], [86.47083333333333, 23.780833333333334], [86.47083333333333, 23.781666666666666]]]}}, {"type": "Feature", "properties": {"product": "urban_growth", "area_ha": 10.98}, "geometry": {"type": "Polygon", "coordinates": [[[86.4825, 23.691666666666666], [86.4825, 23.690833333333334], [86.48333333333333, 23.690833333333334], [86.48333333333333, 23.689999999999998], [86.4825, 23.689999999999998], [86.48166666666667, 23.689999999999998], [86.48083333333334, 23.689999999999998], [86.48083333333334, 23.689166666666665], [86.48, 23.689166666666665], [86.48, 23.688333333333333], [86.47916666666667, 23.688333333333333], [86.47916666666667, 23.689166666666665], [86.47916666666667, 23.689999999999998], [86.47916666666667, 23.690833333333334], [86.48, 23.690833333333334], [86.48, 23.691666666666666], [86.48, 23.6925], [86.48083333333334, 23.6925], [86.48166666666667, 23.6925], [86.4825, 23.6925], [86.4825, 23.691666666666666]]]}}, {"type": "Feature", "properties": {"product": "urban_growth", "area_ha": 7.84}, "geometry": {"type": "Polygon", "coordinates": [[[86.48083333333334, 23.759999999999998], [86.48, 23.759999999999998], [86.47916666666667, 23.759999999999998], [86.47916666666667, 23.759166666666665], [86.47833333333334, 23.759166666666665], [86.4775, 23.759166666666665], [86.4775, 23.759999999999998], [86.47666666666667, 23.759999999999998], [86.47666666666667, 23.760833333333334], [86.4775, 23.760833333333334], [86.47833333333334, 23.760833333333334], [86.47833333333334, 23.761666666666667], [86.47916666666667, 23.761666666666667], [86.48, 23.761666666666667], [86.48083333333334, 23.761666666666667], [86.48083333333334, 23.760833333333334], [86.48083333333334, 23.759999999999998]]]}}, {"type": "Feature", "properties": {"product": "urban_growth", "area_ha": 6.27}, "geometry": {"type": "Polygon", "coordinates": [[[86.48166666666667, 23.778333333333332], [86.48166666666667, 23.779166666666665], [86.4825, 23.779166666666665], [86.4825, 23.778333333333332], [86.4825, 23.7775], [86.48166666666667, 23.7775], [86.48083333333334, 23.7775], [86.48083333333334, 23.776666666666667], [86.48, 23.776666666666667], [86.48, 23.77583333333333], [86.47916666666667, 23.77583333333333], [86.47916666666667, 23.776666666666667], [86.47916666666667, 23.7775], [86.47916666666667, 23.778333333333332], [86.48, 23.778333333333332], [86.48083333333334, 23.778333333333332], [86.48166666666667, 23.778333333333332]]]}}, {"type": "Feature", "properties": {"product": "urban_growth", "area_ha": 18.03}, "geometry": {"type": "Polygon", "coordinates": [[[86.485, 23.786666666666665], [86.48583333333333, 23.786666666666665], [86.48666666666666, 23.786666666666665], [86.48666666666666, 23.785833333333333], [86.4875, 23.785833333333333], [86.4875, 23.786666666666665], [86.48833333333333, 23.786666666666665], [86.48833333333333, 23.785833333333333], [86.48916666666668, 23.785833333333333], [86.48916666666668, 23.786666666666665], [86.49000000000001, 23.786666666666665], [86.49000000000001, 23.785833333333333], [86.49000000000001, 23.785], [86.49083333333334, 23.785], [86.49083333333334, 23.784166666666668], [86.49083333333334, 23.78333333333333], [86.49000000000001, 23.78333333333333], [86.48916666666668, 23.78333333333333], [86.48833333333333, 23.78333333333333], [86.4875, 23.78333333333333], [86.4875, 23.784166666666668], [86.48666666666666, 23.784166666666668], [86.48583333333333, 23.784166666666668], [86.485, 23.784166666666668], [86.485, 23.785], [86.48416666666667, 23.785], [86.48333333333333, 23.785], [86.48333333333333, 23.785833333333333], [86.48416666666667, 23.785833333333333], [86.48416666666667, 23.786666666666665], [86.485, 23.786666666666665]], [[86.48583333333333, 23.785], [86.48583333333333, 23.785833333333333], [86.485, 23.785833333333333], [86.485, 23.785], [86.48583333333333, 23.785]]]}}, {"type": "Feature", "properties": {"product": "urban_growth", "area_ha": 10.97}, "geometry": {"type": "Polygon", "coordinates": [[[86.48166666666667, 23.7975], [86.48166666666667, 23.798333333333332], [86.4825, 23.798333333333332], [86.48333333333333, 23.798333333333332], [86.48333333333333, 23.7975], [86.48416666666667, 23.7975], [86.48416666666667, 23.796666666666667], [86.485, 23.796666666666667], [86.485, 23.795833333333334], [86.485, 23.794999999999998], [86.485, 23.794166666666666], [86.48416666666667, 23.794166666666666], [86.48416666666667, 23.794999999999998], [86.48333333333333, 23.794999999999998], [86.4825, 23.794999999999998], [86.4825, 23.795833333333334], [86.48166666666667, 23.795833333333334], [86.48083333333334, 23.795833333333334], [86.48, 23.795833333333334], [86.48, 23.796666666666667], [86.48083333333334, 23.796666666666667], [86.48166666666667, 23.796666666666667], [86.48166666666667, 23.7975]], [[86.48333333333333, 23.796666666666667], [86.48333333333333, 23.795833333333334], [86.48416666666667, 23.795833333333334], [86.48416666666667, 23.796666666666667], [86.48333333333333, 23.796666666666667]]]}}, {"type": "Feature", "properties": {"product": "urban_growth", "area_ha": 15.68}, "geometry": {"type": "Polygon", "coordinates": [[[86.4825, 23.8025], [86.4825, 23.80333333333333], [86.48333333333333, 23.80333333333333], [86.48333333333333, 23.804166666666667], [86.48416666666667, 23.804166666666667], [86.48416666666667, 23.805], [86.48416666666667, 23.805833333333332], [86.485, 23.805833333333332], [86.48583333333333, 23.805833333333332], [86.48583333333333, 23.805], [86.48583333333333, 23.804166666666667], [86.48583333333333, 23.80333333333333], [86.48666666666666, 23.80333333333333], [86.48666666666666, 23.8025], [86.48666666666666, 23.801666666666666], [86.48583333333333, 23.801666666666666], [86.48583333333333, 23.8025], [86.485, 23.8025], [86.485, 23.801666666666666], [86.485, 23.800833333333333], [86.48583333333333, 23.800833333333333], [86.48583333333333, 23.8], [86.485, 23.8], [86.48416666666667, 23.8], [86.48333333333333, 23.8], [86.48333333333333, 23.800833333333333], [86.4825, 23.800833333333333], [86.4825, 23.801666666666666], [86.4825, 23.8025]], [[86.485, 23.80333333333333], [86.48416666666667, 23.80333333333333], [86.48416666666667, 23.8025], [86.485, 23.8025], [86.485, 23.80333333333333]], [[86.48416666666667, 23.800833333333333], [86.48416666666667, 23.801666666666666], [86.48333333333333, 23.801666666666666], [86.48333333333333, 23.800833333333333], [86.48416666666667, 23.800833333333333]]]}}, {"type": "Feature", "properties": {"product": "urban_growth", "area_ha": 26.65}, "geometry": {"type": "Polygon", "coordinates": [[[86.48333333333333, 23.81833333333333], [86.48416666666667, 23.81833333333333], [86.48416666666667, 23.8175], [86.48333333333333, 23.8175], [86.48333333333333, 23.816666666666666], [86.48416666666667, 23.816666666666666], [86.485, 23.816666666666666], [86.485, 23.815833333333334], [86.48583333333333, 23.815833333333334], [86.48583333333333, 23.814999999999998], [86.48666666666666, 23.814999999999998], [86.48666666666666, 23.814166666666665], [86.4875, 23.814166666666665], [86.4875, 23.813333333333333], [86.4875, 23.8125], [86.48833333333333, 23.8125], [86.48833333333333, 23.813333333333333], [86.48916666666668, 23.813333333333333], [86.48916666666668, 23.8125], [86.48916666666668, 23.811666666666667], [86.48833333333333, 23.811666666666667], [86.48833333333333, 23.81083333333333], [86.48916666666668, 23.81083333333333], [86.48916666666668, 23.81], [86.48916666666668, 23.809166666666666], [86.48833333333333, 23.809166666666666], [86.4875, 23.809166666666666], [86.4875, 23.808333333333334], [86.48666666666666, 23.808333333333334], [86.48666666666666, 23.809166666666666], [86.48666666666666, 23.81], [86.4875, 23.81], [86.4875, 23.81083333333333], [86.48666666666666, 23.81083333333333], [86.48666666666666, 23.811666666666667], [86.48583333333333, 23.811666666666667], [86.48583333333333, 23.8125], [86.485, 23.8125], [86.48416666666667, 23.8125], [86.48416666666667, 23.813333333333333], [86.485, 23.813333333333333], [86.485, 23.814166666666665], [86.48416666666667, 23.814166666666665], [86.48416666666667, 23.814999999999998], [86.48416666666667, 23.815833333333334], [86.48333333333333, 23.815833333333334], [86.48333333333333, 23.814999999999998], [86.4825, 23.814999999999998], [86.4825, 23.815833333333334], [86.4825, 23.816666666666666], [86.48166666666667, 23.816666666666666], [86.48166666666667, 23.8175], [86.48166666666667, 23.81833333333333], [86.4825, 23.81833333333333], [86.48333333333333, 23.81833333333333]]]}}, {"type": "Feature", "properties": {"product": "urban_growth", "area_ha": 6.27}, "geometry": {"type": "Polygon", "coordinates": [[[86.47833333333334, 23.8375], [86.47916666666667, 23.8375], [86.47916666666667, 23.836666666666666], [86.47916666666667, 23.835833333333333], [86.47833333333334, 23.835833333333333], [86.47833333333334, 23.836666666666666], [86.4775, 23.836666666666666], [86.4775, 23.835833333333333], [86.47666666666667, 23.835833333333333], [86.47666666666667, 23.836666666666666], [86.47583333333334, 23.836666666666666], [86.47583333333334, 23.8375], [86.47666666666667, 23.8375], [86.47666666666667, 23.83833333333333], [86.4775, 23.83833333333333], [86.47833333333334, 23.83833333333333], [86.47833333333334, 23.8375]]]}}, {"type": "Feature", "properties": {"product": "urban_growth", "area_ha": 14.11}, "geometry": {"type": "Polygon", "coordinates": [[[86.49083333333334, 23.770833333333332], [86.49083333333334, 23.77], [86.49083333333334, 23.769166666666667], [86.49166666666667, 23.769166666666667], [86.4925, 23.769166666666667], [86.4925, 23.77], [86.49333333333334, 23.77], [86.49333333333334, 23.769166666666667], [86.49416666666667, 23.769166666666667], [86.49416666666667, 23.77], [86.49416666666667, 23.770833333333332], [86.495, 23.770833333333332], [86.49583333333334, 23.770833333333332], [86.49666666666667, 23.770833333333332], [86.4975, 23.770833333333332], [86.49833333333333, 23.770833333333332], [86.49833333333333, 23.77], [86.4975, 23.77], [86.49666666666667, 23.77], [86.49583333333334, 23.77], [86.49583333333334, 23.769166666666667], [86.495, 23.769166666666667], [86.495, 23.76833333333333], [86.495, 23.7675], [86.49416666666667, 23.7675], [86.49416666666667, 23.76833333333333], [86.49333333333334, 23.76833333333333], [86.4925, 23.76833333333333], [86.49166666666667, 23.76833333333333], [86.49083333333334, 23.76833333333333], [86.49000000000001, 23.76833333333333], [86.49000000000001, 23.769166666666667], [86.49000000000001, 23.77], [86.49000000000001, 23.770833333333332], [86.49000000000001, 23.771666666666665], [86.49083333333334, 23.771666666666665], [86.49083333333334, 23.770833333333332]]]}}, {"type": "Feature", "properties": {"product": "urban_growth", "area_ha": 6.27}, "geometry": {"type": "Polygon", "coordinates": [[[86.4875, 23.795833333333334], [86.48833333333333, 23.795833333333334], [86.48916666666668, 23.795833333333334], [86.49000000000001, 23.795833333333334], [86.49000000000001, 23.794999999999998], [86.49000000000001, 23.794166666666666], [86.49000000000001, 23.793333333333333], [86.48916666666668, 23.793333333333333], [86.48916666666668, 23.794166666666666], [86.48916666666668, 23.794999999999998], [86.48833333333333, 23.794999999999998], [86.4875, 23.794999999999998], [86.48666666666666, 23.794999999999998], [86.48666666666666, 23.795833333333334], [86.48666666666666, 23.796666666666667], [86.48666666666666, 23.7975], [86.4875, 23.7975], [86.4875, 23.796666666666667], [86.4875, 23.795833333333334]]]}}, {"type": "Feature", "properties": {"product": "urban_growth", "area_ha": 10.19}, "geometry": {"type": "Polygon", "coordinates": [[[86.49333333333334, 23.801666666666666], [86.49333333333334, 23.8025], [86.49333333333334, 23.80333333333333], [86.49416666666667, 23.80333333333333], [86.495, 23.80333333333333], [86.495, 23.8025], [86.495, 23.801666666666666], [86.49583333333334, 23.801666666666666], [86.49583333333334, 23.800833333333333], [86.49583333333334, 23.8], [86.495, 23.8], [86.49416666666667, 23.8], [86.49333333333334, 23.8], [86.4925, 23.8], [86.49166666666667, 23.8], [86.49166666666667, 23.800833333333333], [86.49166666666667, 23.801666666666666], [86.49166666666667, 23.8025], [86.4925, 23.8025], [86.4925, 23.801666666666666], [86.4925, 23.800833333333333], [86.49333333333334, 23.800833333333333], [86.49416666666667, 23.800833333333333], [86.49416666666667, 23.801666666666666], [86.49333333333334, 23.801666666666666]]]}}, {"type": "Feature", "properties": {"product": "urban_growth", "area_ha": 6.27}, "geometry": {"type": "Polygon", "coordinates": [[[86.49083333333334, 23.87], [86.49166666666667, 23.87], [86.49166666666667, 23.870833333333334], [86.4925, 23.870833333333334], [86.4925, 23.87], [86.49333333333334, 23.87], [86.49416666666667, 23.87], [86.495, 23.87], [86.495, 23.869166666666665], [86.49416666666667, 23.869166666666665], [86.49333333333334, 23.869166666666665], [86.4925, 23.869166666666665], [86.49166666666667, 23.869166666666665], [86.49083333333334, 23.869166666666665], [86.49000000000001, 23.869166666666665], [86.48916666666668, 23.869166666666665], [86.48916666666668, 23.87], [86.49000000000001, 23.87], [86.49083333333334, 23.87]]]}}, {"type": "Feature", "properties": {"product": "urban_growth", "area_ha": 7.06}, "geometry": {"type": "Polygon", "coordinates": [[[86.49833333333333, 23.695], [86.49833333333333, 23.694166666666668], [86.49833333333333, 23.69333333333333], [86.4975, 23.69333333333333], [86.4975, 23.6925], [86.49666666666667, 23.6925], [86.49583333333334, 23.6925], [86.49583333333334, 23.69333333333333], [86.495, 23.69333333333333], [86.49416666666667, 23.69333333333333], [86.49416666666667, 23.694166666666668], [86.49416666666667, 23.695], [86.495, 23.695], [86.495, 23.694166666666668], [86.49583333333334, 23.694166666666668], [86.49666666666667, 23.694166666666668], [86.4975, 23.694166666666668], [86.4975, 23.695], [86.49833333333333, 23.695]]]}}, {"type": "Feature", "properties": {"product": "urban_growth", "area_ha": 6.27}, "geometry": {"type": "Polygon", "coordinates": [[[86.49916666666667, 23.785], [86.49916666666667, 23.785833333333333], [86.49916666666667, 23.786666666666665], [86.5, 23.786666666666665], [86.5, 23.785833333333333], [86.5, 23.785], [86.5, 23.784166666666668], [86.5, 23.78333333333333], [86.49916666666667, 23.78333333333333], [86.49833333333333, 23.78333333333333], [86.49833333333333, 23.7825], [86.4975, 23.7825], [86.4975, 23.78333333333333], [86.4975, 23.784166666666668], [86.4975, 23.785], [86.49833333333333, 23.785], [86.49833333333333, 23.784166666666668], [86.49916666666667, 23.784166666666668], [86.49916666666667, 23.785]]]}}], "properties": {"aoi": "jharia", "product": "urban_growth", "total_ha": 1049.0, "n_patches": 82}}