{"type": "FeatureCollection", "features": [{"type": "Feature", "properties": {"product": "bare_expansion", "area_ha": 12.07}, "geometry": {"type": "Polygon", "coordinates": [[[76.85916666666667, 28.400000000000002], [76.86, 28.400000000000002], [76.86083333333333, 28.400000000000002], [76.86166666666666, 28.400000000000002], [76.8625, 28.400000000000002], [76.8625, 28.400833333333335], [76.8625, 28.401666666666667], [76.86333333333333, 28.401666666666667], [76.86333333333333, 28.400833333333335], [76.86333333333333, 28.400000000000002], [76.86333333333333, 28.399166666666666], [76.8625, 28.399166666666666], [76.86166666666666, 28.399166666666666], [76.86083333333333, 28.399166666666666], [76.86, 28.399166666666666], [76.85916666666667, 28.399166666666666], [76.85916666666667, 28.398333333333333], [76.85833333333333, 28.398333333333333], [76.85833333333333, 28.3975], [76.85749999999999, 28.3975], [76.85666666666665, 28.3975], [76.85666666666665, 28.398333333333333], [76.85666666666665, 28.399166666666666], [76.85749999999999, 28.399166666666666], [76.85749999999999, 28.400000000000002], [76.85749999999999, 28.400833333333335], [76.85833333333333, 28.400833333333335], [76.85916666666667, 28.400833333333335], [76.85916666666667, 28.400000000000002]]]}}, {"type": "Feature", "properties": {"product": "bare_expansion", "area_ha": 13.57}, "geometry": {"type": "Polygon", "coordinates": [[[76.86416666666666, 28.430833333333332], [76.86333333333333, 28.430833333333332], [76.86333333333333, 28.43166666666667], [76.86333333333333, 28.4325], [76.86333333333333, 28.433333333333334], [76.86333333333333, 28.434166666666666], [76.8625, 28.434166666666666], [76.8625, 28.435000000000002], [76.8625, 28.435833333333335], [76.86333333333333, 28.435833333333335], [76.86333333333333, 28.435000000000002], [76.86416666666666, 28.435000000000002], [76.86416666666666, 28.434166666666666], [76.86416666666666, 28.433333333333334], [76.86416666666666, 28.4325], [76.86416666666666, 28.43166666666667], [76.865, 28.43166666666667], [76.865, 28.430833333333332], [76.865, 28.43], [76.865, 28.429166666666667], [76.865, 28.428333333333335], [76.86583333333333, 28.428333333333335], [76.86583333333333, 28.427500000000002], [76.86583333333333, 28.426666666666666], [76.86583333333333, 28.425833333333333], [76.86583333333333, 28.425], [76.86583333333333, 28.424166666666668], [76.865, 28.424166666666668], [76.865, 28.425], [76.865, 28.425833333333333], [76.865, 28.426666666666666], [76.86416666666666, 28.426666666666666], [76.86416666666666, 28.427500000000002], [76.86416666666666, 28.428333333333335], [76.86416666666666, 28.429166666666667], [76.86416666666666, 28.43], [76.86416666666666, 28.430833333333332]]]}}, {"type": "Feature", "properties": {"product": "bare_expansion", "area_ha": 6.79}, "geometry": {"type": "Polygon", "coordinates": [[[76.85416666666666, 28.4375], [76.85499999999999, 28.4375], [76.85499999999999, 28.438333333333333], [76.85499999999999, 28.43916666666667], [76.85583333333332, 28.43916666666667], [76.85583333333332, 28.438333333333333], [76.85583333333332, 28.4375], [76.85583333333332, 28.436666666666667], [76.85583333333332, 28.435833333333335], [76.85583333333332, 28.435000000000002], [76.85583333333332, 28.434166666666666], [76.85499999999999, 28.434166666666666], [76.85499999999999, 28.435000000000002], [76.85499999999999, 28.435833333333335], [76.85499999999999, 28.436666666666667], [76.85416666666666, 28.436666666666667], [76.85416666666666, 28.435833333333335], [76.85333333333332, 28.435833333333335], [76.85333333333332, 28.436666666666667], [76.85333333333332, 28.4375], [76.85416666666666, 28.4375]]]}}, {"type": "Feature", "properties": {"product": "bare_expansion", "area_ha": 10.57}, "geometry": {"type": "Polygon", "coordinates": [[[76.875, 28.269166666666667], [76.87583333333333, 28.269166666666667], [76.87583333333333, 28.268333333333334], [76.87666666666667, 28.268333333333334], [76.8775, 28.268333333333334], [76.87833333333333, 28.268333333333334], [76.87916666666666, 28.268333333333334], [76.88, 28.268333333333334], [76.88, 28.267500000000002], [76.87916666666666, 28.267500000000002], [76.87833333333333, 28.267500000000002], [76.8775, 28.267500000000002], [76.87666666666667, 28.267500000000002], [76.87666666666667, 28.266666666666666], [76.87583333333333, 28.266666666666666], [76.875, 28.266666666666666], [76.87416666666667, 28.266666666666666], [76.87333333333332, 28.266666666666666], [76.87333333333332, 28.267500000000002], [76.87333333333332, 28.268333333333334], [76.87416666666667, 28.268333333333334], [76.87416666666667, 28.269166666666667], [76.875, 28.269166666666667]]]}}, {"type": "Feature", "properties": {"product": "bare_expansion", "area_ha": 12.82}, "geometry": {"type": "Polygon", "coordinates": [[[76.87249999999999, 28.37666666666667], [76.87249999999999, 28.3775], [76.87249999999999, 28.378333333333334], [76.87249999999999, 28.379166666666666], [76.87333333333332, 28.379166666666666], [76.87333333333332, 28.378333333333334], [76.87333333333332, 28.3775], [76.87333333333332, 28.37666666666667], [76.87416666666667, 28.37666666666667], [76.87416666666667, 28.375833333333333], [76.875, 28.375833333333333], [76.875, 28.375], [76.875, 28.374166666666667], [76.87583333333333, 28.374166666666667], [76.87583333333333, 28.373333333333335], [76.875, 28.373333333333335], [76.875, 28.372500000000002], [76.875, 28.371666666666666], [76.875, 28.370833333333334], [76.87583333333333, 28.370833333333334], [76.87583333333333, 28.37], [76.875, 28.37], [76.87416666666667, 28.37], [76.87416666666667, 28.370833333333334], [76.87416666666667, 28.371666666666666], [76.87416666666667, 28.372500000000002], [76.87416666666667, 28.373333333333335], [76.87333333333332, 28.373333333333335], [76.87333333333332, 28.374166666666667], [76.87333333333332, 28.375], [76.87333333333332, 28.375833333333333], [76.87249999999999, 28.375833333333333], [76.87249999999999, 28.37666666666667]]]}}, {"type": "Feature", "properties": {"product": "bare_expansion", "area_ha": 20.37}, "geometry": {"type": "Polygon", "coordinates": [[[76.87333333333332, 28.3825], [76.87333333333332, 28.381666666666668], [76.87249999999999, 28.381666666666668], [76.87249999999999, 28.3825], [76.87249999999999, 28.383333333333333], [76.87249999999999, 28.38416666666667], [76.87249999999999, 28.385], [76.87333333333332, 28.385], [76.87333333333332, 28.385833333333334], [76.87416666666667, 28.385833333333334], [76.875, 28.385833333333334], [76.875, 28.385], [76.87583333333333, 28.385], [76.87666666666667, 28.385], [76.8775, 28.385], [76.8775, 28.38416666666667], [76.87666666666667, 28.38416666666667], [76.87666666666667, 28.383333333333333], [76.8775, 28.383333333333333], [76.87833333333333, 28.383333333333333], [76.87916666666666, 28.383333333333333], [76.87916666666666, 28.3825], [76.87916666666666, 28.381666666666668], [76.87833333333333, 28.381666666666668], [76.87833333333333, 28.380833333333335], [76.8775, 28.380833333333335], [76.87666666666667, 28.380833333333335], [76.87666666666667, 28.38], [76.87583333333333, 28.38], [76.87583333333333, 28.380833333333335], [76.87583333333333, 28.381666666666668], [76.87583333333333, 28.3825], [76.87583333333333, 28.383333333333333], [76.875, 28.383333333333333], [76.87416666666667, 28.383333333333333], [76.87333333333332, 28.383333333333333], [76.87333333333332, 28.3825]]]}}, {"type": "Feature", "properties": {"product": "bare_expansion", "area_ha": 13.58}, "geometry": {"type": "Polygon", "coordinates": [[[76.87916666666666, 28.3875], [76.87916666666666, 28.388333333333335], [76.87916666666666, 28.389166666666668], [76.87916666666666, 28.39], [76.88, 28.39], [76.88, 28.389166666666668], [76.88083333333333, 28.389166666666668], [76.88083333333333, 28.388333333333335], [76.88, 28.388333333333335], [76.88, 28.3875], [76.88083333333333, 28.3875], [76.88166666666666, 28.3875], [76.88166666666666, 28.386666666666667], [76.8825, 28.386666666666667], [76.88333333333333, 28.386666666666667], [76.88333333333333, 28.385833333333334], [76.8825, 28.385833333333334], [76.88166666666666, 28.385833333333334], [76.88166666666666, 28.385], [76.88083333333333, 28.385], [76.88, 28.385], [76.87916666666666, 28.385], [76.87833333333333, 28.385], [76.8775, 28.385], [76.8775, 28.385833333333334], [76.87833333333333, 28.385833333333334], [76.87833333333333, 28.386666666666667], [76.87916666666666, 28.386666666666667], [76.87916666666666, 28.3875]]]}}, {"type": "Feature", "properties": {"product": "bare_expansion", "area_ha": 8.3}, "geometry": {"type": "Polygon", "coordinates": [[[76.87916666666666, 28.40416666666667], [76.87916666666666, 28.405], [76.88, 28.405], [76.88083333333333, 28.405], [76.88083333333333, 28.40416666666667], [76.88083333333333, 28.403333333333332], [76.88, 28.403333333333332], [76.87916666666666, 28.403333333333332], [76.87833333333333, 28.403333333333332], [76.87833333333333, 28.4025], [76.8775, 28.4025], [76.8775, 28.401666666666667], [76.8775, 28.400833333333335], [76.87666666666667, 28.400833333333335], [76.87583333333333, 28.400833333333335], [76.87583333333333, 28.401666666666667], [76.87666666666667, 28.401666666666667], [76.87666666666667, 28.4025], [76.87666666666667, 28.403333333333332], [76.8775, 28.403333333333332], [76.8775, 28.40416666666667], [76.87833333333333, 28.40416666666667], [76.87916666666666, 28.40416666666667]]]}}, {"type": "Feature", "properties": {"product": "bare_expansion", "area_ha": 14.36}, "geometry": {"type": "Polygon", "coordinates": [[[76.89166666666667, 28.158333333333335], [76.89083333333333, 28.158333333333335], [76.89, 28.158333333333335], [76.89, 28.159166666666668], [76.88916666666667, 28.159166666666668], [76.88833333333332, 28.159166666666668], [76.88749999999999, 28.159166666666668], [76.88749999999999, 28.16], [76.88833333333332, 28.16], [76.88833333333332, 28.160833333333333], [76.88833333333332, 28.16166666666667], [76.88916666666667, 28.16166666666667], [76.88916666666667, 28.160833333333333], [76.89, 28.160833333333333], [76.89, 28.16166666666667], [76.89, 28.1625], [76.89083333333333, 28.1625], [76.89166666666667, 28.1625], [76.89166666666667, 28.16166666666667], [76.8925, 28.16166666666667], [76.8925, 28.160833333333333], [76.8925, 28.16], [76.89166666666667, 28.16], [76.89166666666667, 28.159166666666668], [76.8925, 28.159166666666668], [76.8925, 28.158333333333335], [76.89166666666667, 28.158333333333335]]]}}, {"type": "Feature", "properties": {"product": "bare_expansion", "area_ha": 7.54}, "geometry": {"type": "Polygon", "coordinates": [[[76.89083333333333, 28.385], [76.89166666666667, 28.385], [76.89166666666667, 28.38416666666667], [76.89166666666667, 28.383333333333333], [76.89083333333333, 28.383333333333333], [76.89083333333333, 28.3825], [76.89083333333333, 28.381666666666668], [76.89083333333333, 28.380833333333335], [76.89, 28.380833333333335], [76.89, 28.381666666666668], [76.89, 28.3825], [76.88916666666667, 28.3825], [76.88916666666667, 28.383333333333333], [76.88916666666667, 28.38416666666667], [76.88916666666667, 28.385], [76.89, 28.385], [76.89083333333333, 28.385]]]}}, {"type": "Feature", "properties": {"product": "bare_expansion", "area_ha": 20.37}, "geometry": {"type": "Polygon", "coordinates": [[[76.89583333333333, 28.388333333333335], [76.89666666666666, 28.388333333333335], [76.8975, 28.388333333333335], [76.89833333333333, 28.388333333333335], [76.89833333333333, 28.3875], [76.8975, 28.3875], [76.89666666666666, 28.3875], [76.89583333333333, 28.3875], [76.89583333333333, 28.386666666666667], [76.895, 28.386666666666667], [76.89416666666666, 28.386666666666667], [76.89333333333333, 28.386666666666667], [76.89333333333333, 28.385833333333334], [76.8925, 28.385833333333334], [76.8925, 28.386666666666667], [76.8925, 28.3875], [76.89166666666667, 28.3875], [76.89083333333333, 28.3875], [76.89, 28.3875], [76.89, 28.388333333333335], [76.89, 28.389166666666668], [76.89, 28.39], [76.89083333333333, 28.39], [76.89083333333333, 28.390833333333333], [76.89083333333333, 28.391666666666666], [76.89, 28.391666666666666], [76.89, 28.392500000000002], [76.89083333333333, 28.392500000000002], [76.89166666666667, 28.392500000000002], [76.8925, 28.392500000000002], [76.8925, 28.391666666666666], [76.8925, 28.390833333333333], [76.89166666666667, 28.390833333333333], [76.89166666666667, 28.39], [76.8925, 28.39], [76.89333333333333, 28.39], [76.89333333333333, 28.389166666666668], [76.89333333333333, 28.388333333333335], [76.89416666666666, 28.388333333333335], [76.89416666666666, 28.3875], [76.895, 28.3875], [76.895, 28.388333333333335], [76.89583333333333, 28.388333333333335]], [[76.89166666666667, 28.388333333333335], [76.89166666666667, 28.389166666666668], [76.89083333333333, 28.389166666666668], [76.89083333333333, 28.388333333333335], [76.89166666666667, 28.388333333333335]]]}}, {"type": "Feature", "properties": {"product": "bare_expansion", "area_ha": 7.54}, "geometry": {"type": "Polygon", "coordinates": [[[76.88499999999999, 28.4025], [76.88583333333332, 28.4025], [76.88666666666666, 28.4025], [76.88749999999999, 28.4025], [76.88749999999999, 28.401666666666667], [76.88666666666666, 28.401666666666667], [76.88666666666666, 28.400833333333335], [76.88666666666666, 28.400000000000002], [76.88583333333332, 28.400000000000002], [76.88499999999999, 28.400000000000002], [76.88416666666666, 28.400000000000002], [76.88416666666666, 28.400833333333335], [76.88333333333333, 28.400833333333335], [76.88333333333333, 28.401666666666667], [76.88416666666666, 28.401666666666667], [76.88499999999999, 28.401666666666667], [76.88499999999999, 28.4025]]]}}, {"type": "Feature", "properties": {"product": "bare_expansion", "area_ha": 9.05}, "geometry": {"type": "Polygon", "coordinates": [[[76.91499999999999, 28.386666666666667], [76.91499999999999, 28.385833333333334], [76.91499999999999, 28.385], [76.91416666666666, 28.385], [76.91416666666666, 28.38416666666667], [76.91333333333333, 28.38416666666667], [76.91333333333333, 28.383333333333333], [76.91333333333333, 28.3825], [76.9125, 28.3825], [76.9125, 28.383333333333333], [76.9125, 28.38416666666667], [76.9125, 28.385], [76.9125, 28.385833333333334], [76.9125, 28.386666666666667], [76.91333333333333, 28.386666666666667], [76.91333333333333, 28.3875], [76.91416666666666, 28.3875], [76.91499999999999, 28.3875], [76.91499999999999, 28.386666666666667]]]}}, {"type": "Feature", "properties": {"product": "bare_expansion", "area_ha": 10.56}, "geometry": {"type": "Polygon", "coordinates": [[[76.91083333333333, 28.4175], [76.91166666666666, 28.4175], [76.91166666666666, 28.418333333333333], [76.9125, 28.418333333333333], [76.9125, 28.4175], [76.91333333333333, 28.4175], [76.91333333333333, 28.416666666666668], [76.91333333333333, 28.415833333333335], [76.91333333333333, 28.415], [76.9125, 28.415], [76.91166666666666, 28.415], [76.91166666666666, 28.414166666666667], [76.91083333333333, 28.414166666666667], [76.91083333333333, 28.415], [76.91, 28.415], [76.91, 28.415833333333335], [76.91, 28.416666666666668], [76.91, 28.4175], [76.91083333333333, 28.4175]]]}}, {"type": "Feature", "properties": {"product": "bare_expansion", "area_ha": 6.04}, "geometry": {"type": "Polygon", "coordinates": [[[76.9375, 28.241666666666667], [76.9375, 28.2425], [76.93833333333333, 28.2425], [76.93833333333333, 28.241666666666667], [76.93916666666667, 28.241666666666667], [76.93916666666667, 28.240833333333335], [76.93916666666667, 28.240000000000002], [76.93833333333333, 28.240000000000002], [76.9375, 28.240000000000002], [76.9375, 28.240833333333335], [76.93666666666667, 28.240833333333335], [76.93583333333332, 28.240833333333335], [76.93583333333332, 28.241666666666667], [76.93583333333332, 28.2425], [76.93666666666667, 28.2425], [76.93666666666667, 28.241666666666667], [76.9375, 28.241666666666667]]]}}, {"type": "Feature", "properties": {"product": "bare_expansion", "area_ha": 14.33}, "geometry": {"type": "Polygon", "coordinates": [[[76.92833333333333, 28.413333333333334], [76.9275, 28.413333333333334], [76.9275, 28.414166666666667], [76.92833333333333, 28.414166666666667], [76.92916666666666, 28.414166666666667], [76.92916666666666, 28.415], [76.92999999999999, 28.415], [76.92999999999999, 28.414166666666667], [76.92999999999999, 28.413333333333334], [76.93083333333333, 28.413333333333334], [76.93083333333333, 28.4125], [76.92999999999999, 28.4125], [76.92916666666666, 28.4125], [76.92916666666666, 28.41166666666667], [76.92916666666666, 28.410833333333333], [76.92999999999999, 28.410833333333333], [76.93083333333333, 28.410833333333333], [76.93083333333333, 28.41], [76.92999999999999, 28.41], [76.92916666666666, 28.41], [76.92916666666666, 28.409166666666668], [76.92916666666666, 28.408333333333335], [76.92916666666666, 28.407500000000002], [76.92833333333333, 28.407500000000002], [76.92833333333333, 28.408333333333335], [76.9275, 28.408333333333335], [76.9275, 28.409166666666668], [76.9275, 28.41], [76.9275, 28.410833333333333], [76.9275, 28.41166666666667], [76.92833333333333, 28.41166666666667], [76.92833333333333, 28.4125], [76.92833333333333, 28.413333333333334]]]}}, {"type": "Feature", "properties": {"product": "bare_expansion", "area_ha": 9.8}, "geometry": {"type": "Polygon", "coordinates": [[[76.92999999999999, 28.42], [76.93083333333333, 28.42], [76.93083333333333, 28.420833333333334], [76.93166666666666, 28.420833333333334], [76.93166666666666, 28.42], [76.93249999999999, 28.42], [76.93249999999999, 28.41916666666667], [76.93166666666666, 28.41916666666667], [76.93166666666666, 28.418333333333333], [76.93249999999999, 28.418333333333333], [76.93249999999999, 28.4175], [76.93333333333332, 28.4175], [76.93333333333332, 28.416666666666668], [76.93249999999999, 28.416666666666668], [76.93166666666666, 28.416666666666668], [76.93166666666666, 28.415833333333335], [76.93083333333333, 28.415833333333335], [76.92999999999999, 28.415833333333335], [76.92999999999999, 28.416666666666668], [76.92999999999999, 28.4175], [76.93083333333333, 28.4175], [76.93083333333333, 28.418333333333333], [76.93083333333333, 28.41916666666667], [76.92999999999999, 28.41916666666667], [76.92999999999999, 28.42]]]}}, {"type": "Feature", "properties": {"product": "bare_expansion", "area_ha": 15.08}, "geometry": {"type": "Polygon", "coordinates": [[[76.94333333333333, 28.433333333333334], [76.94416666666666, 28.433333333333334], [76.945, 28.433333333333334], [76.945, 28.4325], [76.945, 28.43166666666667], [76.945, 28.430833333333332], [76.945, 28.43], [76.94416666666666, 28.43], [76.94416666666666, 28.429166666666667], [76.94416666666666, 28.428333333333335], [76.94333333333333, 28.428333333333335], [76.94333333333333, 28.429166666666667], [76.94333333333333, 28.43], [76.94333333333333, 28.430833333333332], [76.9425, 28.430833333333332], [76.9425, 28.43166666666667], [76.94166666666666, 28.43166666666667], [76.94166666666666, 28.4325], [76.94083333333333, 28.4325], [76.94, 28.4325], [76.93916666666667, 28.4325], [76.93916666666667, 28.433333333333334], [76.94, 28.433333333333334], [76.94, 28.434166666666666], [76.94083333333333, 28.434166666666666], [76.94166666666666, 28.434166666666666], [76.94166666666666, 28.433333333333334], [76.9425, 28.433333333333334], [76.94333333333333, 28.433333333333334]]]}}, {"type": "Feature", "properties": {"product": "bare_expansion", "area_ha": 15.84}, "geometry": {"type": "Polygon", "coordinates": [[[76.94916666666666, 28.41], [76.94916666666666, 28.409166666666668], [76.94833333333332, 28.409166666666668], [76.94833333333332, 28.41], [76.94833333333332, 28.410833333333333], [76.94833333333332, 28.41166666666667], [76.94916666666666, 28.41166666666667], [76.94999999999999, 28.41166666666667], [76.94999999999999, 28.4125], [76.95083333333332, 28.4125], [76.95166666666667, 28.4125], [76.95166666666667, 28.413333333333334], [76.95083333333332, 28.413333333333334], [76.95083333333332, 28.414166666666667], [76.95166666666667, 28.414166666666667], [76.9525, 28.414166666666667], [76.9525, 28.415], [76.95333333333333, 28.415], [76.95333333333333, 28.414166666666667], [76.95333333333333, 28.413333333333334], [76.95416666666667, 28.413333333333334], [76.95416666666667, 28.4125], [76.95416666666667, 28.41166666666667], [76.95333333333333, 28.41166666666667], [76.95333333333333, 28.410833333333333], [76.9525, 28.410833333333333], [76.95166666666667, 28.410833333333333], [76.95083333333332, 28.410833333333333], [76.94999999999999, 28.410833333333333], [76.94999999999999, 28.41], [76.94916666666666, 28.41]]]}}, {"type": "Feature", "properties": {"product": "bare_expansion", "area_ha": 10.56}, "geometry": {"type": "Polygon", "coordinates": [[[76.955, 28.4375], [76.95583333333333, 28.4375], [76.95583333333333, 28.436666666666667], [76.95666666666666, 28.436666666666667], [76.9575, 28.436666666666667], [76.95833333333333, 28.436666666666667], [76.95833333333333, 28.435833333333335], [76.95833333333333, 28.435000000000002], [76.9575, 28.435000000000002], [76.95666666666666, 28.435000000000002], [76.95666666666666, 28.435833333333335], [76.95583333333333, 28.435833333333335], [76.95583333333333, 28.435000000000002], [76.955, 28.435000000000002], [76.955, 28.435833333333335], [76.95416666666667, 28.435833333333335], [76.95416666666667, 28.435000000000002], [76.95333333333333, 28.435000000000002], [76.9525, 28.435000000000002], [76.9525, 28.435833333333335], [76.9525, 28.436666666666667], [76.95333333333333, 28.436666666666667], [76.95416666666667, 28.436666666666667], [76.95416666666667, 28.4375], [76.955, 28.4375]]]}}, {"type": "Feature", "properties": {"product": "bare_expansion", "area_ha": 7.54}, "geometry": {"type": "Polygon", "coordinates": [[[76.95166666666667, 28.438333333333333], [76.9525, 28.438333333333333], [76.95333333333333, 28.438333333333333], [76.95416666666667, 28.438333333333333], [76.95416666666667, 28.4375], [76.95333333333333, 28.4375], [76.9525, 28.4375], [76.95166666666667, 28.4375], [76.95166666666667, 28.436666666666667], [76.95083333333332, 28.436666666666667], [76.95083333333332, 28.435833333333335], [76.94999999999999, 28.435833333333335], [76.94999999999999, 28.435000000000002], [76.94916666666666, 28.435000000000002], [76.94916666666666, 28.435833333333335], [76.94916666666666, 28.436666666666667], [76.94999999999999, 28.436666666666667], [76.94999999999999, 28.4375], [76.94999999999999, 28.438333333333333], [76.95083333333332, 28.438333333333333], [76.95166666666667, 28.438333333333333]]]}}, {"type": "Feature", "properties": {"product": "bare_expansion", "area_ha": 7.54}, "geometry": {"type": "Polygon", "coordinates": [[[76.94583333333333, 28.440833333333334], [76.94583333333333, 28.441666666666666], [76.945, 28.441666666666666], [76.945, 28.4425], [76.945, 28.443333333333335], [76.94583333333333, 28.443333333333335], [76.94666666666666, 28.443333333333335], [76.94666666666666, 28.4425], [76.94749999999999, 28.4425], [76.94749999999999, 28.441666666666666], [76.94833333333332, 28.441666666666666], [76.94916666666666, 28.441666666666666], [76.94916666666666, 28.440833333333334], [76.94833333333332, 28.440833333333334], [76.94749999999999, 28.440833333333334], [76.94749999999999, 28.44], [76.94666666666666, 28.44], [76.94666666666666, 28.440833333333334], [76.94583333333333, 28.440833333333334]]]}}, {"type": "Feature", "properties": {"product": "bare_expansion", "area_ha": 14.36}, "geometry": {"type": "Polygon", "coordinates": [[[76.96083333333333, 28.204166666666666], [76.96083333333333, 28.205000000000002], [76.96083333333333, 28.205833333333334], [76.96166666666666, 28.205833333333334], [76.96166666666666, 28.205000000000002], [76.96249999999999, 28.205000000000002], [76.96333333333332, 28.205000000000002], [76.96416666666666, 28.205000000000002], [76.96499999999999, 28.205000000000002], [76.96583333333332, 28.205000000000002], [76.96583333333332, 28.204166666666666], [76.96499999999999, 28.204166666666666], [76.96416666666666, 28.204166666666666], [76.96416666666666, 28.203333333333333], [76.96416666666666, 28.2025], [76.96333333333332, 28.2025], [76.96333333333332, 28.201666666666668], [76.96249999999999, 28.201666666666668], [76.96249999999999, 28.200833333333335], [76.96166666666666, 28.200833333333335], [76.96083333333333, 28.200833333333335], [76.96, 28.200833333333335], [76.95916666666666, 28.200833333333335], [76.95916666666666, 28.201666666666668], [76.96, 28.201666666666668], [76.96083333333333, 28.201666666666668], [76.96166666666666, 28.201666666666668], [76.96166666666666, 28.2025], [76.96083333333333, 28.2025], [76.96083333333333, 28.203333333333333], [76.96083333333333, 28.204166666666666]], [[76.96249999999999, 28.203333333333333], [76.96333333333332, 28.203333333333333], [76.96333333333332, 28.204166666666666], [76.96249999999999, 28.204166666666666], [76.96166666666666, 28.204166666666666], [76.96166666666666, 28.203333333333333], [76.96249999999999, 28.203333333333333]]]}}, {"type": "Feature", "properties": {"product": "bare_expansion", "area_ha": 8.3}, "geometry": {"type": "Polygon", "coordinates": [[[76.96083333333333, 28.363333333333333], [76.96083333333333, 28.364166666666666], [76.96166666666666, 28.364166666666666], [76.96166666666666, 28.365000000000002], [76.96083333333333, 28.365000000000002], [76.96083333333333, 28.365833333333335], [76.96166666666666, 28.365833333333335], [76.96166666666666, 28.366666666666667], [76.96249999999999, 28.366666666666667], [76.96333333333332, 28.366666666666667], [76.96416666666666, 28.366666666666667], [76.96499999999999, 28.366666666666667], [76.96499999999999, 28.365833333333335], [76.96499999999999, 28.365000000000002], [76.96416666666666, 28.365000000000002], [76.96416666666666, 28.365833333333335], [76.96333333333332, 28.365833333333335], [76.96333333333332, 28.365000000000002], [76.96249999999999, 28.365000000000002], [76.96249999999999, 28.364166666666666], [76.96249999999999, 28.363333333333333], [76.96166666666666, 28.363333333333333], [76.96083333333333, 28.363333333333333]]]}}, {"type": "Feature", "properties": {"product": "bare_expansion", "area_ha": 10.56}, "geometry": {"type": "Polygon", "coordinates": [[[76.96916666666667, 28.421666666666667], [76.97, 28.421666666666667], [76.97083333333333, 28.421666666666667], [76.97166666666666, 28.421666666666667], [76.97166666666666, 28.420833333333334], [76.97166666666666, 28.42], [76.9725, 28.42], [76.97333333333333, 28.42], [76.97333333333333, 28.41916666666667], [76.9725, 28.41916666666667], [76.97166666666666, 28.41916666666667], [76.97083333333333, 28.41916666666667], [76.97083333333333, 28.42], [76.97, 28.42], [76.97, 28.41916666666667], [76.97, 28.418333333333333], [76.96916666666667, 28.418333333333333], [76.96833333333333, 28.418333333333333], [76.96833333333333, 28.41916666666667], [76.96916666666667, 28.41916666666667], [76.96916666666667, 28.42], [76.96833333333333, 28.42], [76.96833333333333, 28.420833333333334], [76.96833333333333, 28.421666666666667], [76.96916666666667, 28.421666666666667]]]}}, {"type": "Feature", "properties": {"product": "bare_expansion", "area_ha": 11.31}, "geometry": {"type": "Polygon", "coordinates": [[[76.96666666666665, 28.425833333333333], [76.96666666666665, 28.426666666666666], [76.9675, 28.426666666666666], [76.9675, 28.425833333333333], [76.96833333333333, 28.425833333333333], [76.96833333333333, 28.425], [76.96916666666667, 28.425], [76.96916666666667, 28.425833333333333], [76.97, 28.425833333333333], [76.97083333333333, 28.425833333333333], [76.97083333333333, 28.425], [76.97166666666666, 28.425], [76.97166666666666, 28.424166666666668], [76.9725, 28.424166666666668], [76.9725, 28.423333333333336], [76.97166666666666, 28.423333333333336], [76.97083333333333, 28.423333333333336], [76.97, 28.423333333333336], [76.96916666666667, 28.423333333333336], [76.96833333333333, 28.423333333333336], [76.96833333333333, 28.424166666666668], [76.9675, 28.424166666666668], [76.9675, 28.425], [76.96666666666665, 28.425], [76.96666666666665, 28.425833333333333]]]}}, {"type": "Feature", "properties": {"product": "bare_expansion", "area_ha": 8.29}, "geometry": {"type": "Polygon", "coordinates": [[[76.96499999999999, 28.444166666666668], [76.96499999999999, 28.445], [76.96499999999999, 28.445833333333333], [76.96583333333332, 28.445833333333333], [76.96666666666665, 28.445833333333333], [76.9675, 28.445833333333333], [76.9675, 28.445], [76.96833333333333, 28.445], [76.96833333333333, 28.444166666666668], [76.96833333333333, 28.443333333333335], [76.96833333333333, 28.4425], [76.9675, 28.4425], [76.96666666666665, 28.4425], [76.96583333333332, 28.4425], [76.96583333333332, 28.443333333333335], [76.96583333333332, 28.444166666666668], [76.96499999999999, 28.444166666666668]], [[76.96666666666665, 28.444166666666668], [76.96666666666665, 28.445], [76.96583333333332, 28.445], [76.96583333333332, 28.444166666666668], [76.96666666666665, 28.444166666666668]], [[76.96666666666665, 28.443333333333335], [76.9675, 28.443333333333335], [76.9675, 28.444166666666668], [76.96666666666665, 28.444166666666668], [76.96666666666665, 28.443333333333335]]]}}, {"type": "Feature", "properties": {"product": "bare_expansion", "area_ha": 9.06}, "geometry": {"type": "Polygon", "coordinates": [[[76.975, 28.235833333333336], [76.97583333333333, 28.235833333333336], [76.97666666666666, 28.235833333333336], [76.97666666666666, 28.235], [76.97749999999999, 28.235], [76.97749999999999, 28.234166666666667], [76.97833333333332, 28.234166666666667], [76.97833333333332, 28.233333333333334], [76.97916666666666, 28.233333333333334], [76.97916666666666, 28.2325], [76.97916666666666, 28.23166666666667], [76.97833333333332, 28.23166666666667], [76.97833333333332, 28.2325], [76.97749999999999, 28.2325], [76.97749999999999, 28.233333333333334], [76.97666666666666, 28.233333333333334], [76.97666666666666, 28.234166666666667], [76.97583333333333, 28.234166666666667], [76.975, 28.234166666666667], [76.975, 28.235], [76.97416666666666, 28.235], [76.97416666666666, 28.235833333333336], [76.97416666666666, 28.236666666666668], [76.975, 28.236666666666668], [76.975, 28.235833333333336]]]}}, {"type": "Feature", "properties": {"product": "bare_expansion", "area_ha": 9.81}, "geometry": {"type": "Polygon", "coordinates": [[[76.97416666666666, 28.354166666666668], [76.97416666666666, 28.355], [76.975, 28.355], [76.975, 28.355833333333333], [76.97583333333333, 28.355833333333333], [76.97583333333333, 28.355], [76.97666666666666, 28.355], [76.97749999999999, 28.355], [76.97833333333332, 28.355], [76.97916666666666, 28.355], [76.97999999999999, 28.355], [76.97999999999999, 28.354166666666668], [76.97916666666666, 28.354166666666668], [76.97833333333332, 28.354166666666668], [76.97833333333332, 28.353333333333335], [76.97749999999999, 28.353333333333335], [76.97666666666666, 28.353333333333335], [76.97666666666666, 28.3525], [76.97583333333333, 28.3525], [76.97583333333333, 28.353333333333335], [76.975, 28.353333333333335], [76.975, 28.354166666666668], [76.97416666666666, 28.354166666666668]]]}}, {"type": "Feature", "properties": {"product": "bare_expansion", "area_ha": 8.3}, "geometry": {"type": "Polygon", "coordinates": [[[76.97583333333333, 28.363333333333333], [76.97583333333333, 28.364166666666666], [76.97666666666666, 28.364166666666666], [76.97749999999999, 28.364166666666666], [76.97749999999999, 28.363333333333333], [76.97749999999999, 28.3625], [76.97666666666666, 28.3625], [76.97666666666666, 28.361666666666668], [76.97583333333333, 28.361666666666668], [76.97583333333333, 28.360833333333336], [76.97583333333333, 28.36], [76.975, 28.36], [76.97416666666666, 28.36], [76.97416666666666, 28.360833333333336], [76.97416666666666, 28.361666666666668], [76.975, 28.361666666666668], [76.975, 28.3625], [76.975, 28.363333333333333], [76.97583333333333, 28.363333333333333]]]}}, {"type": "Feature", "properties": {"product": "bare_expansion", "area_ha": 55.8}, "geometry": {"type": "Polygon", "coordinates": [[[76.9725, 28.425833333333333], [76.97333333333333, 28.425833333333333], [76.97333333333333, 28.426666666666666], [76.97333333333333, 28.427500000000002], [76.9725, 28.427500000000002], [76.9725, 28.428333333333335], [76.9725, 28.429166666666667], [76.97333333333333, 28.429166666666667], [76.97333333333333, 28.428333333333335], [76.97416666666666, 28.428333333333335], [76.97416666666666, 28.427500000000002], [76.975, 28.427500000000002], [76.97583333333333, 28.427500000000002], [76.97583333333333, 28.428333333333335], [76.97666666666666, 28.428333333333335], [76.97666666666666, 28.429166666666667], [76.97666666666666, 28.43], [76.97583333333333, 28.43], [76.97583333333333, 28.430833333333332], [76.97583333333333, 28.43166666666667], [76.97583333333333, 28.4325], [76.975, 28.4325], [76.97416666666666, 28.4325], [76.97333333333333, 28.4325], [76.9725, 28.4325], [76.9725, 28.433333333333334], [76.97333333333333, 28.433333333333334], [76.97416666666666, 28.433333333333334], [76.97416666666666, 28.434166666666666], [76.975, 28.434166666666666], [76.97583333333333, 28.434166666666666], [76.97583333333333, 28.433333333333334], [76.97666666666666, 28.433333333333334], [76.97749999999999, 28.433333333333334], [76.97749999999999, 28.4325], [76.97833333333332, 28.4325], [76.97833333333332, 28.43166666666667], [76.97916666666666, 28.43166666666667], [76.97916666666666, 28.430833333333332], [76.97999999999999, 28.430833333333332], [76.97999999999999, 28.43], [76.97999999999999, 28.429166666666667], [76.98083333333332, 28.429166666666667], [76.98166666666665, 28.429166666666667], [76.98166666666665, 28.428333333333335], [76.98083333333332, 28.428333333333335], [76.98083333333332, 28.427500000000002], [76.98166666666665, 28.427500000000002], [76.98249999999999, 28.427500000000002], [76.98249999999999, 28.426666666666666], [76.98166666666665, 28.426666666666666], [76.98083333333332, 28.426666666666666], [76.98083333333332, 28.425833333333333], [76.98083333333332, 28.425], [76.98166666666665, 28.425], [76.98166666666665, 28.424166666666668], [76.98083333333332, 28.424166666666668], [76.97999999999999, 28.424166666666668], [76.97916666666666, 28.424166666666668], [76.97833333333332, 28.424166666666668], [76.97749999999999, 28.424166666666668], [76.97666666666666, 28.424166666666668], [76.97666666666666, 28.423333333333336], [76.97583333333333, 28.423333333333336], [76.97583333333333, 28.424166666666668], [76.975, 28.424166666666668], [76.97416666666666, 28.424166666666668], [76.97333333333333, 28.424166666666668], [76.97333333333333, 28.425], [76.9725, 28.425], [76.9725, 28.425833333333333]], [[76.97583333333333, 28.426666666666666], [76.97583333333333, 28.425833333333333], [76.97666666666666, 28.425833333333333], [76.97666666666666, 28.425], [76.97749999999999, 28.425], [76.97749999999999, 28.425833333333333], [76.97833333333332, 28.425833333333333], [76.97833333333332, 28.426666666666666], [76.97749999999999, 28.426666666666666], [76.97666666666666, 28.426666666666666], [76.97666666666666, 28.427500000000002], [76.97583333333333, 28.427500000000002], [76.97583333333333, 28.426666666666666]], [[76.97833333333332, 28.430833333333332], [76.97833333333332, 28.43], [76.97916666666666, 28.43], [76.97916666666666, 28.430833333333332], [76.97833333333332, 28.430833333333332]]]}}, {"type": "Feature", "properties": {"product": "bare_expansion", "area_ha": 7.54}, "geometry": {"type": "Polygon", "coordinates": [[[76.98833333333333, 28.378333333333334], [76.98916666666666, 28.378333333333334], [76.98916666666666, 28.379166666666666], [76.99, 28.379166666666666], [76.99, 28.38], [76.99, 28.380833333333335], [76.99083333333333, 28.380833333333335], [76.99083333333333, 28.38], [76.99166666666666, 28.38], [76.99166666666666, 28.379166666666666], [76.99083333333333, 28.379166666666666], [76.99083333333333, 28.378333333333334], [76.99, 28.378333333333334], [76.99, 28.3775], [76.99, 28.37666666666667], [76.99, 28.375833333333333], [76.98916666666666, 28.375833333333333], [76.98916666666666, 28.37666666666667], [76.98916666666666, 28.3775], [76.98833333333333, 28.3775], [76.9875, 28.3775], [76.9875, 28.378333333333334], [76.98833333333333, 28.378333333333334]]]}}, {"type": "Feature", "properties": {"product": "bare_expansion", "area_ha": 8.29}, "geometry": {"type": "Polygon", "coordinates": [[[76.9875, 28.470833333333335], [76.9875, 28.471666666666668], [76.98833333333333, 28.471666666666668], [76.98916666666666, 28.471666666666668], [76.98916666666666, 28.4725], [76.99, 28.4725], [76.99083333333333, 28.4725], [76.99083333333333, 28.473333333333333], [76.99166666666666, 28.473333333333333], [76.99166666666666, 28.4725], [76.99166666666666, 28.471666666666668], [76.99083333333333, 28.471666666666668], [76.99, 28.471666666666668], [76.99, 28.470833333333335], [76.99, 28.470000000000002], [76.98916666666666, 28.470000000000002], [76.98833333333333, 28.470000000000002], [76.9875, 28.470000000000002], [76.98666666666666, 28.470000000000002], [76.98666666666666, 28.470833333333335], [76.9875, 28.470833333333335]]]}}, {"type": "Feature", "properties": {"product": "bare_expansion", "area_ha": 19.59}, "geometry": {"type": "Polygon", "coordinates": [[[76.98583333333333, 28.484166666666667], [76.985, 28.484166666666667], [76.985, 28.485], [76.98416666666667, 28.485], [76.98416666666667, 28.485833333333336], [76.98416666666667, 28.486666666666668], [76.98416666666667, 28.4875], [76.985, 28.4875], [76.985, 28.486666666666668], [76.98583333333333, 28.486666666666668], [76.98666666666666, 28.486666666666668], [76.98666666666666, 28.4875], [76.98666666666666, 28.488333333333333], [76.9875, 28.488333333333333], [76.9875, 28.4875], [76.9875, 28.486666666666668], [76.9875, 28.485833333333336], [76.98833333333333, 28.485833333333336], [76.98833333333333, 28.486666666666668], [76.98916666666666, 28.486666666666668], [76.99, 28.486666666666668], [76.99, 28.485833333333336], [76.99, 28.485], [76.99, 28.484166666666667], [76.98916666666666, 28.484166666666667], [76.98916666666666, 28.483333333333334], [76.98833333333333, 28.483333333333334], [76.9875, 28.483333333333334], [76.98666666666666, 28.483333333333334], [76.98583333333333, 28.483333333333334], [76.98583333333333, 28.484166666666667]]]}}, {"type": "Feature", "properties": {"product": "bare_expansion", "area_ha": 17.35}, "geometry": {"type": "Polygon", "coordinates": [[[76.99, 28.385], [76.99, 28.385833333333334], [76.99, 28.386666666666667], [76.99083333333333, 28.386666666666667], [76.99166666666666, 28.386666666666667], [76.99166666666666, 28.3875], [76.99166666666666, 28.388333333333335], [76.99249999999999, 28.388333333333335], [76.99333333333333, 28.388333333333335], [76.99333333333333, 28.3875], [76.99416666666666, 28.3875], [76.99416666666666, 28.386666666666667], [76.99333333333333, 28.386666666666667], [76.99333333333333, 28.385833333333334], [76.99249999999999, 28.385833333333334], [76.99249999999999, 28.385], [76.99166666666666, 28.385], [76.99083333333333, 28.385], [76.99083333333333, 28.38416666666667], [76.99083333333333, 28.383333333333333], [76.99166666666666, 28.383333333333333], [76.99249999999999, 28.383333333333333], [76.99249999999999, 28.3825], [76.99249999999999, 28.381666666666668], [76.99166666666666, 28.381666666666668], [76.99166666666666, 28.380833333333335], [76.99083333333333, 28.380833333333335], [76.99083333333333, 28.381666666666668], [76.99, 28.381666666666668], [76.99, 28.3825], [76.98916666666666, 28.3825], [76.98916666666666, 28.383333333333333], [76.99, 28.383333333333333], [76.99, 28.38416666666667], [76.98916666666666, 28.38416666666667], [76.98916666666666, 28.385], [76.99, 28.385]]]}}, {"type": "Feature", "properties": {"product": "bare_expansion", "area_ha": 6.03}, "geometry": {"type": "Polygon", "coordinates": [[[77.00999999999999, 28.41], [77.01083333333332, 28.41], [77.01166666666666, 28.41], [77.01166666666666, 28.409166666666668], [77.01166666666666, 28.408333333333335], [77.01249999999999, 28.408333333333335], [77.01333333333332, 28.408333333333335], [77.01333333333332, 28.407500000000002], [77.01249999999999, 28.407500000000002], [77.01249999999999, 28.406666666666666], [77.01166666666666, 28.406666666666666], [77.01166666666666, 28.407500000000002], [77.01083333333332, 28.407500000000002], [77.01083333333332, 28.408333333333335], [77.00999999999999, 28.408333333333335], [77.00999999999999, 28.409166666666668], [77.00999999999999, 28.41]]]}}, {"type": "Feature", "properties": {"product": "bare_expansion", "area_ha": 6.78}, "geometry": {"type": "Polygon", "coordinates": [[[76.99833333333332, 28.5025], [76.99833333333332, 28.503333333333334], [76.99916666666667, 28.503333333333334], [77.0, 28.503333333333334], [77.0, 28.5025], [77.0, 28.50166666666667], [77.00083333333333, 28.50166666666667], [77.00083333333333, 28.5025], [77.00166666666667, 28.5025], [77.00166666666667, 28.50166666666667], [77.0025, 28.50166666666667], [77.0025, 28.500833333333333], [77.00166666666667, 28.500833333333333], [77.00083333333333, 28.500833333333333], [77.0, 28.500833333333333], [76.99916666666667, 28.500833333333333], [76.99916666666667, 28.50166666666667], [76.99833333333332, 28.50166666666667], [76.99833333333332, 28.5025]]]}}, {"type": "Feature", "properties": {"product": "bare_expansion", "area_ha": 9.05}, "geometry": {"type": "Polygon", "coordinates": [[[77.01416666666667, 28.389166666666668], [77.015, 28.389166666666668], [77.015, 28.39], [77.01583333333333, 28.39], [77.01583333333333, 28.389166666666668], [77.01583333333333, 28.388333333333335], [77.015, 28.388333333333335], [77.01416666666667, 28.388333333333335], [77.01416666666667, 28.3875], [77.015, 28.3875], [77.015, 28.386666666666667], [77.015, 28.385833333333334], [77.01583333333333, 28.385833333333334], [77.01583333333333, 28.385], [77.01583333333333, 28.38416666666667], [77.01583333333333, 28.383333333333333], [77.015, 28.383333333333333], [77.015, 28.38416666666667], [77.015, 28.385], [77.01416666666667, 28.385], [77.01416666666667, 28.385833333333334], [77.01416666666667, 28.386666666666667], [77.01333333333332, 28.386666666666667], [77.01333333333332, 28.3875], [77.01333333333332, 28.388333333333335], [77.01333333333332, 28.389166666666668], [77.01416666666667, 28.389166666666668]]]}}, {"type": "Feature", "properties": {"product": "bare_expansion", "area_ha": 6.03}, "geometry": {"type": "Polygon", "coordinates": [[[77.01833333333333, 28.3975], [77.01833333333333, 28.398333333333333], [77.01916666666666, 28.398333333333333], [77.02, 28.398333333333333], [77.02, 28.3975], [77.02, 28.39666666666667], [77.02, 28.395833333333336], [77.02083333333333, 28.395833333333336], [77.02083333333333, 28.395], [77.02, 28.395], [77.01916666666666, 28.395], [77.01833333333333, 28.395], [77.01833333333333, 28.395833333333336], [77.01916666666666, 28.395833333333336], [77.01916666666666, 28.39666666666667], [77.01833333333333, 28.39666666666667], [77.01833333333333, 28.3975]]]}}, {"type": "Feature", "properties": {"product": "bare_expansion", "area_ha": 13.58}, "geometry": {"type": "Polygon", "coordinates": [[[77.01166666666666, 28.400000000000002], [77.01249999999999, 28.400000000000002], [77.01333333333332, 28.400000000000002], [77.01416666666667, 28.400000000000002], [77.015, 28.400000000000002], [77.015, 28.399166666666666], [77.015, 28.398333333333333], [77.01416666666667, 28.398333333333333], [77.01416666666667, 28.3975], [77.015, 28.3975], [77.015, 28.39666666666667], [77.015, 28.395833333333336], [77.015, 28.395], [77.01416666666667, 28.395], [77.01416666666667, 28.395833333333336], [77.01333333333332, 28.395833333333336], [77.01333333333332, 28.395], [77.01249999999999, 28.395], [77.01249999999999, 28.395833333333336], [77.01249999999999, 28.39666666666667], [77.01249999999999, 28.3975], [77.01166666666666, 28.3975], [77.01166666666666, 28.398333333333333], [77.01166666666666, 28.399166666666666], [77.01166666666666, 28.400000000000002]], [[77.01333333333332, 28.3975], [77.01333333333332, 28.39666666666667], [77.01416666666667, 28.39666666666667], [77.01416666666667, 28.3975], [77.01333333333332, 28.3975]]]}}, {"type": "Feature", "properties": {"product": "bare_expansion", "area_ha": 7.54}, "geometry": {"type": "Polygon", "coordinates": [[[77.02499999999999, 28.408333333333335], [77.02499999999999, 28.409166666666668], [77.02583333333332, 28.409166666666668], [77.02583333333332, 28.408333333333335], [77.02583333333332, 28.407500000000002], [77.02666666666666, 28.407500000000002], [77.02666666666666, 28.406666666666666], [77.02583333333332, 28.406666666666666], [77.02499999999999, 28.406666666666666], [77.02499999999999, 28.405833333333334], [77.02499999999999, 28.405], [77.02416666666666, 28.405], [77.02333333333333, 28.405], [77.02333333333333, 28.405833333333334], [77.02333333333333, 28.406666666666666], [77.02416666666666, 28.406666666666666], [77.02416666666666, 28.407500000000002], [77.02416666666666, 28.408333333333335], [77.02499999999999, 28.408333333333335]]]}}, {"type": "Feature", "properties": {"product": "bare_expansion", "area_ha": 6.03}, "geometry": {"type": "Polygon", "coordinates": [[[77.04916666666666, 28.500833333333333], [77.04916666666666, 28.50166666666667], [77.05, 28.50166666666667], [77.05083333333333, 28.50166666666667], [77.05083333333333, 28.500833333333333], [77.05166666666666, 28.500833333333333], [77.05166666666666, 28.5], [77.05166666666666, 28.499166666666667], [77.05166666666666, 28.498333333333335], [77.05083333333333, 28.498333333333335], [77.05083333333333, 28.499166666666667], [77.05, 28.499166666666667], [77.05, 28.5], [77.04916666666666, 28.5], [77.04916666666666, 28.500833333333333]]]}}, {"type": "Feature", "properties": {"product": "bare_expansion", "area_ha": 8.31}, "geometry": {"type": "Polygon", "coordinates": [[[77.05749999999999, 28.198333333333334], [77.05749999999999, 28.199166666666667], [77.05749999999999, 28.2], [77.05749999999999, 28.200833333333335], [77.05833333333332, 28.200833333333335], [77.05833333333332, 28.2], [77.05916666666666, 28.2], [77.05916666666666, 28.199166666666667], [77.05916666666666, 28.198333333333334], [77.05833333333332, 28.198333333333334], [77.05833333333332, 28.1975], [77.05833333333332, 28.19666666666667], [77.05833333333332, 28.195833333333333], [77.05833333333332, 28.195], [77.05833333333332, 28.194166666666668], [77.05749999999999, 28.194166666666668], [77.05749999999999, 28.195], [77.05666666666666, 28.195], [77.05666666666666, 28.195833333333333], [77.05749999999999, 28.195833333333333], [77.05749999999999, 28.19666666666667], [77.05749999999999, 28.1975], [77.05749999999999, 28.198333333333334]]]}}, {"type": "Feature", "properties": {"product": "bare_expansion", "area_ha": 33.96}, "geometry": {"type": "Polygon", "coordinates": [[[77.06833333333333, 28.331666666666667], [77.06833333333333, 28.3325], [77.06916666666666, 28.3325], [77.06916666666666, 28.333333333333336], [77.07, 28.333333333333336], [77.07, 28.33416666666667], [77.07083333333333, 28.33416666666667], [77.07166666666666, 28.33416666666667], [77.07249999999999, 28.33416666666667], [77.07333333333332, 28.33416666666667], [77.07333333333332, 28.333333333333336], [77.07416666666666, 28.333333333333336], [77.07416666666666, 28.3325], [77.07499999999999, 28.3325], [77.07499999999999, 28.331666666666667], [77.07499999999999, 28.330833333333334], [77.07499999999999, 28.330000000000002], [77.07416666666666, 28.330000000000002], [77.07416666666666, 28.329166666666666], [77.07416666666666, 28.328333333333333], [77.07333333333332, 28.328333333333333], [77.07249999999999, 28.328333333333333], [77.07249999999999, 28.3275], [77.07166666666666, 28.3275], [77.07166666666666, 28.328333333333333], [77.07083333333333, 28.328333333333333], [77.07083333333333, 28.3275], [77.07, 28.3275], [77.06916666666666, 28.3275], [77.06916666666666, 28.328333333333333], [77.06916666666666, 28.329166666666666], [77.06833333333333, 28.329166666666666], [77.06833333333333, 28.330000000000002], [77.06833333333333, 28.330833333333334], [77.06833333333333, 28.331666666666667]], [[77.07166666666666, 28.331666666666667], [77.07083333333333, 28.331666666666667], [77.07083333333333, 28.330833333333334], [77.07083333333333, 28.330000000000002], [77.07083333333333, 28.329166666666666], [77.07166666666666, 28.329166666666666], [77.07249999999999, 28.329166666666666], [77.07249999999999, 28.330000000000002], [77.07249999999999, 28.330833333333334], [77.07166666666666, 28.330833333333334], [77.07166666666666, 28.331666666666667]]]}}, {"type": "Feature", "properties": {"product": "bare_expansion", "area_ha": 6.8}, "geometry": {"type": "Polygon", "coordinates": [[[77.08833333333332, 28.278333333333332], [77.08749999999999, 28.278333333333332], [77.08749999999999, 28.2775], [77.08666666666666, 28.2775], [77.08666666666666, 28.276666666666667], [77.08583333333333, 28.276666666666667], [77.085, 28.276666666666667], [77.085, 28.2775], [77.085, 28.278333333333332], [77.08583333333333, 28.278333333333332], [77.08583333333333, 28.27916666666667], [77.08666666666666, 28.27916666666667], [77.08666666666666, 28.28], [77.08749999999999, 28.28], [77.08749999999999, 28.27916666666667], [77.08833333333332, 28.27916666666667], [77.08833333333332, 28.278333333333332]]]}}, {"type": "Feature", "properties": {"product": "bare_expansion", "area_ha": 6.8}, "geometry": {"type": "Polygon", "coordinates": [[[77.07333333333332, 28.28], [77.07333333333332, 28.280833333333334], [77.07333333333332, 28.281666666666666], [77.07333333333332, 28.282500000000002], [77.07333333333332, 28.283333333333335], [77.07416666666666, 28.283333333333335], [77.07416666666666, 28.282500000000002], [77.07416666666666, 28.281666666666666], [77.07416666666666, 28.280833333333334], [77.07499999999999, 28.280833333333334], [77.07499999999999, 28.28], [77.07583333333332, 28.28], [77.07583333333332, 28.27916666666667], [77.07499999999999, 28.27916666666667], [77.07499999999999, 28.278333333333332], [77.07416666666666, 28.278333333333332], [77.07416666666666, 28.27916666666667], [77.07333333333332, 28.27916666666667], [77.07333333333332, 28.28]]]}}, {"type": "Feature", "properties": {"product": "bare_expansion", "area_ha": 6.79}, "geometry": {"type": "Polygon", "coordinates": [[[77.07499999999999, 28.330000000000002], [77.07583333333332, 28.330000000000002], [77.07583333333332, 28.329166666666666], [77.07666666666667, 28.329166666666666], [77.07666666666667, 28.328333333333333], [77.0775, 28.328333333333333], [77.0775, 28.3275], [77.07666666666667, 28.3275], [77.07583333333332, 28.3275], [77.07583333333332, 28.326666666666668], [77.07499999999999, 28.326666666666668], [77.07416666666666, 28.326666666666668], [77.07333333333332, 28.326666666666668], [77.07333333333332, 28.3275], [77.07416666666666, 28.3275], [77.07499999999999, 28.3275], [77.07499999999999, 28.328333333333333], [77.07499999999999, 28.329166666666666], [77.07499999999999, 28.330000000000002]]]}}, {"type": "Feature", "properties": {"product": "bare_expansion", "area_ha": 12.07}, "geometry": {"type": "Polygon", "coordinates": [[[77.0825, 28.398333333333333], [77.08333333333333, 28.398333333333333], [77.08416666666666, 28.398333333333333], [77.08416666666666, 28.399166666666666], [77.085, 28.399166666666666], [77.085, 28.398333333333333], [77.08583333333333, 28.398333333333333], [77.08583333333333, 28.3975], [77.08583333333333, 28.39666666666667], [77.085, 28.39666666666667], [77.085, 28.395833333333336], [77.08416666666666, 28.395833333333336], [77.08416666666666, 28.395], [77.08333333333333, 28.395], [77.0825, 28.395], [77.0825, 28.395833333333336], [77.0825, 28.39666666666667], [77.08166666666666, 28.39666666666667], [77.08166666666666, 28.3975], [77.08166666666666, 28.398333333333333], [77.0825, 28.398333333333333]]]}}, {"type": "Feature", "properties": {"product": "bare_expansion", "area_ha": 6.8}, "geometry": {"type": "Polygon", "coordinates": [[[77.10499999999999, 28.253333333333334], [77.10499999999999, 28.2525], [77.10499999999999, 28.25166666666667], [77.10499999999999, 28.250833333333333], [77.10416666666666, 28.250833333333333], [77.10333333333332, 28.250833333333333], [77.10249999999999, 28.250833333333333], [77.10249999999999, 28.25166666666667], [77.10249999999999, 28.2525], [77.10249999999999, 28.253333333333334], [77.10333333333332, 28.253333333333334], [77.10416666666666, 28.253333333333334], [77.10499999999999, 28.253333333333334]]]}}, {"type": "Feature", "properties": {"product": "bare_expansion", "area_ha": 6.03}, "geometry": {"type": "Polygon", "coordinates": [[[77.11416666666666, 28.41916666666667], [77.11416666666666, 28.42], [77.115, 28.42], [77.115, 28.41916666666667], [77.115, 28.418333333333333], [77.115, 28.4175], [77.11583333333333, 28.4175], [77.11666666666666, 28.4175], [77.11666666666666, 28.416666666666668], [77.11749999999999, 28.416666666666668], [77.11749999999999, 28.415833333333335], [77.11666666666666, 28.415833333333335], [77.11583333333333, 28.415833333333335], [77.11583333333333, 28.416666666666668], [77.115, 28.416666666666668], [77.11416666666666, 28.416666666666668], [77.11416666666666, 28.4175], [77.11416666666666, 28.418333333333333], [77.11416666666666, 28.41916666666667]]]}}, {"type": "Feature", "properties": {"product": "bare_expansion", "area_ha": 9.07}, "geometry": {"type": "Polygon", "coordinates": [[[77.22999999999999, 28.2], [77.23083333333332, 28.2], [77.23083333333332, 28.200833333333335], [77.23166666666665, 28.200833333333335], [77.23166666666665, 28.2], [77.23166666666665, 28.199166666666667], [77.23249999999999, 28.199166666666667], [77.23333333333333, 28.199166666666667], [77.23333333333333, 28.198333333333334], [77.23249999999999, 28.198333333333334], [77.23166666666665, 28.198333333333334], [77.23166666666665, 28.1975], [77.23166666666665, 28.19666666666667], [77.23083333333332, 28.19666666666667], [77.22999999999999, 28.19666666666667], [77.22916666666666, 28.19666666666667], [77.22916666666666, 28.1975], [77.22999999999999, 28.1975], [77.22999999999999, 28.198333333333334], [77.22999999999999, 28.199166666666667], [77.22999999999999, 28.2]]]}}, {"type": "Feature", "properties": {"product": "bare_expansion", "area_ha": 11.33}, "geometry": {"type": "Polygon", "coordinates": [[[77.2375, 28.253333333333334], [77.2375, 28.254166666666666], [77.23833333333333, 28.254166666666666], [77.23833333333333, 28.253333333333334], [77.23916666666666, 28.253333333333334], [77.24, 28.253333333333334], [77.24083333333333, 28.253333333333334], [77.24083333333333, 28.2525], [77.24, 28.2525], [77.24, 28.25166666666667], [77.24, 28.250833333333333], [77.24083333333333, 28.250833333333333], [77.24083333333333, 28.25], [77.24, 28.25], [77.24, 28.249166666666667], [77.23916666666666, 28.249166666666667], [77.23916666666666, 28.25], [77.23833333333333, 28.25], [77.23833333333333, 28.250833333333333], [77.2375, 28.250833333333333], [77.2375, 28.25166666666667], [77.2375, 28.2525], [77.2375, 28.253333333333334]]]}}], "properties": {"aoi": "ncr-gurugram", "product": "bare_expansion", "total_ha": 605.8, "n_patches": 52}}