{"type": "FeatureCollection", "features": [{"type": "Feature", "properties": {"product": "new_water", "area_ha": 83.66}, "geometry": {"type": "Polygon", "coordinates": [[[76.85666666666665, 28.469166666666666], [76.85583333333332, 28.469166666666666], [76.85583333333332, 28.470000000000002], [76.85583333333332, 28.470833333333335], [76.85583333333332, 28.471666666666668], [76.85499999999999, 28.471666666666668], [76.85416666666666, 28.471666666666668], [76.85416666666666, 28.4725], [76.85333333333332, 28.4725], [76.85249999999999, 28.4725], [76.85249999999999, 28.473333333333333], [76.85166666666666, 28.473333333333333], [76.85166666666666, 28.47416666666667], [76.85249999999999, 28.47416666666667], [76.85249999999999, 28.475], [76.85166666666666, 28.475], [76.85166666666666, 28.475833333333334], [76.85249999999999, 28.475833333333334], [76.85249999999999, 28.476666666666667], [76.85249999999999, 28.4775], [76.85333333333332, 28.4775], [76.85416666666666, 28.4775], [76.85416666666666, 28.476666666666667], [76.85499999999999, 28.476666666666667], [76.85499999999999, 28.4775], [76.85583333333332, 28.4775], [76.85583333333332, 28.476666666666667], [76.85666666666665, 28.476666666666667], [76.85749999999999, 28.476666666666667], [76.85749999999999, 28.475833333333334], [76.85833333333333, 28.475833333333334], [76.85916666666667, 28.475833333333334], [76.86, 28.475833333333334], [76.86, 28.475], [76.86083333333333, 28.475], [76.86166666666666, 28.475], [76.86166666666666, 28.47416666666667], [76.86166666666666, 28.473333333333333], [76.8625, 28.473333333333333], [76.8625, 28.4725], [76.86333333333333, 28.4725], [76.86333333333333, 28.471666666666668], [76.86333333333333, 28.470833333333335], [76.8625, 28.470833333333335], [76.8625, 28.470000000000002], [76.8625, 28.469166666666666], [76.86333333333333, 28.469166666666666], [76.86333333333333, 28.470000000000002], [76.86416666666666, 28.470000000000002], [76.86416666666666, 28.469166666666666], [76.86416666666666, 28.468333333333334], [76.86333333333333, 28.468333333333334], [76.8625, 28.468333333333334], [76.8625, 28.4675], [76.86166666666666, 28.4675], [76.86083333333333, 28.4675], [76.86, 28.4675], [76.86, 28.46666666666667], [76.85916666666667, 28.46666666666667], [76.85833333333333, 28.46666666666667], [76.85749999999999, 28.46666666666667], [76.85666666666665, 28.46666666666667], [76.85666666666665, 28.4675], [76.85666666666665, 28.468333333333334], [76.85666666666665, 28.469166666666666]]]}}, {"type": "Feature", "properties": {"product": "new_water", "area_ha": 127.35}, "geometry": {"type": "Polygon", "coordinates": [[[76.875, 28.489166666666666], [76.87416666666667, 28.489166666666666], [76.87333333333332, 28.489166666666666], [76.87333333333332, 28.490000000000002], [76.87249999999999, 28.490000000000002], [76.87166666666666, 28.490000000000002], [76.87166666666666, 28.490833333333335], [76.87083333333332, 28.490833333333335], [76.87083333333332, 28.491666666666667], [76.86999999999999, 28.491666666666667], [76.86999999999999, 28.4925], [76.87083333333332, 28.4925], [76.87083333333332, 28.493333333333332], [76.87083333333332, 28.49416666666667], [76.87166666666666, 28.49416666666667], [76.87166666666666, 28.495], [76.87083333333332, 28.495], [76.87083333333332, 28.495833333333334], [76.86999999999999, 28.495833333333334], [76.86999999999999, 28.496666666666666], [76.87083333333332, 28.496666666666666], [76.87166666666666, 28.496666666666666], [76.87166666666666, 28.497500000000002], [76.87249999999999, 28.497500000000002], [76.87333333333332, 28.497500000000002], [76.87416666666667, 28.497500000000002], [76.87416666666667, 28.498333333333335], [76.875, 28.498333333333335], [76.875, 28.499166666666667], [76.87583333333333, 28.499166666666667], [76.87666666666667, 28.499166666666667], [76.8775, 28.499166666666667], [76.8775, 28.5], [76.87833333333333, 28.5], [76.87833333333333, 28.499166666666667], [76.87833333333333, 28.498333333333335], [76.8775, 28.498333333333335], [76.8775, 28.497500000000002], [76.87833333333333, 28.497500000000002], [76.87916666666666, 28.497500000000002], [76.87916666666666, 28.496666666666666], [76.87916666666666, 28.495833333333334], [76.87916666666666, 28.495], [76.87916666666666, 28.49416666666667], [76.87833333333333, 28.49416666666667], [76.87833333333333, 28.493333333333332], [76.87833333333333, 28.4925], [76.87833333333333, 28.491666666666667], [76.87833333333333, 28.490833333333335], [76.87916666666666, 28.490833333333335], [76.88, 28.490833333333335], [76.88083333333333, 28.490833333333335], [76.88083333333333, 28.490000000000002], [76.88166666666666, 28.490000000000002], [76.88166666666666, 28.489166666666666], [76.88166666666666, 28.488333333333333], [76.88166666666666, 28.4875], [76.88166666666666, 28.486666666666668], [76.8825, 28.486666666666668], [76.8825, 28.485833333333336], [76.88333333333333, 28.485833333333336], [76.88333333333333, 28.485], [76.88416666666666, 28.485], [76.88416666666666, 28.485833333333336], [76.88499999999999, 28.485833333333336], [76.88583333333332, 28.485833333333336], [76.88583333333332, 28.485], [76.88583333333332, 28.484166666666667], [76.88666666666666, 28.484166666666667], [76.88666666666666, 28.483333333333334], [76.88583333333332, 28.483333333333334], [76.88499999999999, 28.483333333333334], [76.88499999999999, 28.484166666666667], [76.88416666666666, 28.484166666666667], [76.88333333333333, 28.484166666666667], [76.8825, 28.484166666666667], [76.8825, 28.483333333333334], [76.8825, 28.4825], [76.88333333333333, 28.4825], [76.88416666666666, 28.4825], [76.88416666666666, 28.48166666666667], [76.88416666666666, 28.480833333333333], [76.88333333333333, 28.480833333333333], [76.88333333333333, 28.48], [76.88416666666666, 28.48], [76.88416666666666, 28.479166666666668], [76.88333333333333, 28.479166666666668], [76.8825, 28.479166666666668], [76.8825, 28.478333333333335], [76.88166666666666, 28.478333333333335], [76.88166666666666, 28.479166666666668], [76.88083333333333, 28.479166666666668], [76.88083333333333, 28.48], [76.88, 28.48], [76.88, 28.480833333333333], [76.88, 28.48166666666667], [76.87916666666666, 28.48166666666667], [76.87916666666666, 28.4825], [76.87916666666666, 28.483333333333334], [76.87833333333333, 28.483333333333334], [76.87833333333333, 28.484166666666667], [76.8775, 28.484166666666667], [76.8775, 28.485], [76.87666666666667, 28.485], [76.87583333333333, 28.485], [76.87583333333333, 28.485833333333336], [76.875, 28.485833333333336], [76.875, 28.486666666666668], [76.875, 28.4875], [76.875, 28.488333333333333], [76.875, 28.489166666666666]], [[76.88166666666666, 28.484166666666667], [76.88166666666666, 28.485], [76.88083333333333, 28.485], [76.88083333333333, 28.484166666666667], [76.88166666666666, 28.484166666666667]], [[76.88083333333333, 28.485833333333336], [76.88083333333333, 28.486666666666668], [76.88083333333333, 28.4875], [76.88083333333333, 28.488333333333333], [76.88, 28.488333333333333], [76.87916666666666, 28.488333333333333], [76.87916666666666, 28.489166666666666], [76.87833333333333, 28.489166666666666], [76.8775, 28.489166666666666], [76.8775, 28.488333333333333], [76.8775, 28.4875], [76.87666666666667, 28.4875], [76.87666666666667, 28.486666666666668], [76.8775, 28.486666666666668], [76.8775, 28.485833333333336], [76.87833333333333, 28.485833333333336], [76.87916666666666, 28.485833333333336], [76.87916666666666, 28.485], [76.88, 28.485], [76.88083333333333, 28.485], [76.88083333333333, 28.485833333333336]], [[76.87583333333333, 28.493333333333332], [76.875, 28.493333333333332], [76.875, 28.4925], [76.87583333333333, 28.4925], [76.87583333333333, 28.493333333333332]], [[76.87333333333332, 28.490833333333335], [76.87416666666667, 28.490833333333335], [76.87416666666667, 28.490000000000002], [76.875, 28.490000000000002], [76.875, 28.490833333333335], [76.875, 28.491666666666667], [76.87416666666667, 28.491666666666667], [76.87333333333332, 28.491666666666667], [76.87333333333332, 28.490833333333335]]]}}, {"type": "Feature", "properties": {"product": "new_water", "area_ha": 6.8}, "geometry": {"type": "Polygon", "coordinates": [[[76.89833333333333, 28.27], [76.89833333333333, 28.270833333333336], [76.89916666666666, 28.270833333333336], [76.89916666666666, 28.27], [76.89916666666666, 28.269166666666667], [76.89999999999999, 28.269166666666667], [76.90083333333332, 28.269166666666667], [76.90083333333332, 28.268333333333334], [76.90083333333332, 28.267500000000002], [76.89999999999999, 28.267500000000002], [76.89916666666666, 28.267500000000002], [76.89833333333333, 28.267500000000002], [76.8975, 28.267500000000002], [76.8975, 28.268333333333334], [76.89833333333333, 28.268333333333334], [76.89833333333333, 28.269166666666667], [76.89833333333333, 28.27]]]}}, {"type": "Feature", "properties": {"product": "new_water", "area_ha": 6.03}, "geometry": {"type": "Polygon", "coordinates": [[[76.90333333333332, 28.511666666666667], [76.90249999999999, 28.511666666666667], [76.90249999999999, 28.5125], [76.90249999999999, 28.513333333333335], [76.90249999999999, 28.514166666666668], [76.90333333333332, 28.514166666666668], [76.90333333333332, 28.515], [76.90416666666665, 28.515], [76.90416666666665, 28.514166666666668], [76.90416666666665, 28.513333333333335], [76.905, 28.513333333333335], [76.905, 28.5125], [76.90416666666665, 28.5125], [76.90416666666665, 28.511666666666667], [76.90333333333332, 28.511666666666667]]]}}, {"type": "Feature", "properties": {"product": "new_water", "area_ha": 7.55}, "geometry": {"type": "Polygon", "coordinates": [[[76.92583333333333, 28.255], [76.925, 28.255], [76.92416666666666, 28.255], [76.92416666666666, 28.255833333333335], [76.92416666666666, 28.256666666666668], [76.92416666666666, 28.2575], [76.925, 28.2575], [76.925, 28.256666666666668], [76.925, 28.255833333333335], [76.92583333333333, 28.255833333333335], [76.92666666666666, 28.255833333333335], [76.9275, 28.255833333333335], [76.9275, 28.255], [76.9275, 28.254166666666666], [76.92666666666666, 28.254166666666666], [76.92666666666666, 28.253333333333334], [76.92583333333333, 28.253333333333334], [76.925, 28.253333333333334], [76.925, 28.254166666666666], [76.92583333333333, 28.254166666666666], [76.92583333333333, 28.255]]]}}, {"type": "Feature", "properties": {"product": "new_water", "area_ha": 30.9}, "geometry": {"type": "Polygon", "coordinates": [[[76.91999999999999, 28.491666666666667], [76.91999999999999, 28.4925], [76.92083333333333, 28.4925], [76.92083333333333, 28.493333333333332], [76.92083333333333, 28.49416666666667], [76.92166666666667, 28.49416666666667], [76.9225, 28.49416666666667], [76.92333333333333, 28.49416666666667], [76.92333333333333, 28.495], [76.92333333333333, 28.495833333333334], [76.92333333333333, 28.496666666666666], [76.92333333333333, 28.497500000000002], [76.92416666666666, 28.497500000000002], [76.92416666666666, 28.498333333333335], [76.925, 28.498333333333335], [76.925, 28.497500000000002], [76.925, 28.496666666666666], [76.92416666666666, 28.496666666666666], [76.92416666666666, 28.495833333333334], [76.92416666666666, 28.495], [76.925, 28.495], [76.92583333333333, 28.495], [76.92583333333333, 28.49416666666667], [76.92666666666666, 28.49416666666667], [76.92666666666666, 28.493333333333332], [76.92666666666666, 28.4925], [76.92666666666666, 28.491666666666667], [76.92583333333333, 28.491666666666667], [76.925, 28.491666666666667], [76.92416666666666, 28.491666666666667], [76.92333333333333, 28.491666666666667], [76.9225, 28.491666666666667], [76.9225, 28.490833333333335], [76.92166666666667, 28.490833333333335], [76.92166666666667, 28.490000000000002], [76.9225, 28.490000000000002], [76.92333333333333, 28.490000000000002], [76.92333333333333, 28.489166666666666], [76.92333333333333, 28.488333333333333], [76.9225, 28.488333333333333], [76.9225, 28.4875], [76.92166666666667, 28.4875], [76.92083333333333, 28.4875], [76.92083333333333, 28.488333333333333], [76.92083333333333, 28.489166666666666], [76.91999999999999, 28.489166666666666], [76.91999999999999, 28.490000000000002], [76.91999999999999, 28.490833333333335], [76.91999999999999, 28.491666666666667]], [[76.92416666666666, 28.493333333333332], [76.92333333333333, 28.493333333333332], [76.92333333333333, 28.4925], [76.92416666666666, 28.4925], [76.925, 28.4925], [76.925, 28.493333333333332], [76.925, 28.49416666666667], [76.92416666666666, 28.49416666666667], [76.92416666666666, 28.493333333333332]]]}}, {"type": "Feature", "properties": {"product": "new_water", "area_ha": 37.67}, "geometry": {"type": "Polygon", "coordinates": [[[76.91999999999999, 28.510833333333334], [76.91999999999999, 28.511666666666667], [76.91916666666665, 28.511666666666667], [76.91916666666665, 28.5125], [76.91833333333332, 28.5125], [76.91749999999999, 28.5125], [76.91749999999999, 28.513333333333335], [76.91833333333332, 28.513333333333335], [76.91916666666665, 28.513333333333335], [76.91999999999999, 28.513333333333335], [76.91999999999999, 28.514166666666668], [76.91916666666665, 28.514166666666668], [76.91916666666665, 28.515], [76.91916666666665, 28.515833333333333], [76.91999999999999, 28.515833333333333], [76.91999999999999, 28.516666666666666], [76.92083333333333, 28.516666666666666], [76.92083333333333, 28.515833333333333], [76.92166666666667, 28.515833333333333], [76.9225, 28.515833333333333], [76.92333333333333, 28.515833333333333], [76.92333333333333, 28.515], [76.92416666666666, 28.515], [76.92416666666666, 28.514166666666668], [76.92416666666666, 28.513333333333335], [76.925, 28.513333333333335], [76.925, 28.5125], [76.925, 28.511666666666667], [76.925, 28.510833333333334], [76.925, 28.51], [76.925, 28.50916666666667], [76.925, 28.508333333333333], [76.92416666666666, 28.508333333333333], [76.92416666666666, 28.5075], [76.92333333333333, 28.5075], [76.9225, 28.5075], [76.9225, 28.506666666666668], [76.9225, 28.505833333333335], [76.9225, 28.505], [76.92166666666667, 28.505], [76.92166666666667, 28.505833333333335], [76.92166666666667, 28.506666666666668], [76.92166666666667, 28.5075], [76.92166666666667, 28.508333333333333], [76.92166666666667, 28.50916666666667], [76.92083333333333, 28.50916666666667], [76.92083333333333, 28.51], [76.92083333333333, 28.510833333333334], [76.91999999999999, 28.510833333333334]], [[76.92416666666666, 28.50916666666667], [76.92416666666666, 28.51], [76.92416666666666, 28.510833333333334], [76.92416666666666, 28.511666666666667], [76.92416666666666, 28.5125], [76.92333333333333, 28.5125], [76.9225, 28.5125], [76.9225, 28.511666666666667], [76.9225, 28.510833333333334], [76.92333333333333, 28.510833333333334], [76.92333333333333, 28.51], [76.9225, 28.51], [76.9225, 28.50916666666667], [76.9225, 28.508333333333333], [76.92333333333333, 28.508333333333333], [76.92416666666666, 28.508333333333333], [76.92416666666666, 28.50916666666667]]]}}, {"type": "Feature", "properties": {"product": "new_water", "area_ha": 9.06}, "geometry": {"type": "Polygon", "coordinates": [[[76.9275, 28.250833333333333], [76.92833333333333, 28.250833333333333], [76.92833333333333, 28.25], [76.92916666666666, 28.25], [76.92916666666666, 28.250833333333333], [76.92999999999999, 28.250833333333333], [76.93083333333333, 28.250833333333333], [76.93166666666666, 28.250833333333333], [76.93249999999999, 28.250833333333333], [76.93249999999999, 28.25], [76.93249999999999, 28.249166666666667], [76.93166666666666, 28.249166666666667], [76.93166666666666, 28.248333333333335], [76.93083333333333, 28.248333333333335], [76.93083333333333, 28.249166666666667], [76.92999999999999, 28.249166666666667], [76.92916666666666, 28.249166666666667], [76.92833333333333, 28.249166666666667], [76.9275, 28.249166666666667], [76.9275, 28.25], [76.9275, 28.250833333333333]]]}}, {"type": "Feature", "properties": {"product": "new_water", "area_ha": 22.61}, "geometry": {"type": "Polygon", "coordinates": [[[76.93499999999999, 28.48166666666667], [76.93416666666666, 28.48166666666667], [76.93333333333332, 28.48166666666667], [76.93333333333332, 28.4825], [76.93416666666666, 28.4825], [76.93416666666666, 28.483333333333334], [76.93333333333332, 28.483333333333334], [76.93333333333332, 28.484166666666667], [76.93416666666666, 28.484166666666667], [76.93499999999999, 28.484166666666667], [76.93583333333332, 28.484166666666667], [76.93583333333332, 28.483333333333334], [76.93499999999999, 28.483333333333334], [76.93499999999999, 28.4825], [76.93583333333332, 28.4825], [76.93666666666667, 28.4825], [76.93666666666667, 28.483333333333334], [76.93666666666667, 28.484166666666667], [76.9375, 28.484166666666667], [76.93833333333333, 28.484166666666667], [76.93916666666667, 28.484166666666667], [76.94, 28.484166666666667], [76.94, 28.483333333333334], [76.94, 28.4825], [76.94, 28.48166666666667], [76.93916666666667, 28.48166666666667], [76.93833333333333, 28.48166666666667], [76.93833333333333, 28.480833333333333], [76.93833333333333, 28.48], [76.93833333333333, 28.479166666666668], [76.9375, 28.479166666666668], [76.93666666666667, 28.479166666666668], [76.93583333333332, 28.479166666666668], [76.93583333333332, 28.48], [76.93583333333332, 28.480833333333333], [76.93499999999999, 28.480833333333333], [76.93499999999999, 28.48166666666667]]]}}, {"type": "Feature", "properties": {"product": "new_water", "area_ha": 26.38}, "geometry": {"type": "Polygon", "coordinates": [[[76.93166666666666, 28.485], [76.93083333333333, 28.485], [76.93083333333333, 28.485833333333336], [76.93083333333333, 28.486666666666668], [76.93166666666666, 28.486666666666668], [76.93166666666666, 28.4875], [76.93166666666666, 28.488333333333333], [76.93249999999999, 28.488333333333333], [76.93249999999999, 28.489166666666666], [76.93333333333332, 28.489166666666666], [76.93333333333332, 28.490000000000002], [76.93333333333332, 28.490833333333335], [76.93416666666666, 28.490833333333335], [76.93499999999999, 28.490833333333335], [76.93499999999999, 28.490000000000002], [76.93583333333332, 28.490000000000002], [76.93583333333332, 28.489166666666666], [76.93666666666667, 28.489166666666666], [76.9375, 28.489166666666666], [76.93833333333333, 28.489166666666666], [76.93833333333333, 28.488333333333333], [76.93833333333333, 28.4875], [76.9375, 28.4875], [76.93666666666667, 28.4875], [76.93666666666667, 28.488333333333333], [76.93583333333332, 28.488333333333333], [76.93583333333332, 28.4875], [76.93583333333332, 28.486666666666668], [76.93583333333332, 28.485833333333336], [76.93583333333332, 28.485], [76.93499999999999, 28.485], [76.93416666666666, 28.485], [76.93416666666666, 28.485833333333336], [76.93333333333332, 28.485833333333336], [76.93333333333332, 28.485], [76.93249999999999, 28.485], [76.93166666666666, 28.485]]]}}, {"type": "Feature", "properties": {"product": "new_water", "area_ha": 11.3}, "geometry": {"type": "Polygon", "coordinates": [[[76.93499999999999, 28.495833333333334], [76.93416666666666, 28.495833333333334], [76.93416666666666, 28.496666666666666], [76.93416666666666, 28.497500000000002], [76.93499999999999, 28.497500000000002], [76.93583333333332, 28.497500000000002], [76.93583333333332, 28.498333333333335], [76.93666666666667, 28.498333333333335], [76.93666666666667, 28.497500000000002], [76.93666666666667, 28.496666666666666], [76.93666666666667, 28.495833333333334], [76.9375, 28.495833333333334], [76.93833333333333, 28.495833333333334], [76.93833333333333, 28.495], [76.93833333333333, 28.49416666666667], [76.9375, 28.49416666666667], [76.9375, 28.493333333333332], [76.93666666666667, 28.493333333333332], [76.93666666666667, 28.49416666666667], [76.93583333333332, 28.49416666666667], [76.93583333333332, 28.495], [76.93499999999999, 28.495], [76.93499999999999, 28.495833333333334]]]}}, {"type": "Feature", "properties": {"product": "new_water", "area_ha": 18.84}, "geometry": {"type": "Polygon", "coordinates": [[[76.95333333333333, 28.5], [76.9525, 28.5], [76.95166666666667, 28.5], [76.95166666666667, 28.500833333333333], [76.9525, 28.500833333333333], [76.95333333333333, 28.500833333333333], [76.95416666666667, 28.500833333333333], [76.95416666666667, 28.50166666666667], [76.955, 28.50166666666667], [76.955, 28.500833333333333], [76.95583333333333, 28.500833333333333], [76.95666666666666, 28.500833333333333], [76.95666666666666, 28.50166666666667], [76.95666666666666, 28.5025], [76.9575, 28.5025], [76.95833333333333, 28.5025], [76.95833333333333, 28.503333333333334], [76.95916666666666, 28.503333333333334], [76.95916666666666, 28.5025], [76.96, 28.5025], [76.96, 28.50166666666667], [76.95916666666666, 28.50166666666667], [76.95916666666666, 28.500833333333333], [76.95833333333333, 28.500833333333333], [76.95833333333333, 28.5], [76.9575, 28.5], [76.95666666666666, 28.5], [76.95666666666666, 28.499166666666667], [76.95583333333333, 28.499166666666667], [76.955, 28.499166666666667], [76.955, 28.498333333333335], [76.955, 28.497500000000002], [76.955, 28.496666666666666], [76.955, 28.495833333333334], [76.95416666666667, 28.495833333333334], [76.95416666666667, 28.496666666666666], [76.95416666666667, 28.497500000000002], [76.95416666666667, 28.498333333333335], [76.95416666666667, 28.499166666666667], [76.95333333333333, 28.499166666666667], [76.95333333333333, 28.5]]]}}, {"type": "Feature", "properties": {"product": "new_water", "area_ha": 43.7}, "geometry": {"type": "Polygon", "coordinates": [[[76.96166666666666, 28.5075], [76.96083333333333, 28.5075], [76.96083333333333, 28.506666666666668], [76.96, 28.506666666666668], [76.96, 28.5075], [76.95916666666666, 28.5075], [76.95916666666666, 28.506666666666668], [76.95833333333333, 28.506666666666668], [76.9575, 28.506666666666668], [76.9575, 28.5075], [76.9575, 28.508333333333333], [76.95833333333333, 28.508333333333333], [76.95916666666666, 28.508333333333333], [76.95916666666666, 28.50916666666667], [76.96, 28.50916666666667], [76.96083333333333, 28.50916666666667], [76.96166666666666, 28.50916666666667], [76.96166666666666, 28.51], [76.96249999999999, 28.51], [76.96249999999999, 28.510833333333334], [76.96333333333332, 28.510833333333334], [76.96416666666666, 28.510833333333334], [76.96499999999999, 28.510833333333334], [76.96499999999999, 28.511666666666667], [76.96583333333332, 28.511666666666667], [76.96583333333332, 28.510833333333334], [76.96583333333332, 28.51], [76.96666666666665, 28.51], [76.96666666666665, 28.50916666666667], [76.96583333333332, 28.50916666666667], [76.96499999999999, 28.50916666666667], [76.96499999999999, 28.508333333333333], [76.96499999999999, 28.5075], [76.96499999999999, 28.506666666666668], [76.96583333333332, 28.506666666666668], [76.96666666666665, 28.506666666666668], [76.9675, 28.506666666666668], [76.9675, 28.505833333333335], [76.96666666666665, 28.505833333333335], [76.96666666666665, 28.505], [76.96666666666665, 28.504166666666666], [76.96666666666665, 28.503333333333334], [76.96583333333332, 28.503333333333334], [76.96583333333332, 28.504166666666666], [76.96499999999999, 28.504166666666666], [76.96499999999999, 28.503333333333334], [76.96416666666666, 28.503333333333334], [76.96416666666666, 28.5025], [76.96333333333332, 28.5025], [76.96333333333332, 28.503333333333334], [76.96249999999999, 28.503333333333334], [76.96249999999999, 28.504166666666666], [76.96166666666666, 28.504166666666666], [76.96166666666666, 28.505], [76.96166666666666, 28.505833333333335], [76.96166666666666, 28.506666666666668], [76.96166666666666, 28.5075]]]}}, {"type": "Feature", "properties": {"product": "new_water", "area_ha": 7.54}, "geometry": {"type": "Polygon", "coordinates": [[[76.96499999999999, 28.490833333333335], [76.96499999999999, 28.491666666666667], [76.96499999999999, 28.4925], [76.96583333333332, 28.4925], [76.96666666666665, 28.4925], [76.9675, 28.4925], [76.9675, 28.491666666666667], [76.96833333333333, 28.491666666666667], [76.96833333333333, 28.490833333333335], [76.9675, 28.490833333333335], [76.9675, 28.490000000000002], [76.96666666666665, 28.490000000000002], [76.96583333333332, 28.490000000000002], [76.96499999999999, 28.490000000000002], [76.96499999999999, 28.490833333333335]]]}}, {"type": "Feature", "properties": {"product": "new_water", "area_ha": 18.14}, "geometry": {"type": "Polygon", "coordinates": [[[77.06083333333332, 28.19], [77.06083333333332, 28.190833333333334], [77.06083333333332, 28.191666666666666], [77.06083333333332, 28.1925], [77.06166666666667, 28.1925], [77.0625, 28.1925], [77.0625, 28.193333333333335], [77.06333333333333, 28.193333333333335], [77.06416666666667, 28.193333333333335], [77.06416666666667, 28.1925], [77.06416666666667, 28.191666666666666], [77.065, 28.191666666666666], [77.06583333333333, 28.191666666666666], [77.06583333333333, 28.190833333333334], [77.06666666666666, 28.190833333333334], [77.06666666666666, 28.19], [77.06666666666666, 28.18916666666667], [77.06583333333333, 28.18916666666667], [77.065, 28.18916666666667], [77.065, 28.19], [77.06416666666667, 28.19], [77.06416666666667, 28.18916666666667], [77.06333333333333, 28.18916666666667], [77.06333333333333, 28.19], [77.0625, 28.19], [77.0625, 28.18916666666667], [77.06166666666667, 28.18916666666667], [77.06083333333332, 28.18916666666667], [77.06083333333332, 28.19]]]}}, {"type": "Feature", "properties": {"product": "new_water", "area_ha": 6.05}, "geometry": {"type": "Polygon", "coordinates": [[[77.11666666666666, 28.15416666666667], [77.11749999999999, 28.15416666666667], [77.11749999999999, 28.153333333333332], [77.11749999999999, 28.1525], [77.11666666666666, 28.1525], [77.11583333333333, 28.1525], [77.115, 28.1525], [77.11416666666666, 28.1525], [77.11416666666666, 28.153333333333332], [77.11416666666666, 28.15416666666667], [77.115, 28.15416666666667], [77.11583333333333, 28.15416666666667], [77.11666666666666, 28.15416666666667]]]}}, {"type": "Feature", "properties": {"product": "new_water", "area_ha": 21.15}, "geometry": {"type": "Polygon", "coordinates": [[[77.14999999999999, 28.228333333333335], [77.14916666666666, 28.228333333333335], [77.14916666666666, 28.229166666666668], [77.14916666666666, 28.23], [77.14999999999999, 28.23], [77.15083333333332, 28.23], [77.15166666666666, 28.23], [77.15249999999999, 28.23], [77.15249999999999, 28.230833333333333], [77.15249999999999, 28.23166666666667], [77.15249999999999, 28.2325], [77.15333333333332, 28.2325], [77.15333333333332, 28.233333333333334], [77.15416666666665, 28.233333333333334], [77.15416666666665, 28.234166666666667], [77.155, 28.234166666666667], [77.155, 28.233333333333334], [77.155, 28.2325], [77.15416666666665, 28.2325], [77.15416666666665, 28.23166666666667], [77.155, 28.23166666666667], [77.155, 28.230833333333333], [77.15583333333333, 28.230833333333333], [77.15666666666667, 28.230833333333333], [77.1575, 28.230833333333333], [77.1575, 28.23], [77.1575, 28.229166666666668], [77.15666666666667, 28.229166666666668], [77.15583333333333, 28.229166666666668], [77.155, 28.229166666666668], [77.155, 28.23], [77.15416666666665, 28.23], [77.15416666666665, 28.229166666666668], [77.15333333333332, 28.229166666666668], [77.15333333333332, 28.228333333333335], [77.15249999999999, 28.228333333333335], [77.15166666666666, 28.228333333333335], [77.15083333333332, 28.228333333333335], [77.14999999999999, 28.228333333333335]]]}}, {"type": "Feature", "properties": {"product": "new_water", "area_ha": 15.07}, "geometry": {"type": "Polygon", "coordinates": [[[77.09333333333333, 28.503333333333334], [77.09333333333333, 28.5025], [77.09416666666667, 28.5025], [77.09416666666667, 28.503333333333334], [77.09416666666667, 28.504166666666666], [77.09416666666667, 28.505], [77.095, 28.505], [77.095, 28.504166666666666], [77.095, 28.503333333333334], [77.09583333333333, 28.503333333333334], [77.09666666666666, 28.503333333333334], [77.09666666666666, 28.504166666666666], [77.09666666666666, 28.505], [77.0975, 28.505], [77.0975, 28.504166666666666], [77.0975, 28.503333333333334], [77.0975, 28.5025], [77.09666666666666, 28.5025], [77.09583333333333, 28.5025], [77.09583333333333, 28.50166666666667], [77.095, 28.50166666666667], [77.095, 28.500833333333333], [77.09416666666667, 28.500833333333333], [77.09416666666667, 28.50166666666667], [77.09333333333333, 28.50166666666667], [77.0925, 28.50166666666667], [77.0925, 28.500833333333333], [77.09166666666665, 28.500833333333333], [77.09166666666665, 28.5], [77.09083333333332, 28.5], [77.09083333333332, 28.499166666666667], [77.08999999999999, 28.499166666666667], [77.08999999999999, 28.5], [77.08999999999999, 28.500833333333333], [77.09083333333332, 28.500833333333333], [77.09083333333332, 28.50166666666667], [77.09166666666665, 28.50166666666667], [77.09166666666665, 28.5025], [77.0925, 28.5025], [77.0925, 28.503333333333334], [77.09333333333333, 28.503333333333334]]]}}, {"type": "Feature", "properties": {"product": "new_water", "area_ha": 33.25}, "geometry": {"type": "Polygon", "coordinates": [[[77.15916666666666, 28.171666666666667], [77.15833333333333, 28.171666666666667], [77.1575, 28.171666666666667], [77.15666666666667, 28.171666666666667], [77.15583333333333, 28.171666666666667], [77.15583333333333, 28.1725], [77.155, 28.1725], [77.15416666666665, 28.1725], [77.15333333333332, 28.1725], [77.15333333333332, 28.173333333333336], [77.15416666666665, 28.173333333333336], [77.155, 28.173333333333336], [77.155, 28.174166666666668], [77.15416666666665, 28.174166666666668], [77.15416666666665, 28.175], [77.155, 28.175], [77.15583333333333, 28.175], [77.15666666666667, 28.175], [77.15666666666667, 28.175833333333333], [77.1575, 28.175833333333333], [77.15833333333333, 28.175833333333333], [77.15916666666666, 28.175833333333333], [77.16, 28.175833333333333], [77.16083333333333, 28.175833333333333], [77.16083333333333, 28.175], [77.16166666666666, 28.175], [77.1625, 28.175], [77.1625, 28.174166666666668], [77.1625, 28.173333333333336], [77.16333333333333, 28.173333333333336], [77.16416666666666, 28.173333333333336], [77.16416666666666, 28.1725], [77.16416666666666, 28.171666666666667], [77.16499999999999, 28.171666666666667], [77.16499999999999, 28.170833333333334], [77.16416666666666, 28.170833333333334], [77.16333333333333, 28.170833333333334], [77.16333333333333, 28.171666666666667], [77.16333333333333, 28.1725], [77.1625, 28.1725], [77.16166666666666, 28.1725], [77.16083333333333, 28.1725], [77.16, 28.1725], [77.15916666666666, 28.1725], [77.15916666666666, 28.171666666666667]]]}}, {"type": "Feature", "properties": {"product": "new_water", "area_ha": 6.8}, "geometry": {"type": "Polygon", "coordinates": [[[77.16333333333333, 28.26], [77.1625, 28.26], [77.1625, 28.260833333333334], [77.16333333333333, 28.260833333333334], [77.16416666666666, 28.260833333333334], [77.16499999999999, 28.260833333333334], [77.16499999999999, 28.26], [77.16499999999999, 28.25916666666667], [77.16499999999999, 28.258333333333333], [77.16499999999999, 28.2575], [77.16416666666666, 28.2575], [77.16416666666666, 28.258333333333333], [77.16333333333333, 28.258333333333333], [77.1625, 28.258333333333333], [77.1625, 28.25916666666667], [77.16333333333333, 28.25916666666667], [77.16333333333333, 28.26]]]}}, {"type": "Feature", "properties": {"product": "new_water", "area_ha": 37.8}, "geometry": {"type": "Polygon", "coordinates": [[[77.19416666666666, 28.1525], [77.19416666666666, 28.153333333333332], [77.19416666666666, 28.15416666666667], [77.19333333333333, 28.15416666666667], [77.19333333333333, 28.155], [77.19333333333333, 28.155833333333334], [77.19333333333333, 28.156666666666666], [77.19333333333333, 28.157500000000002], [77.19416666666666, 28.157500000000002], [77.19416666666666, 28.158333333333335], [77.195, 28.158333333333335], [77.195, 28.159166666666668], [77.19583333333333, 28.159166666666668], [77.19583333333333, 28.16], [77.19666666666666, 28.16], [77.19666666666666, 28.159166666666668], [77.19666666666666, 28.158333333333335], [77.19749999999999, 28.158333333333335], [77.19749999999999, 28.157500000000002], [77.19749999999999, 28.156666666666666], [77.19749999999999, 28.155833333333334], [77.19833333333332, 28.155833333333334], [77.19916666666666, 28.155833333333334], [77.19916666666666, 28.155], [77.19833333333332, 28.155], [77.19833333333332, 28.15416666666667], [77.19916666666666, 28.15416666666667], [77.19916666666666, 28.153333333333332], [77.19916666666666, 28.1525], [77.19833333333332, 28.1525], [77.19749999999999, 28.1525], [77.19749999999999, 28.151666666666667], [77.19666666666666, 28.151666666666667], [77.19583333333333, 28.151666666666667], [77.19583333333333, 28.150833333333335], [77.19583333333333, 28.150000000000002], [77.195, 28.150000000000002], [77.195, 28.150833333333335], [77.19416666666666, 28.150833333333335], [77.19333333333333, 28.150833333333335], [77.19333333333333, 28.151666666666667], [77.19333333333333, 28.1525], [77.19416666666666, 28.1525]], [[77.19666666666666, 28.153333333333332], [77.19749999999999, 28.153333333333332], [77.19749999999999, 28.15416666666667], [77.19666666666666, 28.15416666666667], [77.19666666666666, 28.153333333333332]]]}}, {"type": "Feature", "properties": {"product": "new_water", "area_ha": 9.82}, "geometry": {"type": "Polygon", "coordinates": [[[77.18249999999999, 28.2625], [77.18333333333332, 28.2625], [77.18416666666666, 28.2625], [77.18416666666666, 28.261666666666667], [77.18499999999999, 28.261666666666667], [77.18499999999999, 28.260833333333334], [77.18499999999999, 28.26], [77.18416666666666, 28.26], [77.18416666666666, 28.25916666666667], [77.18333333333332, 28.25916666666667], [77.18333333333332, 28.26], [77.18249999999999, 28.26], [77.18166666666666, 28.26], [77.18166666666666, 28.260833333333334], [77.18166666666666, 28.261666666666667], [77.18166666666666, 28.2625], [77.18166666666666, 28.263333333333335], [77.18249999999999, 28.263333333333335], [77.18249999999999, 28.2625]]]}}, {"type": "Feature", "properties": {"product": "new_water", "area_ha": 61.98}, "geometry": {"type": "Polygon", "coordinates": [[[77.21083333333333, 28.156666666666666], [77.21083333333333, 28.157500000000002], [77.21083333333333, 28.158333333333335], [77.21, 28.158333333333335], [77.20916666666666, 28.158333333333335], [77.20916666666666, 28.159166666666668], [77.20833333333333, 28.159166666666668], [77.20833333333333, 28.158333333333335], [77.20833333333333, 28.157500000000002], [77.20833333333333, 28.156666666666666], [77.2075, 28.156666666666666], [77.2075, 28.155833333333334], [77.20666666666666, 28.155833333333334], [77.20583333333333, 28.155833333333334], [77.20583333333333, 28.156666666666666], [77.20583333333333, 28.157500000000002], [77.20583333333333, 28.158333333333335], [77.20583333333333, 28.159166666666668], [77.20583333333333, 28.16], [77.20666666666666, 28.16], [77.2075, 28.16], [77.2075, 28.160833333333333], [77.20833333333333, 28.160833333333333], [77.20833333333333, 28.16166666666667], [77.20916666666666, 28.16166666666667], [77.20916666666666, 28.1625], [77.21, 28.1625], [77.21083333333333, 28.1625], [77.21166666666666, 28.1625], [77.21166666666666, 28.163333333333334], [77.21249999999999, 28.163333333333334], [77.21333333333332, 28.163333333333334], [77.21333333333332, 28.1625], [77.21416666666666, 28.1625], [77.21499999999999, 28.1625], [77.21499999999999, 28.16166666666667], [77.21499999999999, 28.160833333333333], [77.21499999999999, 28.16], [77.21499999999999, 28.159166666666668], [77.21499999999999, 28.158333333333335], [77.21499999999999, 28.157500000000002], [77.21499999999999, 28.156666666666666], [77.21499999999999, 28.155833333333334], [77.21583333333332, 28.155833333333334], [77.21583333333332, 28.155], [77.21583333333332, 28.15416666666667], [77.21583333333332, 28.153333333333332], [77.21583333333332, 28.1525], [77.21583333333332, 28.151666666666667], [77.21499999999999, 28.151666666666667], [77.21499999999999, 28.1525], [77.21499999999999, 28.153333333333332], [77.21416666666666, 28.153333333333332], [77.21333333333332, 28.153333333333332], [77.21333333333332, 28.15416666666667], [77.21333333333332, 28.155], [77.21249999999999, 28.155], [77.21166666666666, 28.155], [77.21166666666666, 28.155833333333334], [77.21166666666666, 28.156666666666666], [77.21083333333333, 28.156666666666666]]]}}, {"type": "Feature", "properties": {"product": "new_water", "area_ha": 8.31}, "geometry": {"type": "Polygon", "coordinates": [[[77.2025, 28.157500000000002], [77.2025, 28.158333333333335], [77.20333333333333, 28.158333333333335], [77.20416666666667, 28.158333333333335], [77.20416666666667, 28.157500000000002], [77.205, 28.157500000000002], [77.205, 28.156666666666666], [77.20416666666667, 28.156666666666666], [77.20416666666667, 28.155833333333334], [77.20333333333333, 28.155833333333334], [77.20333333333333, 28.155], [77.20333333333333, 28.15416666666667], [77.2025, 28.15416666666667], [77.2025, 28.155], [77.2025, 28.155833333333334], [77.20166666666667, 28.155833333333334], [77.20166666666667, 28.156666666666666], [77.20166666666667, 28.157500000000002], [77.2025, 28.157500000000002]]]}}, {"type": "Feature", "properties": {"product": "new_water", "area_ha": 35.49}, "geometry": {"type": "Polygon", "coordinates": [[[77.21666666666665, 28.267500000000002], [77.21666666666665, 28.268333333333334], [77.2175, 28.268333333333334], [77.2175, 28.267500000000002], [77.21833333333333, 28.267500000000002], [77.21916666666667, 28.267500000000002], [77.22, 28.267500000000002], [77.22083333333333, 28.267500000000002], [77.22083333333333, 28.268333333333334], [77.22166666666666, 28.268333333333334], [77.22166666666666, 28.269166666666667], [77.2225, 28.269166666666667], [77.22333333333333, 28.269166666666667], [77.22333333333333, 28.268333333333334], [77.22333333333333, 28.267500000000002], [77.22416666666666, 28.267500000000002], [77.22416666666666, 28.266666666666666], [77.22333333333333, 28.266666666666666], [77.22333333333333, 28.265833333333333], [77.2225, 28.265833333333333], [77.22166666666666, 28.265833333333333], [77.22166666666666, 28.265], [77.22166666666666, 28.264166666666668], [77.22083333333333, 28.264166666666668], [77.22083333333333, 28.263333333333335], [77.22, 28.263333333333335], [77.21916666666667, 28.263333333333335], [77.21833333333333, 28.263333333333335], [77.21833333333333, 28.2625], [77.2175, 28.2625], [77.21666666666665, 28.2625], [77.21583333333332, 28.2625], [77.21583333333332, 28.263333333333335], [77.21583333333332, 28.264166666666668], [77.21583333333332, 28.265], [77.21499999999999, 28.265], [77.21499999999999, 28.265833333333333], [77.21499999999999, 28.266666666666666], [77.21583333333332, 28.266666666666666], [77.21583333333332, 28.267500000000002], [77.21666666666665, 28.267500000000002]], [[77.22166666666666, 28.267500000000002], [77.22166666666666, 28.266666666666666], [77.2225, 28.266666666666666], [77.2225, 28.267500000000002], [77.2225, 28.268333333333334], [77.22166666666666, 28.268333333333334], [77.22166666666666, 28.267500000000002]], [[77.22083333333333, 28.266666666666666], [77.22, 28.266666666666666], [77.22, 28.265833333333333], [77.22083333333333, 28.265833333333333], [77.22083333333333, 28.266666666666666]]]}}, {"type": "Feature", "properties": {"product": "new_water", "area_ha": 13.59}, "geometry": {"type": "Polygon", "coordinates": [[[77.20166666666667, 28.2725], [77.2025, 28.2725], [77.20333333333333, 28.2725], [77.20333333333333, 28.27166666666667], [77.20416666666667, 28.27166666666667], [77.205, 28.27166666666667], [77.20583333333333, 28.27166666666667], [77.20583333333333, 28.2725], [77.20666666666666, 28.2725], [77.20666666666666, 28.27166666666667], [77.2075, 28.27166666666667], [77.2075, 28.270833333333336], [77.2075, 28.27], [77.2075, 28.269166666666667], [77.20666666666666, 28.269166666666667], [77.20583333333333, 28.269166666666667], [77.205, 28.269166666666667], [77.205, 28.27], [77.20416666666667, 28.27], [77.20333333333333, 28.27], [77.2025, 28.27], [77.2025, 28.270833333333336], [77.2025, 28.27166666666667], [77.20166666666667, 28.27166666666667], [77.20166666666667, 28.2725]]]}}], "properties": {"aoi": "ncr-gurugram", "product": "new_water", "total_ha": 706.8, "n_patches": 26}}