{"type": "FeatureCollection", "features": [{"type": "Feature", "properties": {"product": "water_loss", "area_ha": 25.62}, "geometry": {"type": "Polygon", "coordinates": [[[76.91749999999999, 28.496666666666666], [76.91666666666666, 28.496666666666666], [76.91666666666666, 28.497500000000002], [76.91666666666666, 28.498333333333335], [76.91749999999999, 28.498333333333335], [76.91833333333332, 28.498333333333335], [76.91916666666665, 28.498333333333335], [76.91999999999999, 28.498333333333335], [76.92083333333333, 28.498333333333335], [76.92166666666667, 28.498333333333335], [76.9225, 28.498333333333335], [76.92333333333333, 28.498333333333335], [76.92333333333333, 28.497500000000002], [76.9225, 28.497500000000002], [76.9225, 28.496666666666666], [76.9225, 28.495833333333334], [76.9225, 28.495], [76.9225, 28.49416666666667], [76.92166666666667, 28.49416666666667], [76.92083333333333, 28.49416666666667], [76.92083333333333, 28.493333333333332], [76.91999999999999, 28.493333333333332], [76.91916666666665, 28.493333333333332], [76.91916666666665, 28.49416666666667], [76.91833333333332, 28.49416666666667], [76.91833333333332, 28.495], [76.91749999999999, 28.495], [76.91749999999999, 28.495833333333334], [76.91749999999999, 28.496666666666666]]]}}, {"type": "Feature", "properties": {"product": "water_loss", "area_ha": 23.36}, "geometry": {"type": "Polygon", "coordinates": [[[76.91666666666666, 28.515833333333333], [76.91749999999999, 28.515833333333333], [76.91833333333332, 28.515833333333333], [76.91833333333332, 28.516666666666666], [76.91749999999999, 28.516666666666666], [76.91666666666666, 28.516666666666666], [76.91666666666666, 28.517500000000002], [76.91666666666666, 28.518333333333334], [76.91583333333332, 28.518333333333334], [76.91499999999999, 28.518333333333334], [76.91499999999999, 28.519166666666667], [76.91583333333332, 28.519166666666667], [76.91666666666666, 28.519166666666667], [76.91749999999999, 28.519166666666667], [76.91749999999999, 28.518333333333334], [76.91833333333332, 28.518333333333334], [76.91916666666665, 28.518333333333334], [76.91916666666665, 28.517500000000002], [76.91999999999999, 28.517500000000002], [76.91999999999999, 28.518333333333334], [76.92083333333333, 28.518333333333334], [76.92166666666667, 28.518333333333334], [76.92166666666667, 28.517500000000002], [76.9225, 28.517500000000002], [76.9225, 28.516666666666666], [76.9225, 28.515833333333333], [76.92166666666667, 28.515833333333333], [76.92166666666667, 28.516666666666666], [76.92083333333333, 28.516666666666666], [76.91999999999999, 28.516666666666666], [76.91916666666665, 28.516666666666666], [76.91916666666665, 28.515833333333333], [76.91916666666665, 28.515], [76.91916666666665, 28.514166666666668], [76.91833333333332, 28.514166666666668], [76.91749999999999, 28.514166666666668], [76.91749999999999, 28.513333333333335], [76.91666666666666, 28.513333333333335], [76.91583333333332, 28.513333333333335], [76.91583333333332, 28.5125], [76.91583333333332, 28.511666666666667], [76.91499999999999, 28.511666666666667], [76.91499999999999, 28.5125], [76.91416666666666, 28.5125], [76.91416666666666, 28.513333333333335], [76.91499999999999, 28.513333333333335], [76.91499999999999, 28.514166666666668], [76.91499999999999, 28.515], [76.91583333333332, 28.515], [76.91666666666666, 28.515], [76.91666666666666, 28.515833333333333]]]}}, {"type": "Feature", "properties": {"product": "water_loss", "area_ha": 12.06}, "geometry": {"type": "Polygon", "coordinates": [[[76.92333333333333, 28.4825], [76.92333333333333, 28.483333333333334], [76.92333333333333, 28.484166666666667], [76.92416666666666, 28.484166666666667], [76.92416666666666, 28.485], [76.925, 28.485], [76.925, 28.484166666666667], [76.92583333333333, 28.484166666666667], [76.92666666666666, 28.484166666666667], [76.9275, 28.484166666666667], [76.9275, 28.483333333333334], [76.9275, 28.4825], [76.9275, 28.48166666666667], [76.92666666666666, 28.48166666666667], [76.92583333333333, 28.48166666666667], [76.925, 28.48166666666667], [76.92416666666666, 28.48166666666667], [76.92333333333333, 28.48166666666667], [76.92333333333333, 28.4825]]]}}, {"type": "Feature", "properties": {"product": "water_loss", "area_ha": 18.08}, "geometry": {"type": "Polygon", "coordinates": [[[76.93833333333333, 28.5], [76.93916666666667, 28.5], [76.93916666666667, 28.500833333333333], [76.94, 28.500833333333333], [76.94, 28.5], [76.94083333333333, 28.5], [76.94083333333333, 28.500833333333333], [76.94083333333333, 28.50166666666667], [76.94, 28.50166666666667], [76.94, 28.5025], [76.94, 28.503333333333334], [76.94083333333333, 28.503333333333334], [76.94083333333333, 28.5025], [76.94166666666666, 28.5025], [76.94166666666666, 28.50166666666667], [76.9425, 28.50166666666667], [76.9425, 28.500833333333333], [76.9425, 28.5], [76.9425, 28.499166666666667], [76.94333333333333, 28.499166666666667], [76.94333333333333, 28.498333333333335], [76.94333333333333, 28.497500000000002], [76.9425, 28.497500000000002], [76.9425, 28.496666666666666], [76.94166666666666, 28.496666666666666], [76.94166666666666, 28.497500000000002], [76.94166666666666, 28.498333333333335], [76.94166666666666, 28.499166666666667], [76.94083333333333, 28.499166666666667], [76.94, 28.499166666666667], [76.94, 28.498333333333335], [76.94083333333333, 28.498333333333335], [76.94083333333333, 28.497500000000002], [76.94, 28.497500000000002], [76.93916666666667, 28.497500000000002], [76.93916666666667, 28.496666666666666], [76.93833333333333, 28.496666666666666], [76.93833333333333, 28.497500000000002], [76.93833333333333, 28.498333333333335], [76.93833333333333, 28.499166666666667], [76.93833333333333, 28.5]]]}}, {"type": "Feature", "properties": {"product": "water_loss", "area_ha": 6.03}, "geometry": {"type": "Polygon", "coordinates": [[[76.93583333333332, 28.50166666666667], [76.93583333333332, 28.5025], [76.93583333333332, 28.503333333333334], [76.93666666666667, 28.503333333333334], [76.93666666666667, 28.5025], [76.9375, 28.5025], [76.9375, 28.50166666666667], [76.9375, 28.500833333333333], [76.93666666666667, 28.500833333333333], [76.93666666666667, 28.5], [76.93666666666667, 28.499166666666667], [76.93583333333332, 28.499166666666667], [76.93583333333332, 28.5], [76.93583333333332, 28.500833333333333], [76.93499999999999, 28.500833333333333], [76.93499999999999, 28.50166666666667], [76.93583333333332, 28.50166666666667]]]}}, {"type": "Feature", "properties": {"product": "water_loss", "area_ha": 6.03}, "geometry": {"type": "Polygon", "coordinates": [[[76.93666666666667, 28.503333333333334], [76.93666666666667, 28.504166666666666], [76.9375, 28.504166666666666], [76.9375, 28.505], [76.93833333333333, 28.505], [76.93916666666667, 28.505], [76.93916666666667, 28.504166666666666], [76.93916666666667, 28.503333333333334], [76.93916666666667, 28.5025], [76.93916666666667, 28.50166666666667], [76.93916666666667, 28.500833333333333], [76.93833333333333, 28.500833333333333], [76.93833333333333, 28.50166666666667], [76.93833333333333, 28.5025], [76.93833333333333, 28.503333333333334], [76.9375, 28.503333333333334], [76.93666666666667, 28.503333333333334]]]}}, {"type": "Feature", "properties": {"product": "water_loss", "area_ha": 15.82}, "geometry": {"type": "Polygon", "coordinates": [[[76.94166666666666, 28.505], [76.9425, 28.505], [76.9425, 28.504166666666666], [76.94333333333333, 28.504166666666666], [76.94333333333333, 28.503333333333334], [76.94416666666666, 28.503333333333334], [76.945, 28.503333333333334], [76.94583333333333, 28.503333333333334], [76.94583333333333, 28.504166666666666], [76.94666666666666, 28.504166666666666], [76.94666666666666, 28.505], [76.94749999999999, 28.505], [76.94833333333332, 28.505], [76.94833333333332, 28.504166666666666], [76.94916666666666, 28.504166666666666], [76.94999999999999, 28.504166666666666], [76.94999999999999, 28.503333333333334], [76.94916666666666, 28.503333333333334], [76.94916666666666, 28.5025], [76.94916666666666, 28.50166666666667], [76.94833333333332, 28.50166666666667], [76.94833333333332, 28.5025], [76.94833333333332, 28.503333333333334], [76.94749999999999, 28.503333333333334], [76.94666666666666, 28.503333333333334], [76.94666666666666, 28.5025], [76.94583333333333, 28.5025], [76.945, 28.5025], [76.94416666666666, 28.5025], [76.94416666666666, 28.50166666666667], [76.94333333333333, 28.50166666666667], [76.9425, 28.50166666666667], [76.9425, 28.5025], [76.94166666666666, 28.5025], [76.94166666666666, 28.503333333333334], [76.94166666666666, 28.504166666666666], [76.94083333333333, 28.504166666666666], [76.94083333333333, 28.505], [76.94166666666666, 28.505]]]}}, {"type": "Feature", "properties": {"product": "water_loss", "area_ha": 7.53}, "geometry": {"type": "Polygon", "coordinates": [[[76.92833333333333, 28.51], [76.92833333333333, 28.510833333333334], [76.92833333333333, 28.511666666666667], [76.9275, 28.511666666666667], [76.9275, 28.5125], [76.9275, 28.513333333333335], [76.92833333333333, 28.513333333333335], [76.92833333333333, 28.5125], [76.92916666666666, 28.5125], [76.92916666666666, 28.511666666666667], [76.92916666666666, 28.510833333333334], [76.92999999999999, 28.510833333333334], [76.93083333333333, 28.510833333333334], [76.93166666666666, 28.510833333333334], [76.93249999999999, 28.510833333333334], [76.93333333333332, 28.510833333333334], [76.93333333333332, 28.51], [76.93249999999999, 28.51], [76.93166666666666, 28.51], [76.93083333333333, 28.51], [76.92999999999999, 28.51], [76.92916666666666, 28.51], [76.92833333333333, 28.51]]]}}, {"type": "Feature", "properties": {"product": "water_loss", "area_ha": 9.04}, "geometry": {"type": "Polygon", "coordinates": [[[76.96833333333333, 28.50166666666667], [76.9675, 28.50166666666667], [76.9675, 28.5025], [76.9675, 28.503333333333334], [76.96833333333333, 28.503333333333334], [76.96916666666667, 28.503333333333334], [76.97, 28.503333333333334], [76.97083333333333, 28.503333333333334], [76.97083333333333, 28.504166666666666], [76.97166666666666, 28.504166666666666], [76.97166666666666, 28.503333333333334], [76.9725, 28.503333333333334], [76.9725, 28.5025], [76.97166666666666, 28.5025], [76.97166666666666, 28.50166666666667], [76.97166666666666, 28.500833333333333], [76.97083333333333, 28.500833333333333], [76.97083333333333, 28.50166666666667], [76.97, 28.50166666666667], [76.97, 28.5025], [76.96916666666667, 28.5025], [76.96916666666667, 28.50166666666667], [76.96833333333333, 28.50166666666667]]]}}, {"type": "Feature", "properties": {"product": "water_loss", "area_ha": 11.34}, "geometry": {"type": "Polygon", "coordinates": [[[77.08833333333332, 28.171666666666667], [77.08916666666666, 28.171666666666667], [77.08999999999999, 28.171666666666667], [77.08999999999999, 28.1725], [77.09083333333332, 28.1725], [77.09083333333332, 28.173333333333336], [77.09166666666665, 28.173333333333336], [77.09166666666665, 28.1725], [77.09166666666665, 28.171666666666667], [77.09166666666665, 28.170833333333334], [77.09166666666665, 28.17], [77.09083333333332, 28.17], [77.08999999999999, 28.17], [77.08999999999999, 28.16916666666667], [77.08999999999999, 28.168333333333333], [77.08916666666666, 28.168333333333333], [77.08916666666666, 28.16916666666667], [77.08833333333332, 28.16916666666667], [77.08833333333332, 28.17], [77.08833333333332, 28.170833333333334], [77.08749999999999, 28.170833333333334], [77.08749999999999, 28.171666666666667], [77.08833333333332, 28.171666666666667]]]}}, {"type": "Feature", "properties": {"product": "water_loss", "area_ha": 16.63}, "geometry": {"type": "Polygon", "coordinates": [[[77.16583333333332, 28.150000000000002], [77.16499999999999, 28.150000000000002], [77.16416666666666, 28.150000000000002], [77.16333333333333, 28.150000000000002], [77.1625, 28.150000000000002], [77.1625, 28.150833333333335], [77.1625, 28.151666666666667], [77.16333333333333, 28.151666666666667], [77.16333333333333, 28.1525], [77.16416666666666, 28.1525], [77.16499999999999, 28.1525], [77.16499999999999, 28.151666666666667], [77.16583333333332, 28.151666666666667], [77.16666666666666, 28.151666666666667], [77.16666666666666, 28.150833333333335], [77.16749999999999, 28.150833333333335], [77.16833333333332, 28.150833333333335], [77.16916666666665, 28.150833333333335], [77.16999999999999, 28.150833333333335], [77.17083333333333, 28.150833333333335], [77.17083333333333, 28.151666666666667], [77.17083333333333, 28.1525], [77.17083333333333, 28.153333333333332], [77.17166666666667, 28.153333333333332], [77.17166666666667, 28.1525], [77.1725, 28.1525], [77.1725, 28.151666666666667], [77.17166666666667, 28.151666666666667], [77.17166666666667, 28.150833333333335], [77.17166666666667, 28.150000000000002], [77.17083333333333, 28.150000000000002], [77.16999999999999, 28.150000000000002], [77.16916666666665, 28.150000000000002], [77.16833333333332, 28.150000000000002], [77.16749999999999, 28.150000000000002], [77.16666666666666, 28.150000000000002], [77.16583333333332, 28.150000000000002]]]}}, {"type": "Feature", "properties": {"product": "water_loss", "area_ha": 6.8}, "geometry": {"type": "Polygon", "coordinates": [[[77.15333333333332, 28.150833333333335], [77.15416666666665, 28.150833333333335], [77.15416666666665, 28.151666666666667], [77.15333333333332, 28.151666666666667], [77.15333333333332, 28.1525], [77.15333333333332, 28.153333333333332], [77.15416666666665, 28.153333333333332], [77.15416666666665, 28.1525], [77.155, 28.1525], [77.155, 28.151666666666667], [77.15583333333333, 28.151666666666667], [77.15583333333333, 28.150833333333335], [77.15583333333333, 28.150000000000002], [77.155, 28.150000000000002], [77.15416666666665, 28.150000000000002], [77.15333333333332, 28.150000000000002], [77.15249999999999, 28.150000000000002], [77.15249999999999, 28.150833333333335], [77.15333333333332, 28.150833333333335]]]}}, {"type": "Feature", "properties": {"product": "water_loss", "area_ha": 12.09}, "geometry": {"type": "Polygon", "coordinates": [[[77.1625, 28.164166666666667], [77.16333333333333, 28.164166666666667], [77.16333333333333, 28.165], [77.16416666666666, 28.165], [77.16499999999999, 28.165], [77.16499999999999, 28.165833333333335], [77.16583333333332, 28.165833333333335], [77.16666666666666, 28.165833333333335], [77.16666666666666, 28.165], [77.16749999999999, 28.165], [77.16749999999999, 28.164166666666667], [77.16666666666666, 28.164166666666667], [77.16666666666666, 28.163333333333334], [77.16749999999999, 28.163333333333334], [77.16749999999999, 28.1625], [77.16666666666666, 28.1625], [77.16583333333332, 28.1625], [77.16583333333332, 28.163333333333334], [77.16583333333332, 28.164166666666667], [77.16499999999999, 28.164166666666667], [77.16416666666666, 28.164166666666667], [77.16416666666666, 28.163333333333334], [77.16416666666666, 28.1625], [77.16333333333333, 28.1625], [77.16333333333333, 28.16166666666667], [77.1625, 28.16166666666667], [77.1625, 28.1625], [77.1625, 28.163333333333334], [77.16166666666666, 28.163333333333334], [77.16166666666666, 28.164166666666667], [77.1625, 28.164166666666667]]]}}, {"type": "Feature", "properties": {"product": "water_loss", "area_ha": 12.85}, "geometry": {"type": "Polygon", "coordinates": [[[77.15166666666666, 28.1875], [77.15166666666666, 28.188333333333333], [77.15166666666666, 28.18916666666667], [77.15249999999999, 28.18916666666667], [77.15249999999999, 28.188333333333333], [77.15333333333332, 28.188333333333333], [77.15416666666665, 28.188333333333333], [77.15416666666665, 28.1875], [77.155, 28.1875], [77.155, 28.186666666666667], [77.15583333333333, 28.186666666666667], [77.15583333333333, 28.185833333333335], [77.155, 28.185833333333335], [77.15416666666665, 28.185833333333335], [77.15416666666665, 28.186666666666667], [77.15333333333332, 28.186666666666667], [77.15333333333332, 28.185833333333335], [77.15333333333332, 28.185000000000002], [77.15333333333332, 28.184166666666666], [77.15333333333332, 28.183333333333334], [77.15249999999999, 28.183333333333334], [77.15249999999999, 28.1825], [77.15166666666666, 28.1825], [77.15166666666666, 28.183333333333334], [77.15166666666666, 28.184166666666666], [77.15166666666666, 28.185000000000002], [77.15249999999999, 28.185000000000002], [77.15249999999999, 28.185833333333335], [77.15249999999999, 28.186666666666667], [77.15166666666666, 28.186666666666667], [77.15166666666666, 28.1875]]]}}, {"type": "Feature", "properties": {"product": "water_loss", "area_ha": 13.61}, "geometry": {"type": "Polygon", "coordinates": [[[77.18333333333332, 28.159166666666668], [77.18333333333332, 28.158333333333335], [77.18416666666666, 28.158333333333335], [77.18499999999999, 28.158333333333335], [77.18499999999999, 28.159166666666668], [77.18583333333332, 28.159166666666668], [77.18583333333332, 28.16], [77.18583333333332, 28.160833333333333], [77.18583333333332, 28.16166666666667], [77.18666666666667, 28.16166666666667], [77.1875, 28.16166666666667], [77.1875, 28.160833333333333], [77.1875, 28.16], [77.1875, 28.159166666666668], [77.18666666666667, 28.159166666666668], [77.18666666666667, 28.158333333333335], [77.18583333333332, 28.158333333333335], [77.18583333333332, 28.157500000000002], [77.18499999999999, 28.157500000000002], [77.18416666666666, 28.157500000000002], [77.18416666666666, 28.156666666666666], [77.18333333333332, 28.156666666666666], [77.18333333333332, 28.157500000000002], [77.18249999999999, 28.157500000000002], [77.18249999999999, 28.156666666666666], [77.18166666666666, 28.156666666666666], [77.18083333333333, 28.156666666666666], [77.18083333333333, 28.157500000000002], [77.18166666666666, 28.157500000000002], [77.18166666666666, 28.158333333333335], [77.18166666666666, 28.159166666666668], [77.18249999999999, 28.159166666666668], [77.18333333333332, 28.159166666666668]]]}}, {"type": "Feature", "properties": {"product": "water_loss", "area_ha": 6.8}, "geometry": {"type": "Polygon", "coordinates": [[[77.18583333333332, 28.2625], [77.18499999999999, 28.2625], [77.18416666666666, 28.2625], [77.18333333333332, 28.2625], [77.18333333333332, 28.263333333333335], [77.18333333333332, 28.264166666666668], [77.18333333333332, 28.265], [77.18416666666666, 28.265], [77.18499999999999, 28.265], [77.18583333333332, 28.265], [77.18583333333332, 28.264166666666668], [77.18583333333332, 28.263333333333335], [77.18583333333332, 28.2625]]]}}, {"type": "Feature", "properties": {"product": "water_loss", "area_ha": 6.8}, "geometry": {"type": "Polygon", "coordinates": [[[77.22666666666666, 28.268333333333334], [77.22666666666666, 28.267500000000002], [77.22583333333333, 28.267500000000002], [77.22583333333333, 28.266666666666666], [77.225, 28.266666666666666], [77.22416666666666, 28.266666666666666], [77.22416666666666, 28.267500000000002], [77.22416666666666, 28.268333333333334], [77.225, 28.268333333333334], [77.225, 28.269166666666667], [77.225, 28.27], [77.22583333333333, 28.27], [77.22666666666666, 28.27], [77.22666666666666, 28.269166666666667], [77.22666666666666, 28.268333333333334]]]}}, {"type": "Feature", "properties": {"product": "water_loss", "area_ha": 8.3}, "geometry": {"type": "Polygon", "coordinates": [[[77.24499999999999, 28.300833333333333], [77.24583333333332, 28.300833333333333], [77.24583333333332, 28.301666666666666], [77.24499999999999, 28.301666666666666], [77.24499999999999, 28.302500000000002], [77.24499999999999, 28.303333333333335], [77.24499999999999, 28.304166666666667], [77.24583333333332, 28.304166666666667], [77.24583333333332, 28.303333333333335], [77.24666666666666, 28.303333333333335], [77.24666666666666, 28.302500000000002], [77.24749999999999, 28.302500000000002], [77.24749999999999, 28.301666666666666], [77.24749999999999, 28.300833333333333], [77.24749999999999, 28.3], [77.24666666666666, 28.3], [77.24583333333332, 28.3], [77.24499999999999, 28.3], [77.24499999999999, 28.300833333333333]]]}}], "properties": {"aoi": "ncr-gurugram", "product": "water_loss", "total_ha": 218.8, "n_patches": 18}}