{"type": "FeatureCollection", "features": [{"type": "Feature", "properties": {"product": "water_loss", "area_ha": 10.19}, "geometry": {"type": "Polygon", "coordinates": [[[86.20416666666667, 23.775], [86.20416666666667, 23.77583333333333], [86.205, 23.77583333333333], [86.20583333333333, 23.77583333333333], [86.20666666666666, 23.77583333333333], [86.2075, 23.77583333333333], [86.2075, 23.775], [86.20666666666666, 23.775], [86.20666666666666, 23.774166666666666], [86.20583333333333, 23.774166666666666], [86.205, 23.774166666666666], [86.20416666666667, 23.774166666666666], [86.20416666666667, 23.773333333333333], [86.20333333333333, 23.773333333333333], [86.2025, 23.773333333333333], [86.20166666666667, 23.773333333333333], [86.20166666666667, 23.774166666666666], [86.20166666666667, 23.775], [86.2025, 23.775], [86.20333333333333, 23.775], [86.20416666666667, 23.775]]]}}, {"type": "Feature", "properties": {"product": "water_loss", "area_ha": 7.06}, "geometry": {"type": "Polygon", "coordinates": [[[86.21166666666667, 23.787499999999998], [86.2125, 23.787499999999998], [86.2125, 23.786666666666665], [86.21333333333334, 23.786666666666665], [86.21416666666667, 23.786666666666665], [86.21416666666667, 23.785833333333333], [86.21416666666667, 23.785], [86.21416666666667, 23.784166666666668], [86.21333333333334, 23.784166666666668], [86.2125, 23.784166666666668], [86.2125, 23.785], [86.2125, 23.785833333333333], [86.21166666666667, 23.785833333333333], [86.21166666666667, 23.786666666666665], [86.21083333333334, 23.786666666666665], [86.21083333333334, 23.787499999999998], [86.21166666666667, 23.787499999999998]]]}}, {"type": "Feature", "properties": {"product": "water_loss", "area_ha": 9.41}, "geometry": {"type": "Polygon", "coordinates": [[[86.245, 23.785833333333333], [86.24583333333334, 23.785833333333333], [86.24583333333334, 23.786666666666665], [86.24583333333334, 23.787499999999998], [86.24666666666667, 23.787499999999998], [86.24666666666667, 23.786666666666665], [86.2475, 23.786666666666665], [86.2475, 23.785833333333333], [86.24833333333333, 23.785833333333333], [86.24833333333333, 23.785], [86.24833333333333, 23.784166666666668], [86.2475, 23.784166666666668], [86.2475, 23.78333333333333], [86.24666666666667, 23.78333333333333], [86.24583333333334, 23.78333333333333], [86.245, 23.78333333333333], [86.245, 23.784166666666668], [86.245, 23.785], [86.245, 23.785833333333333]], [[86.2475, 23.785], [86.24666666666667, 23.785], [86.24583333333334, 23.785], [86.24583333333334, 23.784166666666668], [86.24666666666667, 23.784166666666668], [86.2475, 23.784166666666668], [86.2475, 23.785]]]}}, {"type": "Feature", "properties": {"product": "water_loss", "area_ha": 7.84}, "geometry": {"type": "Polygon", "coordinates": [[[86.25916666666667, 23.787499999999998], [86.25916666666667, 23.786666666666665], [86.26, 23.786666666666665], [86.26083333333334, 23.786666666666665], [86.26166666666667, 23.786666666666665], [86.2625, 23.786666666666665], [86.26333333333334, 23.786666666666665], [86.26333333333334, 23.785833333333333], [86.2625, 23.785833333333333], [86.26166666666667, 23.785833333333333], [86.26166666666667, 23.785], [86.26083333333334, 23.785], [86.26083333333334, 23.785833333333333], [86.26, 23.785833333333333], [86.26, 23.785], [86.25916666666667, 23.785], [86.25916666666667, 23.785833333333333], [86.25833333333334, 23.785833333333333], [86.25833333333334, 23.786666666666665], [86.25750000000001, 23.786666666666665], [86.25750000000001, 23.787499999999998], [86.25833333333334, 23.787499999999998], [86.25916666666667, 23.787499999999998]]]}}, {"type": "Feature", "properties": {"product": "water_loss", "area_ha": 25.08}, "geometry": {"type": "Polygon", "coordinates": [[[86.24916666666667, 23.789166666666667], [86.24916666666667, 23.79], [86.25, 23.79], [86.25083333333333, 23.79], [86.25083333333333, 23.789166666666667], [86.25166666666667, 23.789166666666667], [86.2525, 23.789166666666667], [86.25333333333333, 23.789166666666667], [86.25416666666666, 23.789166666666667], [86.25500000000001, 23.789166666666667], [86.25583333333334, 23.789166666666667], [86.25583333333334, 23.79], [86.25666666666667, 23.79], [86.25750000000001, 23.79], [86.25750000000001, 23.789166666666667], [86.25833333333334, 23.789166666666667], [86.25833333333334, 23.788333333333334], [86.25750000000001, 23.788333333333334], [86.25750000000001, 23.787499999999998], [86.25666666666667, 23.787499999999998], [86.25666666666667, 23.788333333333334], [86.25583333333334, 23.788333333333334], [86.25583333333334, 23.787499999999998], [86.25500000000001, 23.787499999999998], [86.25500000000001, 23.786666666666665], [86.25416666666666, 23.786666666666665], [86.25416666666666, 23.787499999999998], [86.25333333333333, 23.787499999999998], [86.2525, 23.787499999999998], [86.2525, 23.786666666666665], [86.25333333333333, 23.786666666666665], [86.25333333333333, 23.785833333333333], [86.2525, 23.785833333333333], [86.25166666666667, 23.785833333333333], [86.25083333333333, 23.785833333333333], [86.25083333333333, 23.786666666666665], [86.25, 23.786666666666665], [86.24916666666667, 23.786666666666665], [86.24916666666667, 23.787499999999998], [86.24916666666667, 23.788333333333334], [86.24916666666667, 23.789166666666667]]]}}, {"type": "Feature", "properties": {"product": "water_loss", "area_ha": 11.76}, "geometry": {"type": "Polygon", "coordinates": [[[86.27333333333334, 23.799166666666665], [86.27250000000001, 23.799166666666665], [86.27250000000001, 23.8], [86.27333333333334, 23.8], [86.27416666666667, 23.8], [86.27416666666667, 23.799166666666665], [86.27416666666667, 23.798333333333332], [86.27416666666667, 23.7975], [86.27333333333334, 23.7975], [86.27333333333334, 23.796666666666667], [86.27416666666667, 23.796666666666667], [86.275, 23.796666666666667], [86.27583333333334, 23.796666666666667], [86.27583333333334, 23.795833333333334], [86.27583333333334, 23.794999999999998], [86.27583333333334, 23.794166666666666], [86.275, 23.794166666666666], [86.275, 23.794999999999998], [86.27416666666667, 23.794999999999998], [86.27416666666667, 23.795833333333334], [86.27333333333334, 23.795833333333334], [86.27250000000001, 23.795833333333334], [86.27166666666668, 23.795833333333334], [86.27166666666668, 23.796666666666667], [86.27166666666668, 23.7975], [86.27250000000001, 23.7975], [86.27250000000001, 23.798333333333332], [86.27333333333334, 23.798333333333332], [86.27333333333334, 23.799166666666665]]]}}, {"type": "Feature", "properties": {"product": "water_loss", "area_ha": 13.32}, "geometry": {"type": "Polygon", "coordinates": [[[86.26333333333334, 23.80333333333333], [86.26333333333334, 23.8025], [86.2625, 23.8025], [86.2625, 23.80333333333333], [86.2625, 23.804166666666667], [86.26333333333334, 23.804166666666667], [86.26416666666667, 23.804166666666667], [86.265, 23.804166666666667], [86.26583333333333, 23.804166666666667], [86.26666666666667, 23.804166666666667], [86.2675, 23.804166666666667], [86.26833333333333, 23.804166666666667], [86.26916666666666, 23.804166666666667], [86.27, 23.804166666666667], [86.27083333333334, 23.804166666666667], [86.27083333333334, 23.80333333333333], [86.27, 23.80333333333333], [86.26916666666666, 23.80333333333333], [86.26916666666666, 23.8025], [86.26833333333333, 23.8025], [86.2675, 23.8025], [86.26666666666667, 23.8025], [86.26666666666667, 23.80333333333333], [86.26583333333333, 23.80333333333333], [86.265, 23.80333333333333], [86.265, 23.8025], [86.26583333333333, 23.8025], [86.26583333333333, 23.801666666666666], [86.265, 23.801666666666666], [86.26416666666667, 23.801666666666666], [86.26416666666667, 23.8025], [86.26416666666667, 23.80333333333333], [86.26333333333334, 23.80333333333333]]]}}, {"type": "Feature", "properties": {"product": "water_loss", "area_ha": 42.33}, "geometry": {"type": "Polygon", "coordinates": [[[86.29833333333333, 23.785], [86.29833333333333, 23.785833333333333], [86.29833333333333, 23.786666666666665], [86.2975, 23.786666666666665], [86.2975, 23.787499999999998], [86.29666666666667, 23.787499999999998], [86.29666666666667, 23.788333333333334], [86.29583333333333, 23.788333333333334], [86.295, 23.788333333333334], [86.295, 23.789166666666667], [86.29416666666667, 23.789166666666667], [86.29333333333334, 23.789166666666667], [86.29333333333334, 23.79], [86.2925, 23.79], [86.2925, 23.79083333333333], [86.29333333333334, 23.79083333333333], [86.29416666666667, 23.79083333333333], [86.295, 23.79083333333333], [86.29583333333333, 23.79083333333333], [86.29583333333333, 23.791666666666664], [86.29583333333333, 23.7925], [86.29583333333333, 23.793333333333333], [86.295, 23.793333333333333], [86.295, 23.794166666666666], [86.29416666666667, 23.794166666666666], [86.29416666666667, 23.794999999999998], [86.29416666666667, 23.795833333333334], [86.29416666666667, 23.796666666666667], [86.29333333333334, 23.796666666666667], [86.29333333333334, 23.7975], [86.2925, 23.7975], [86.29166666666667, 23.7975], [86.29166666666667, 23.798333333333332], [86.29166666666667, 23.799166666666665], [86.2925, 23.799166666666665], [86.2925, 23.8], [86.29333333333334, 23.8], [86.29416666666667, 23.8], [86.29416666666667, 23.799166666666665], [86.295, 23.799166666666665], [86.29583333333333, 23.799166666666665], [86.29583333333333, 23.798333333333332], [86.29666666666667, 23.798333333333332], [86.29666666666667, 23.7975], [86.29666666666667, 23.796666666666667], [86.29583333333333, 23.796666666666667], [86.29583333333333, 23.795833333333334], [86.29583333333333, 23.794999999999998], [86.29583333333333, 23.794166666666666], [86.29666666666667, 23.794166666666666], [86.29666666666667, 23.793333333333333], [86.29666666666667, 23.7925], [86.29666666666667, 23.791666666666664], [86.29666666666667, 23.79083333333333], [86.29666666666667, 23.79], [86.2975, 23.79], [86.2975, 23.789166666666667], [86.29833333333333, 23.789166666666667], [86.29833333333333, 23.788333333333334], [86.29916666666666, 23.788333333333334], [86.29916666666666, 23.787499999999998], [86.3, 23.787499999999998], [86.3, 23.786666666666665], [86.30083333333333, 23.786666666666665], [86.30083333333333, 23.785833333333333], [86.3, 23.785833333333333], [86.29916666666666, 23.785833333333333], [86.29916666666666, 23.785], [86.29916666666666, 23.784166666666668], [86.29833333333333, 23.784166666666668], [86.2975, 23.784166666666668], [86.2975, 23.785], [86.29833333333333, 23.785]]]}}, {"type": "Feature", "properties": {"product": "water_loss", "area_ha": 11.76}, "geometry": {"type": "Polygon", "coordinates": [[[86.2825, 23.794999999999998], [86.28166666666667, 23.794999999999998], [86.28166666666667, 23.795833333333334], [86.28083333333333, 23.795833333333334], [86.28083333333333, 23.796666666666667], [86.28, 23.796666666666667], [86.27916666666667, 23.796666666666667], [86.27916666666667, 23.7975], [86.28, 23.7975], [86.28083333333333, 23.7975], [86.28166666666667, 23.7975], [86.2825, 23.7975], [86.28333333333333, 23.7975], [86.28333333333333, 23.796666666666667], [86.28416666666666, 23.796666666666667], [86.285, 23.796666666666667], [86.285, 23.795833333333334], [86.28583333333333, 23.795833333333334], [86.28583333333333, 23.794999999999998], [86.285, 23.794999999999998], [86.28416666666666, 23.794999999999998], [86.28333333333333, 23.794999999999998], [86.2825, 23.794999999999998]]]}}, {"type": "Feature", "properties": {"product": "water_loss", "area_ha": 17.24}, "geometry": {"type": "Polygon", "coordinates": [[[86.28666666666668, 23.8], [86.28583333333333, 23.8], [86.285, 23.8], [86.28416666666666, 23.8], [86.28416666666666, 23.800833333333333], [86.28333333333333, 23.800833333333333], [86.2825, 23.800833333333333], [86.28166666666667, 23.800833333333333], [86.28083333333333, 23.800833333333333], [86.28083333333333, 23.801666666666666], [86.28166666666667, 23.801666666666666], [86.2825, 23.801666666666666], [86.2825, 23.8025], [86.28333333333333, 23.8025], [86.28416666666666, 23.8025], [86.285, 23.8025], [86.28583333333333, 23.8025], [86.28666666666668, 23.8025], [86.28750000000001, 23.8025], [86.28750000000001, 23.80333333333333], [86.28833333333334, 23.80333333333333], [86.28833333333334, 23.8025], [86.28833333333334, 23.801666666666666], [86.28750000000001, 23.801666666666666], [86.28750000000001, 23.800833333333333], [86.28750000000001, 23.8], [86.28750000000001, 23.799166666666665], [86.28750000000001, 23.798333333333332], [86.28666666666668, 23.798333333333332], [86.28666666666668, 23.799166666666665], [86.28666666666668, 23.8]]]}}, {"type": "Feature", "properties": {"product": "water_loss", "area_ha": 6.27}, "geometry": {"type": "Polygon", "coordinates": [[[86.285, 23.809166666666666], [86.28583333333333, 23.809166666666666], [86.28583333333333, 23.808333333333334], [86.28583333333333, 23.8075], [86.285, 23.8075], [86.285, 23.806666666666665], [86.285, 23.805833333333332], [86.28416666666666, 23.805833333333332], [86.28333333333333, 23.805833333333332], [86.28333333333333, 23.806666666666665], [86.28416666666666, 23.806666666666665], [86.28416666666666, 23.8075], [86.28333333333333, 23.8075], [86.28333333333333, 23.808333333333334], [86.28416666666666, 23.808333333333334], [86.28416666666666, 23.809166666666666], [86.285, 23.809166666666666]]]}}, {"type": "Feature", "properties": {"product": "water_loss", "area_ha": 35.28}, "geometry": {"type": "Polygon", "coordinates": [[[86.30916666666667, 23.781666666666666], [86.30916666666667, 23.7825], [86.31, 23.7825], [86.31083333333333, 23.7825], [86.31166666666667, 23.7825], [86.3125, 23.7825], [86.3125, 23.78333333333333], [86.31166666666667, 23.78333333333333], [86.31166666666667, 23.784166666666668], [86.31166666666667, 23.785], [86.31083333333333, 23.785], [86.31083333333333, 23.785833333333333], [86.31166666666667, 23.785833333333333], [86.31166666666667, 23.786666666666665], [86.31083333333333, 23.786666666666665], [86.31083333333333, 23.787499999999998], [86.31166666666667, 23.787499999999998], [86.31166666666667, 23.788333333333334], [86.3125, 23.788333333333334], [86.3125, 23.787499999999998], [86.3125, 23.786666666666665], [86.31333333333333, 23.786666666666665], [86.31333333333333, 23.787499999999998], [86.31416666666667, 23.787499999999998], [86.315, 23.787499999999998], [86.315, 23.786666666666665], [86.315, 23.785833333333333], [86.315, 23.785], [86.31416666666667, 23.785], [86.31333333333333, 23.785], [86.3125, 23.785], [86.3125, 23.784166666666668], [86.31333333333333, 23.784166666666668], [86.31333333333333, 23.78333333333333], [86.31416666666667, 23.78333333333333], [86.31416666666667, 23.7825], [86.315, 23.7825], [86.315, 23.781666666666666], [86.31583333333333, 23.781666666666666], [86.31583333333333, 23.7825], [86.31666666666666, 23.7825], [86.31666666666666, 23.781666666666666], [86.31666666666666, 23.780833333333334], [86.31750000000001, 23.780833333333334], [86.31750000000001, 23.779999999999998], [86.31666666666666, 23.779999999999998], [86.31583333333333, 23.779999999999998], [86.315, 23.779999999999998], [86.315, 23.779166666666665], [86.315, 23.778333333333332], [86.31416666666667, 23.778333333333332], [86.31333333333333, 23.778333333333332], [86.31333333333333, 23.779166666666665], [86.31333333333333, 23.779999999999998], [86.3125, 23.779999999999998], [86.31166666666667, 23.779999999999998], [86.31166666666667, 23.780833333333334], [86.31083333333333, 23.780833333333334], [86.31083333333333, 23.781666666666666], [86.31, 23.781666666666666], [86.31, 23.780833333333334], [86.30916666666667, 23.780833333333334], [86.30916666666667, 23.781666666666666]], [[86.31416666666667, 23.780833333333334], [86.31416666666667, 23.781666666666666], [86.31333333333333, 23.781666666666666], [86.31333333333333, 23.780833333333334], [86.31416666666667, 23.780833333333334]]]}}, {"type": "Feature", "properties": {"product": "water_loss", "area_ha": 18.03}, "geometry": {"type": "Polygon", "coordinates": [[[86.3075, 23.781666666666666], [86.30666666666667, 23.781666666666666], [86.30583333333334, 23.781666666666666], [86.30583333333334, 23.7825], [86.30583333333334, 23.78333333333333], [86.30666666666667, 23.78333333333333], [86.30666666666667, 23.784166666666668], [86.3075, 23.784166666666668], [86.3075, 23.785], [86.30833333333334, 23.785], [86.30833333333334, 23.785833333333333], [86.3075, 23.785833333333333], [86.3075, 23.786666666666665], [86.30666666666667, 23.786666666666665], [86.30666666666667, 23.787499999999998], [86.3075, 23.787499999999998], [86.30833333333334, 23.787499999999998], [86.30916666666667, 23.787499999999998], [86.31, 23.787499999999998], [86.31, 23.786666666666665], [86.31083333333333, 23.786666666666665], [86.31083333333333, 23.785833333333333], [86.31, 23.785833333333333], [86.31, 23.785], [86.31, 23.784166666666668], [86.31, 23.78333333333333], [86.30916666666667, 23.78333333333333], [86.30916666666667, 23.7825], [86.30833333333334, 23.7825], [86.3075, 23.7825], [86.3075, 23.781666666666666]]]}}, {"type": "Feature", "properties": {"product": "water_loss", "area_ha": 101.9}, "geometry": {"type": "Polygon", "coordinates": [[[86.31083333333333, 23.794999999999998], [86.31083333333333, 23.795833333333334], [86.31166666666667, 23.795833333333334], [86.31166666666667, 23.796666666666667], [86.31083333333333, 23.796666666666667], [86.31, 23.796666666666667], [86.31, 23.7975], [86.30916666666667, 23.7975], [86.30916666666667, 23.798333333333332], [86.31, 23.798333333333332], [86.31083333333333, 23.798333333333332], [86.31166666666667, 23.798333333333332], [86.3125, 23.798333333333332], [86.31333333333333, 23.798333333333332], [86.31416666666667, 23.798333333333332], [86.31416666666667, 23.7975], [86.315, 23.7975], [86.315, 23.798333333333332], [86.31583333333333, 23.798333333333332], [86.31666666666666, 23.798333333333332], [86.31750000000001, 23.798333333333332], [86.31833333333334, 23.798333333333332], [86.31916666666667, 23.798333333333332], [86.31916666666667, 23.799166666666665], [86.31916666666667, 23.8], [86.31916666666667, 23.800833333333333], [86.32000000000001, 23.800833333333333], [86.32000000000001, 23.801666666666666], [86.31916666666667, 23.801666666666666], [86.31833333333334, 23.801666666666666], [86.31833333333334, 23.8025], [86.31750000000001, 23.8025], [86.31750000000001, 23.80333333333333], [86.31833333333334, 23.80333333333333], [86.31916666666667, 23.80333333333333], [86.31916666666667, 23.8025], [86.32000000000001, 23.8025], [86.32083333333334, 23.8025], [86.32166666666667, 23.8025], [86.32166666666667, 23.801666666666666], [86.3225, 23.801666666666666], [86.3225, 23.800833333333333], [86.32166666666667, 23.800833333333333], [86.32166666666667, 23.8], [86.3225, 23.8], [86.32333333333334, 23.8], [86.32333333333334, 23.799166666666665], [86.3225, 23.799166666666665], [86.32166666666667, 23.799166666666665], [86.32083333333334, 23.799166666666665], [86.32083333333334, 23.798333333333332], [86.32083333333334, 23.7975], [86.32000000000001, 23.7975], [86.31916666666667, 23.7975], [86.31916666666667, 23.796666666666667], [86.32000000000001, 23.796666666666667], [86.32000000000001, 23.795833333333334], [86.32000000000001, 23.794999999999998], [86.32083333333334, 23.794999999999998], [86.32083333333334, 23.795833333333334], [86.32166666666667, 23.795833333333334], [86.3225, 23.795833333333334], [86.3225, 23.796666666666667], [86.3225, 23.7975], [86.32333333333334, 23.7975], [86.32416666666667, 23.7975], [86.32416666666667, 23.796666666666667], [86.32333333333334, 23.796666666666667], [86.32333333333334, 23.795833333333334], [86.32416666666667, 23.795833333333334], [86.325, 23.795833333333334], [86.32583333333334, 23.795833333333334], [86.32666666666667, 23.795833333333334], [86.3275, 23.795833333333334], [86.3275, 23.794999999999998], [86.32666666666667, 23.794999999999998], [86.32666666666667, 23.794166666666666], [86.3275, 23.794166666666666], [86.32833333333333, 23.794166666666666], [86.32833333333333, 23.793333333333333], [86.3275, 23.793333333333333], [86.32666666666667, 23.793333333333333], [86.32666666666667, 23.7925], [86.32666666666667, 23.791666666666664], [86.32666666666667, 23.79083333333333], [86.32666666666667, 23.79], [86.3275, 23.79], [86.32833333333333, 23.79], [86.32833333333333, 23.789166666666667], [86.32833333333333, 23.788333333333334], [86.3275, 23.788333333333334], [86.3275, 23.789166666666667], [86.32666666666667, 23.789166666666667], [86.32583333333334, 23.789166666666667], [86.325, 23.789166666666667], [86.325, 23.79], [86.325, 23.79083333333333], [86.32416666666667, 23.79083333333333], [86.32416666666667, 23.79], [86.32333333333334, 23.79], [86.32333333333334, 23.789166666666667], [86.3225, 23.789166666666667], [86.3225, 23.79], [86.32166666666667, 23.79], [86.32166666666667, 23.789166666666667], [86.32166666666667, 23.788333333333334], [86.32083333333334, 23.788333333333334], [86.32000000000001, 23.788333333333334], [86.31916666666667, 23.788333333333334], [86.31833333333334, 23.788333333333334], [86.31833333333334, 23.789166666666667], [86.31750000000001, 23.789166666666667], [86.31750000000001, 23.79], [86.31666666666666, 23.79], [86.31583333333333, 23.79], [86.315, 23.79], [86.315, 23.79083333333333], [86.31583333333333, 23.79083333333333], [86.31666666666666, 23.79083333333333], [86.31750000000001, 23.79083333333333], [86.31833333333334, 23.79083333333333], [86.31833333333334, 23.79], [86.31916666666667, 23.79], [86.31916666666667, 23.79083333333333], [86.32000000000001, 23.79083333333333], [86.32000000000001, 23.791666666666664], [86.31916666666667, 23.791666666666664], [86.31916666666667, 23.7925], [86.31916666666667, 23.793333333333333], [86.31833333333334, 23.793333333333333], [86.31833333333334, 23.794166666666666], [86.31833333333334, 23.794999999999998], [86.31750000000001, 23.794999999999998], [86.31666666666666, 23.794999999999998], [86.31666666666666, 23.795833333333334], [86.31666666666666, 23.796666666666667], [86.31666666666666, 23.7975], [86.31583333333333, 23.7975], [86.31583333333333, 23.796666666666667], [86.31583333333333, 23.795833333333334], [86.315, 23.795833333333334], [86.31416666666667, 23.795833333333334], [86.31416666666667, 23.794999999999998], [86.31416666666667, 23.794166666666666], [86.31333333333333, 23.794166666666666], [86.3125, 23.794166666666666], [86.31166666666667, 23.794166666666666], [86.31166666666667, 23.793333333333333], [86.31083333333333, 23.793333333333333], [86.31, 23.793333333333333], [86.31, 23.7925], [86.30916666666667, 23.7925], [86.30833333333334, 23.7925], [86.30833333333334, 23.793333333333333], [86.30916666666667, 23.793333333333333], [86.30916666666667, 23.794166666666666], [86.31, 23.794166666666666], [86.31083333333333, 23.794166666666666], [86.31083333333333, 23.794999999999998]], [[86.31166666666667, 23.794999999999998], [86.3125, 23.794999999999998], [86.3125, 23.795833333333334], [86.31166666666667, 23.795833333333334], [86.31166666666667, 23.794999999999998]], [[86.32416666666667, 23.791666666666664], [86.32416666666667, 23.7925], [86.325, 23.7925], [86.325, 23.791666666666664], [86.32583333333334, 23.791666666666664], [86.32583333333334, 23.7925], [86.32583333333334, 23.793333333333333], [86.32583333333334, 23.794166666666666], [86.32583333333334, 23.794999999999998], [86.325, 23.794999999999998], [86.32416666666667, 23.794999999999998], [86.32333333333334, 23.794999999999998], [86.3225, 23.794999999999998], [86.3225, 23.794166666666666], [86.32166666666667, 23.794166666666666], [86.32166666666667, 23.793333333333333], [86.32083333333334, 23.793333333333333], [86.32000000000001, 23.793333333333333], [86.32000000000001, 23.7925], [86.32083333333334, 23.7925], [86.32083333333334, 23.791666666666664], [86.32166666666667, 23.791666666666664], [86.3225, 23.791666666666664], [86.3225, 23.79083333333333], [86.32333333333334, 23.79083333333333], [86.32416666666667, 23.79083333333333], [86.32416666666667, 23.791666666666664]]]}}, {"type": "Feature", "properties": {"product": "water_loss", "area_ha": 29.0}, "geometry": {"type": "Polygon", "coordinates": [[[86.30083333333333, 23.796666666666667], [86.30166666666668, 23.796666666666667], [86.30166666666668, 23.7975], [86.30083333333333, 23.7975], [86.3, 23.7975], [86.29916666666666, 23.7975], [86.29833333333333, 23.7975], [86.29833333333333, 23.798333333333332], [86.29916666666666, 23.798333333333332], [86.29916666666666, 23.799166666666665], [86.29916666666666, 23.8], [86.3, 23.8], [86.30083333333333, 23.8], [86.30083333333333, 23.799166666666665], [86.30083333333333, 23.798333333333332], [86.30166666666668, 23.798333333333332], [86.30166666666668, 23.799166666666665], [86.30250000000001, 23.799166666666665], [86.30250000000001, 23.798333333333332], [86.30333333333334, 23.798333333333332], [86.30333333333334, 23.799166666666665], [86.30333333333334, 23.8], [86.30416666666667, 23.8], [86.305, 23.8], [86.305, 23.799166666666665], [86.30583333333334, 23.799166666666665], [86.30583333333334, 23.798333333333332], [86.305, 23.798333333333332], [86.305, 23.7975], [86.305, 23.796666666666667], [86.305, 23.795833333333334], [86.305, 23.794999999999998], [86.30416666666667, 23.794999999999998], [86.30333333333334, 23.794999999999998], [86.30250000000001, 23.794999999999998], [86.30166666666668, 23.794999999999998], [86.30166666666668, 23.794166666666666], [86.30083333333333, 23.794166666666666], [86.30083333333333, 23.794999999999998], [86.3, 23.794999999999998], [86.29916666666666, 23.794999999999998], [86.29916666666666, 23.795833333333334], [86.29916666666666, 23.796666666666667], [86.3, 23.796666666666667], [86.30083333333333, 23.796666666666667]]]}}, {"type": "Feature", "properties": {"product": "water_loss", "area_ha": 7.84}, "geometry": {"type": "Polygon", "coordinates": [[[86.31083333333333, 23.805833333333332], [86.31083333333333, 23.805], [86.31083333333333, 23.804166666666667], [86.31166666666667, 23.804166666666667], [86.3125, 23.804166666666667], [86.31333333333333, 23.804166666666667], [86.31416666666667, 23.804166666666667], [86.31416666666667, 23.80333333333333], [86.31416666666667, 23.8025], [86.31333333333333, 23.8025], [86.3125, 23.8025], [86.31166666666667, 23.8025], [86.31166666666667, 23.80333333333333], [86.31083333333333, 23.80333333333333], [86.31, 23.80333333333333], [86.31, 23.804166666666667], [86.31, 23.805], [86.31, 23.805833333333332], [86.31083333333333, 23.805833333333332]]]}}, {"type": "Feature", "properties": {"product": "water_loss", "area_ha": 7.06}, "geometry": {"type": "Polygon", "coordinates": [[[86.31833333333334, 23.76833333333333], [86.31833333333334, 23.769166666666667], [86.31833333333334, 23.77], [86.31916666666667, 23.77], [86.31916666666667, 23.769166666666667], [86.31916666666667, 23.76833333333333], [86.32000000000001, 23.76833333333333], [86.32000000000001, 23.7675], [86.31916666666667, 23.7675], [86.31916666666667, 23.766666666666666], [86.31833333333334, 23.766666666666666], [86.31750000000001, 23.766666666666666], [86.31666666666666, 23.766666666666666], [86.31583333333333, 23.766666666666666], [86.31583333333333, 23.7675], [86.31666666666666, 23.7675], [86.31750000000001, 23.7675], [86.31750000000001, 23.76833333333333], [86.31833333333334, 23.76833333333333]]]}}, {"type": "Feature", "properties": {"product": "water_loss", "area_ha": 11.76}, "geometry": {"type": "Polygon", "coordinates": [[[86.31833333333334, 23.77583333333333], [86.31916666666667, 23.77583333333333], [86.31916666666667, 23.776666666666667], [86.32000000000001, 23.776666666666667], [86.32083333333334, 23.776666666666667], [86.32166666666667, 23.776666666666667], [86.32166666666667, 23.77583333333333], [86.3225, 23.77583333333333], [86.3225, 23.775], [86.32333333333334, 23.775], [86.32333333333334, 23.774166666666666], [86.3225, 23.774166666666666], [86.3225, 23.773333333333333], [86.32166666666667, 23.773333333333333], [86.32166666666667, 23.774166666666666], [86.32083333333334, 23.774166666666666], [86.32083333333334, 23.773333333333333], [86.32000000000001, 23.773333333333333], [86.32000000000001, 23.7725], [86.31916666666667, 23.7725], [86.31916666666667, 23.773333333333333], [86.31916666666667, 23.774166666666666], [86.32000000000001, 23.774166666666666], [86.32000000000001, 23.775], [86.31916666666667, 23.775], [86.31833333333334, 23.775], [86.31833333333334, 23.77583333333333]], [[86.32083333333334, 23.77583333333333], [86.32083333333334, 23.775], [86.32166666666667, 23.775], [86.32166666666667, 23.77583333333333], [86.32083333333334, 23.77583333333333]]]}}, {"type": "Feature", "properties": {"product": "water_loss", "area_ha": 9.41}, "geometry": {"type": "Polygon", "coordinates": [[[86.31333333333333, 23.811666666666667], [86.31416666666667, 23.811666666666667], [86.315, 23.811666666666667], [86.31583333333333, 23.811666666666667], [86.31666666666666, 23.811666666666667], [86.31666666666666, 23.81083333333333], [86.31750000000001, 23.81083333333333], [86.31750000000001, 23.81], [86.31750000000001, 23.809166666666666], [86.31666666666666, 23.809166666666666], [86.31666666666666, 23.808333333333334], [86.31583333333333, 23.808333333333334], [86.315, 23.808333333333334], [86.315, 23.809166666666666], [86.31583333333333, 23.809166666666666], [86.31583333333333, 23.81], [86.31583333333333, 23.81083333333333], [86.315, 23.81083333333333], [86.315, 23.81], [86.31416666666667, 23.81], [86.31333333333333, 23.81], [86.31333333333333, 23.81083333333333], [86.31333333333333, 23.811666666666667]]]}}, {"type": "Feature", "properties": {"product": "water_loss", "area_ha": 14.11}, "geometry": {"type": "Polygon", "coordinates": [[[86.32583333333334, 23.77583333333333], [86.32666666666667, 23.77583333333333], [86.3275, 23.77583333333333], [86.3275, 23.776666666666667], [86.32833333333333, 23.776666666666667], [86.32833333333333, 23.7775], [86.32916666666667, 23.7775], [86.32916666666667, 23.776666666666667], [86.32916666666667, 23.77583333333333], [86.33, 23.77583333333333], [86.33, 23.775], [86.33, 23.774166666666666], [86.32916666666667, 23.774166666666666], [86.32833333333333, 23.774166666666666], [86.32833333333333, 23.773333333333333], [86.32916666666667, 23.773333333333333], [86.32916666666667, 23.7725], [86.32833333333333, 23.7725], [86.3275, 23.7725], [86.3275, 23.773333333333333], [86.32666666666667, 23.773333333333333], [86.32583333333334, 23.773333333333333], [86.32583333333334, 23.774166666666666], [86.32583333333334, 23.775], [86.325, 23.775], [86.325, 23.77583333333333], [86.32583333333334, 23.77583333333333]], [[86.32666666666667, 23.774166666666666], [86.3275, 23.774166666666666], [86.3275, 23.775], [86.32666666666667, 23.775], [86.32666666666667, 23.774166666666666]]]}}, {"type": "Feature", "properties": {"product": "water_loss", "area_ha": 7.84}, "geometry": {"type": "Polygon", "coordinates": [[[86.32583333333334, 23.798333333333332], [86.32666666666667, 23.798333333333332], [86.32666666666667, 23.799166666666665], [86.3275, 23.799166666666665], [86.32833333333333, 23.799166666666665], [86.32833333333333, 23.798333333333332], [86.3275, 23.798333333333332], [86.3275, 23.7975], [86.32833333333333, 23.7975], [86.32833333333333, 23.796666666666667], [86.32916666666667, 23.796666666666667], [86.33, 23.796666666666667], [86.33, 23.795833333333334], [86.32916666666667, 23.795833333333334], [86.32916666666667, 23.794999999999998], [86.32833333333333, 23.794999999999998], [86.32833333333333, 23.795833333333334], [86.3275, 23.795833333333334], [86.3275, 23.796666666666667], [86.32666666666667, 23.796666666666667], [86.32666666666667, 23.7975], [86.32583333333334, 23.7975], [86.32583333333334, 23.798333333333332]]]}}, {"type": "Feature", "properties": {"product": "water_loss", "area_ha": 28.22}, "geometry": {"type": "Polygon", "coordinates": [[[86.3225, 23.806666666666665], [86.3225, 23.8075], [86.32333333333334, 23.8075], [86.32333333333334, 23.808333333333334], [86.32333333333334, 23.809166666666666], [86.3225, 23.809166666666666], [86.3225, 23.81], [86.32166666666667, 23.81], [86.32166666666667, 23.809166666666666], [86.32083333333334, 23.809166666666666], [86.32000000000001, 23.809166666666666], [86.32000000000001, 23.81], [86.32083333333334, 23.81], [86.32083333333334, 23.81083333333333], [86.32166666666667, 23.81083333333333], [86.32166666666667, 23.811666666666667], [86.3225, 23.811666666666667], [86.3225, 23.8125], [86.32333333333334, 23.8125], [86.32333333333334, 23.811666666666667], [86.32416666666667, 23.811666666666667], [86.325, 23.811666666666667], [86.32583333333334, 23.811666666666667], [86.32583333333334, 23.81083333333333], [86.325, 23.81083333333333], [86.325, 23.81], [86.32583333333334, 23.81], [86.32583333333334, 23.809166666666666], [86.32666666666667, 23.809166666666666], [86.3275, 23.809166666666666], [86.32833333333333, 23.809166666666666], [86.32833333333333, 23.808333333333334], [86.32833333333333, 23.8075], [86.3275, 23.8075], [86.32666666666667, 23.8075], [86.32666666666667, 23.808333333333334], [86.32583333333334, 23.808333333333334], [86.325, 23.808333333333334], [86.32416666666667, 23.808333333333334], [86.32416666666667, 23.8075], [86.325, 23.8075], [86.325, 23.806666666666665], [86.32583333333334, 23.806666666666665], [86.32666666666667, 23.806666666666665], [86.32666666666667, 23.805833333333332], [86.32583333333334, 23.805833333333332], [86.325, 23.805833333333332], [86.32416666666667, 23.805833333333332], [86.32416666666667, 23.805], [86.32333333333334, 23.805], [86.32333333333334, 23.805833333333332], [86.3225, 23.805833333333332], [86.32166666666667, 23.805833333333332], [86.32083333333334, 23.805833333333332], [86.32083333333334, 23.806666666666665], [86.32166666666667, 23.806666666666665], [86.3225, 23.806666666666665]], [[86.32333333333334, 23.81], [86.32333333333334, 23.81083333333333], [86.3225, 23.81083333333333], [86.3225, 23.81], [86.32333333333334, 23.81]]]}}, {"type": "Feature", "properties": {"product": "water_loss", "area_ha": 101.13}, "geometry": {"type": "Polygon", "coordinates": [[[86.33333333333334, 23.776666666666667], [86.3325, 23.776666666666667], [86.3325, 23.7775], [86.3325, 23.778333333333332], [86.33333333333334, 23.778333333333332], [86.33333333333334, 23.7775], [86.33416666666668, 23.7775], [86.33416666666668, 23.778333333333332], [86.33416666666668, 23.779166666666665], [86.33333333333334, 23.779166666666665], [86.33333333333334, 23.779999999999998], [86.3325, 23.779999999999998], [86.33166666666666, 23.779999999999998], [86.33166666666666, 23.780833333333334], [86.33166666666666, 23.781666666666666], [86.33166666666666, 23.7825], [86.3325, 23.7825], [86.3325, 23.78333333333333], [86.3325, 23.784166666666668], [86.33333333333334, 23.784166666666668], [86.33333333333334, 23.78333333333333], [86.33416666666668, 23.78333333333333], [86.33500000000001, 23.78333333333333], [86.33583333333334, 23.78333333333333], [86.33666666666667, 23.78333333333333], [86.33666666666667, 23.7825], [86.3375, 23.7825], [86.3375, 23.781666666666666], [86.33833333333334, 23.781666666666666], [86.33916666666667, 23.781666666666666], [86.34, 23.781666666666666], [86.34083333333334, 23.781666666666666], [86.34083333333334, 23.780833333333334], [86.34083333333334, 23.779999999999998], [86.34166666666667, 23.779999999999998], [86.34166666666667, 23.779166666666665], [86.34166666666667, 23.778333333333332], [86.34166666666667, 23.7775], [86.3425, 23.7775], [86.34333333333333, 23.7775], [86.34416666666667, 23.7775], [86.34416666666667, 23.776666666666667], [86.345, 23.776666666666667], [86.34583333333333, 23.776666666666667], [86.34583333333333, 23.7775], [86.34583333333333, 23.778333333333332], [86.34666666666666, 23.778333333333332], [86.34666666666666, 23.7775], [86.3475, 23.7775], [86.34833333333333, 23.7775], [86.34833333333333, 23.776666666666667], [86.34833333333333, 23.77583333333333], [86.34833333333333, 23.775], [86.34833333333333, 23.774166666666666], [86.3475, 23.774166666666666], [86.3475, 23.775], [86.34666666666666, 23.775], [86.34666666666666, 23.774166666666666], [86.34666666666666, 23.773333333333333], [86.34666666666666, 23.7725], [86.34583333333333, 23.7725], [86.34583333333333, 23.773333333333333], [86.34583333333333, 23.774166666666666], [86.345, 23.774166666666666], [86.345, 23.775], [86.345, 23.77583333333333], [86.34416666666667, 23.77583333333333], [86.34416666666667, 23.775], [86.34416666666667, 23.774166666666666], [86.34416666666667, 23.773333333333333], [86.34333333333333, 23.773333333333333], [86.34333333333333, 23.7725], [86.3425, 23.7725], [86.3425, 23.773333333333333], [86.34166666666667, 23.773333333333333], [86.34166666666667, 23.7725], [86.34083333333334, 23.7725], [86.34, 23.7725], [86.34, 23.773333333333333], [86.34, 23.774166666666666], [86.33916666666667, 23.774166666666666], [86.33833333333334, 23.774166666666666], [86.3375, 23.774166666666666], [86.3375, 23.773333333333333], [86.3375, 23.7725], [86.33666666666667, 23.7725], [86.33583333333334, 23.7725], [86.33500000000001, 23.7725], [86.33416666666668, 23.7725], [86.33416666666668, 23.773333333333333], [86.33333333333334, 23.773333333333333], [86.33333333333334, 23.774166666666666], [86.33333333333334, 23.775], [86.33333333333334, 23.77583333333333], [86.33333333333334, 23.776666666666667]], [[86.33583333333334, 23.7825], [86.33500000000001, 23.7825], [86.33416666666668, 23.7825], [86.33416666666668, 23.781666666666666], [86.33500000000001, 23.781666666666666], [86.33500000000001, 23.780833333333334], [86.33500000000001, 23.779999999999998], [86.33583333333334, 23.779999999999998], [86.33583333333334, 23.779166666666665], [86.33583333333334, 23.778333333333332], [86.33666666666667, 23.778333333333332], [86.33666666666667, 23.7775], [86.3375, 23.7775], [86.33833333333334, 23.7775], [86.33833333333334, 23.778333333333332], [86.33833333333334, 23.779166666666665], [86.3375, 23.779166666666665], [86.3375, 23.779999999999998], [86.33666666666667, 23.779999999999998], [86.33666666666667, 23.780833333333334], [86.33666666666667, 23.781666666666666], [86.33666666666667, 23.7825], [86.33583333333334, 23.7825]], [[86.33583333333334, 23.7775], [86.33583333333334, 23.776666666666667], [86.33583333333334, 23.77583333333333], [86.33666666666667, 23.77583333333333], [86.33666666666667, 23.776666666666667], [86.33666666666667, 23.7775], [86.33583333333334, 23.7775]], [[86.34583333333333, 23.77583333333333], [86.34666666666666, 23.77583333333333], [86.3475, 23.77583333333333], [86.3475, 23.776666666666667], [86.34666666666666, 23.776666666666667], [86.34583333333333, 23.776666666666667], [86.34583333333333, 23.77583333333333]], [[86.3375, 23.775], [86.33666666666667, 23.775], [86.33666666666667, 23.774166666666666], [86.3375, 23.774166666666666], [86.3375, 23.775]], [[86.33500000000001, 23.773333333333333], [86.33500000000001, 23.774166666666666], [86.33416666666668, 23.774166666666666], [86.33416666666668, 23.773333333333333], [86.33500000000001, 23.773333333333333]], [[86.34, 23.77583333333333], [86.34083333333334, 23.77583333333333], [86.34083333333334, 23.776666666666667], [86.34, 23.776666666666667], [86.33916666666667, 23.776666666666667], [86.33916666666667, 23.77583333333333], [86.34, 23.77583333333333]], [[86.34, 23.779999999999998], [86.33916666666667, 23.779999999999998], [86.33916666666667, 23.779166666666665], [86.34, 23.779166666666665], [86.34, 23.779999999999998]]]}}, {"type": "Feature", "properties": {"product": "water_loss", "area_ha": 60.36}, "geometry": {"type": "Polygon", "coordinates": [[[86.33583333333334, 23.794166666666666], [86.33666666666667, 23.794166666666666], [86.33666666666667, 23.793333333333333], [86.3375, 23.793333333333333], [86.3375, 23.794166666666666], [86.33833333333334, 23.794166666666666], [86.33833333333334, 23.794999999999998], [86.33916666666667, 23.794999999999998], [86.34, 23.794999999999998], [86.34083333333334, 23.794999999999998], [86.34166666666667, 23.794999999999998], [86.34166666666667, 23.795833333333334], [86.34083333333334, 23.795833333333334], [86.34, 23.795833333333334], [86.34, 23.796666666666667], [86.34083333333334, 23.796666666666667], [86.34083333333334, 23.7975], [86.34166666666667, 23.7975], [86.34166666666667, 23.796666666666667], [86.3425, 23.796666666666667], [86.34333333333333, 23.796666666666667], [86.34333333333333, 23.7975], [86.34416666666667, 23.7975], [86.34416666666667, 23.796666666666667], [86.34416666666667, 23.795833333333334], [86.34416666666667, 23.794999999999998], [86.34416666666667, 23.794166666666666], [86.345, 23.794166666666666], [86.345, 23.793333333333333], [86.345, 23.7925], [86.34583333333333, 23.7925], [86.34583333333333, 23.793333333333333], [86.34666666666666, 23.793333333333333], [86.34666666666666, 23.794166666666666], [86.34583333333333, 23.794166666666666], [86.34583333333333, 23.794999999999998], [86.34583333333333, 23.795833333333334], [86.34666666666666, 23.795833333333334], [86.34666666666666, 23.796666666666667], [86.34666666666666, 23.7975], [86.3475, 23.7975], [86.3475, 23.796666666666667], [86.34833333333333, 23.796666666666667], [86.34833333333333, 23.795833333333334], [86.34833333333333, 23.794999999999998], [86.34916666666668, 23.794999999999998], [86.35000000000001, 23.794999999999998], [86.35000000000001, 23.794166666666666], [86.35000000000001, 23.793333333333333], [86.35000000000001, 23.7925], [86.35083333333334, 23.7925], [86.35083333333334, 23.793333333333333], [86.35166666666667, 23.793333333333333], [86.35166666666667, 23.7925], [86.35166666666667, 23.791666666666664], [86.35083333333334, 23.791666666666664], [86.35000000000001, 23.791666666666664], [86.34916666666668, 23.791666666666664], [86.34916666666668, 23.79083333333333], [86.34833333333333, 23.79083333333333], [86.34833333333333, 23.791666666666664], [86.3475, 23.791666666666664], [86.34666666666666, 23.791666666666664], [86.34583333333333, 23.791666666666664], [86.34583333333333, 23.79083333333333], [86.345, 23.79083333333333], [86.34416666666667, 23.79083333333333], [86.34416666666667, 23.79], [86.34333333333333, 23.79], [86.3425, 23.79], [86.3425, 23.79083333333333], [86.34166666666667, 23.79083333333333], [86.34166666666667, 23.791666666666664], [86.3425, 23.791666666666664], [86.34333333333333, 23.791666666666664], [86.34416666666667, 23.791666666666664], [86.34416666666667, 23.7925], [86.34416666666667, 23.793333333333333], [86.34333333333333, 23.793333333333333], [86.3425, 23.793333333333333], [86.3425, 23.794166666666666], [86.34166666666667, 23.794166666666666], [86.34166666666667, 23.793333333333333], [86.34083333333334, 23.793333333333333], [86.34, 23.793333333333333], [86.34, 23.7925], [86.33916666666667, 23.7925], [86.33833333333334, 23.7925], [86.33833333333334, 23.791666666666664], [86.3375, 23.791666666666664], [86.33666666666667, 23.791666666666664], [86.33583333333334, 23.791666666666664], [86.33500000000001, 23.791666666666664], [86.33500000000001, 23.7925], [86.33416666666668, 23.7925], [86.33416666666668, 23.793333333333333], [86.33416666666668, 23.794166666666666], [86.33500000000001, 23.794166666666666], [86.33583333333334, 23.794166666666666]], [[86.33583333333334, 23.7925], [86.33583333333334, 23.793333333333333], [86.33500000000001, 23.793333333333333], [86.33500000000001, 23.7925], [86.33583333333334, 23.7925]]]}}, {"type": "Feature", "properties": {"product": "water_loss", "area_ha": 7.84}, "geometry": {"type": "Polygon", "coordinates": [[[86.33666666666667, 23.798333333333332], [86.33666666666667, 23.799166666666665], [86.3375, 23.799166666666665], [86.3375, 23.798333333333332], [86.33833333333334, 23.798333333333332], [86.33916666666667, 23.798333333333332], [86.34, 23.798333333333332], [86.34083333333334, 23.798333333333332], [86.34083333333334, 23.7975], [86.34, 23.7975], [86.34, 23.796666666666667], [86.33916666666667, 23.796666666666667], [86.33833333333334, 23.796666666666667], [86.3375, 23.796666666666667], [86.33666666666667, 23.796666666666667], [86.33666666666667, 23.7975], [86.33666666666667, 23.798333333333332]]]}}, {"type": "Feature", "properties": {"product": "water_loss", "area_ha": 6.27}, "geometry": {"type": "Polygon", "coordinates": [[[86.33083333333333, 23.7975], [86.33, 23.7975], [86.32916666666667, 23.7975], [86.32916666666667, 23.798333333333332], [86.33, 23.798333333333332], [86.33083333333333, 23.798333333333332], [86.33166666666666, 23.798333333333332], [86.33166666666666, 23.799166666666665], [86.3325, 23.799166666666665], [86.3325, 23.798333333333332], [86.33333333333334, 23.798333333333332], [86.33333333333334, 23.7975], [86.33333333333334, 23.796666666666667], [86.3325, 23.796666666666667], [86.33166666666666, 23.796666666666667], [86.33166666666666, 23.7975], [86.33083333333333, 23.7975]]]}}, {"type": "Feature", "properties": {"product": "water_loss", "area_ha": 10.19}, "geometry": {"type": "Polygon", "coordinates": [[[86.34166666666667, 23.76833333333333], [86.34166666666667, 23.769166666666667], [86.3425, 23.769166666666667], [86.3425, 23.77], [86.34333333333333, 23.77], [86.34333333333333, 23.769166666666667], [86.34333333333333, 23.76833333333333], [86.34416666666667, 23.76833333333333], [86.34416666666667, 23.7675], [86.34416666666667, 23.766666666666666], [86.345, 23.766666666666666], [86.345, 23.765833333333333], [86.345, 23.765], [86.34416666666667, 23.765], [86.34416666666667, 23.764166666666664], [86.34333333333333, 23.764166666666664], [86.3425, 23.764166666666664], [86.3425, 23.765], [86.34333333333333, 23.765], [86.34333333333333, 23.765833333333333], [86.34333333333333, 23.766666666666666], [86.34333333333333, 23.7675], [86.3425, 23.7675], [86.34166666666667, 23.7675], [86.34166666666667, 23.76833333333333]]]}}, {"type": "Feature", "properties": {"product": "water_loss", "area_ha": 6.27}, "geometry": {"type": "Polygon", "coordinates": [[[86.34833333333333, 23.771666666666665], [86.34833333333333, 23.770833333333332], [86.34916666666668, 23.770833333333332], [86.34916666666668, 23.77], [86.34833333333333, 23.77], [86.3475, 23.77], [86.34666666666666, 23.77], [86.34666666666666, 23.769166666666667], [86.3475, 23.769166666666667], [86.3475, 23.76833333333333], [86.34666666666666, 23.76833333333333], [86.34583333333333, 23.76833333333333], [86.34583333333333, 23.769166666666667], [86.34583333333333, 23.77], [86.34583333333333, 23.770833333333332], [86.34666666666666, 23.770833333333332], [86.3475, 23.770833333333332], [86.3475, 23.771666666666665], [86.34833333333333, 23.771666666666665]]]}}, {"type": "Feature", "properties": {"product": "water_loss", "area_ha": 10.97}, "geometry": {"type": "Polygon", "coordinates": [[[86.34, 23.786666666666665], [86.34, 23.787499999999998], [86.34083333333334, 23.787499999999998], [86.34083333333334, 23.788333333333334], [86.34166666666667, 23.788333333333334], [86.3425, 23.788333333333334], [86.3425, 23.787499999999998], [86.34333333333333, 23.787499999999998], [86.34333333333333, 23.786666666666665], [86.34416666666667, 23.786666666666665], [86.34416666666667, 23.785833333333333], [86.34333333333333, 23.785833333333333], [86.3425, 23.785833333333333], [86.3425, 23.785], [86.34333333333333, 23.785], [86.34416666666667, 23.785], [86.34416666666667, 23.784166666666668], [86.34333333333333, 23.784166666666668], [86.3425, 23.784166666666668], [86.34166666666667, 23.784166666666668], [86.34166666666667, 23.785], [86.34166666666667, 23.785833333333333], [86.34083333333334, 23.785833333333333], [86.34083333333334, 23.786666666666665], [86.34, 23.786666666666665]]]}}, {"type": "Feature", "properties": {"product": "water_loss", "area_ha": 6.27}, "geometry": {"type": "Polygon", "coordinates": [[[86.34083333333334, 23.8025], [86.34083333333334, 23.80333333333333], [86.34083333333334, 23.804166666666667], [86.34166666666667, 23.804166666666667], [86.3425, 23.804166666666667], [86.3425, 23.805], [86.34333333333333, 23.805], [86.34333333333333, 23.804166666666667], [86.34416666666667, 23.804166666666667], [86.34416666666667, 23.80333333333333], [86.34416666666667, 23.8025], [86.34333333333333, 23.8025], [86.3425, 23.8025], [86.3425, 23.80333333333333], [86.34166666666667, 23.80333333333333], [86.34166666666667, 23.8025], [86.34083333333334, 23.8025]]]}}, {"type": "Feature", "properties": {"product": "water_loss", "area_ha": 7.06}, "geometry": {"type": "Polygon", "coordinates": [[[86.34916666666668, 23.766666666666666], [86.34916666666668, 23.7675], [86.35000000000001, 23.7675], [86.35000000000001, 23.766666666666666], [86.35083333333334, 23.766666666666666], [86.35083333333334, 23.765833333333333], [86.35000000000001, 23.765833333333333], [86.35000000000001, 23.765], [86.34916666666668, 23.765], [86.34833333333333, 23.765], [86.3475, 23.765], [86.3475, 23.765833333333333], [86.34666666666666, 23.765833333333333], [86.34666666666666, 23.766666666666666], [86.3475, 23.766666666666666], [86.34833333333333, 23.766666666666666], [86.34916666666668, 23.766666666666666]]]}}, {"type": "Feature", "properties": {"product": "water_loss", "area_ha": 7.84}, "geometry": {"type": "Polygon", "coordinates": [[[86.36833333333334, 23.7925], [86.36833333333334, 23.793333333333333], [86.36916666666667, 23.793333333333333], [86.37, 23.793333333333333], [86.37083333333334, 23.793333333333333], [86.37166666666667, 23.793333333333333], [86.37166666666667, 23.7925], [86.37166666666667, 23.791666666666664], [86.37083333333334, 23.791666666666664], [86.37083333333334, 23.79083333333333], [86.37, 23.79083333333333], [86.37, 23.791666666666664], [86.36916666666667, 23.791666666666664], [86.36833333333334, 23.791666666666664], [86.3675, 23.791666666666664], [86.3675, 23.7925], [86.36833333333334, 23.7925]]]}}, {"type": "Feature", "properties": {"product": "water_loss", "area_ha": 39.19}, "geometry": {"type": "Polygon", "coordinates": [[[86.38166666666667, 23.7925], [86.38166666666667, 23.793333333333333], [86.38083333333334, 23.793333333333333], [86.38000000000001, 23.793333333333333], [86.38000000000001, 23.794166666666666], [86.38000000000001, 23.794999999999998], [86.38000000000001, 23.795833333333334], [86.38083333333334, 23.795833333333334], [86.38083333333334, 23.796666666666667], [86.38000000000001, 23.796666666666667], [86.37916666666666, 23.796666666666667], [86.37916666666666, 23.7975], [86.37833333333333, 23.7975], [86.37833333333333, 23.798333333333332], [86.37916666666666, 23.798333333333332], [86.37916666666666, 23.799166666666665], [86.37916666666666, 23.8], [86.38000000000001, 23.8], [86.38083333333334, 23.8], [86.38083333333334, 23.799166666666665], [86.38166666666667, 23.799166666666665], [86.38250000000001, 23.799166666666665], [86.38333333333334, 23.799166666666665], [86.38333333333334, 23.798333333333332], [86.38416666666667, 23.798333333333332], [86.38416666666667, 23.7975], [86.38416666666667, 23.796666666666667], [86.385, 23.796666666666667], [86.385, 23.795833333333334], [86.385, 23.794999999999998], [86.38583333333334, 23.794999999999998], [86.38583333333334, 23.794166666666666], [86.385, 23.794166666666666], [86.385, 23.793333333333333], [86.38583333333334, 23.793333333333333], [86.38583333333334, 23.7925], [86.38666666666667, 23.7925], [86.3875, 23.7925], [86.3875, 23.791666666666664], [86.38666666666667, 23.791666666666664], [86.38666666666667, 23.79083333333333], [86.38583333333334, 23.79083333333333], [86.385, 23.79083333333333], [86.38416666666667, 23.79083333333333], [86.38416666666667, 23.791666666666664], [86.38333333333334, 23.791666666666664], [86.38333333333334, 23.7925], [86.38250000000001, 23.7925], [86.38166666666667, 23.7925]], [[86.38333333333334, 23.796666666666667], [86.38333333333334, 23.7975], [86.38250000000001, 23.7975], [86.38166666666667, 23.7975], [86.38166666666667, 23.796666666666667], [86.38166666666667, 23.795833333333334], [86.38166666666667, 23.794999999999998], [86.38250000000001, 23.794999999999998], [86.38250000000001, 23.795833333333334], [86.38333333333334, 23.795833333333334], [86.38416666666667, 23.795833333333334], [86.38416666666667, 23.796666666666667], [86.38333333333334, 23.796666666666667]], [[86.38250000000001, 23.794166666666666], [86.38250000000001, 23.793333333333333], [86.38333333333334, 23.793333333333333], [86.38333333333334, 23.794166666666666], [86.38250000000001, 23.794166666666666]]]}}, {"type": "Feature", "properties": {"product": "water_loss", "area_ha": 12.55}, "geometry": {"type": "Polygon", "coordinates": [[[86.39083333333333, 23.689166666666665], [86.39083333333333, 23.689999999999998], [86.39166666666667, 23.689999999999998], [86.3925, 23.689999999999998], [86.39333333333333, 23.689999999999998], [86.39333333333333, 23.689166666666665], [86.3925, 23.689166666666665], [86.3925, 23.688333333333333], [86.3925, 23.6875], [86.3925, 23.686666666666667], [86.39166666666667, 23.686666666666667], [86.39083333333333, 23.686666666666667], [86.39083333333333, 23.6875], [86.39, 23.6875], [86.39, 23.686666666666667], [86.38916666666667, 23.686666666666667], [86.38833333333334, 23.686666666666667], [86.38833333333334, 23.6875], [86.38833333333334, 23.688333333333333], [86.38916666666667, 23.688333333333333], [86.38916666666667, 23.689166666666665], [86.39, 23.689166666666665], [86.39083333333333, 23.689166666666665]]]}}, {"type": "Feature", "properties": {"product": "water_loss", "area_ha": 8.62}, "geometry": {"type": "Polygon", "coordinates": [[[86.39583333333334, 23.753333333333334], [86.395, 23.753333333333334], [86.395, 23.754166666666666], [86.39583333333334, 23.754166666666666], [86.39583333333334, 23.755], [86.39666666666668, 23.755], [86.39666666666668, 23.754166666666666], [86.39750000000001, 23.754166666666666], [86.39750000000001, 23.753333333333334], [86.39750000000001, 23.752499999999998], [86.39750000000001, 23.751666666666665], [86.39750000000001, 23.750833333333333], [86.39666666666668, 23.750833333333333], [86.39583333333334, 23.750833333333333], [86.39583333333334, 23.751666666666665], [86.395, 23.751666666666665], [86.395, 23.752499999999998], [86.39583333333334, 23.752499999999998], [86.39583333333334, 23.753333333333334]]]}}, {"type": "Feature", "properties": {"product": "water_loss", "area_ha": 14.9}, "geometry": {"type": "Polygon", "coordinates": [[[86.38666666666667, 23.7675], [86.38666666666667, 23.76833333333333], [86.38583333333334, 23.76833333333333], [86.38583333333334, 23.769166666666667], [86.38666666666667, 23.769166666666667], [86.3875, 23.769166666666667], [86.3875, 23.77], [86.3875, 23.770833333333332], [86.3875, 23.771666666666665], [86.38833333333334, 23.771666666666665], [86.38916666666667, 23.771666666666665], [86.38916666666667, 23.770833333333332], [86.38833333333334, 23.770833333333332], [86.38833333333334, 23.77], [86.38833333333334, 23.769166666666667], [86.38833333333334, 23.76833333333333], [86.38916666666667, 23.76833333333333], [86.38916666666667, 23.7675], [86.39, 23.7675], [86.39083333333333, 23.7675], [86.39166666666667, 23.7675], [86.39166666666667, 23.766666666666666], [86.39166666666667, 23.765833333333333], [86.39166666666667, 23.765], [86.39083333333333, 23.765], [86.39, 23.765], [86.39, 23.765833333333333], [86.38916666666667, 23.765833333333333], [86.38916666666667, 23.766666666666666], [86.38833333333334, 23.766666666666666], [86.38833333333334, 23.7675], [86.3875, 23.7675], [86.38666666666667, 23.7675]]]}}, {"type": "Feature", "properties": {"product": "water_loss", "area_ha": 36.06}, "geometry": {"type": "Polygon", "coordinates": [[[86.3925, 23.771666666666665], [86.3925, 23.770833333333332], [86.39166666666667, 23.770833333333332], [86.39166666666667, 23.77], [86.39083333333333, 23.77], [86.39083333333333, 23.770833333333332], [86.39083333333333, 23.771666666666665], [86.39166666666667, 23.771666666666665], [86.39166666666667, 23.7725], [86.39166666666667, 23.773333333333333], [86.39083333333333, 23.773333333333333], [86.39083333333333, 23.774166666666666], [86.39166666666667, 23.774166666666666], [86.39166666666667, 23.775], [86.3925, 23.775], [86.3925, 23.77583333333333], [86.3925, 23.776666666666667], [86.39166666666667, 23.776666666666667], [86.39166666666667, 23.7775], [86.39166666666667, 23.778333333333332], [86.39166666666667, 23.779166666666665], [86.3925, 23.779166666666665], [86.39333333333333, 23.779166666666665], [86.39333333333333, 23.779999999999998], [86.39416666666666, 23.779999999999998], [86.395, 23.779999999999998], [86.395, 23.779166666666665], [86.39583333333334, 23.779166666666665], [86.39666666666668, 23.779166666666665], [86.39666666666668, 23.778333333333332], [86.39583333333334, 23.778333333333332], [86.395, 23.778333333333332], [86.395, 23.7775], [86.39583333333334, 23.7775], [86.39666666666668, 23.7775], [86.39750000000001, 23.7775], [86.39833333333334, 23.7775], [86.39833333333334, 23.776666666666667], [86.39833333333334, 23.77583333333333], [86.39833333333334, 23.775], [86.39916666666667, 23.775], [86.39916666666667, 23.774166666666666], [86.39833333333334, 23.774166666666666], [86.39750000000001, 23.774166666666666], [86.39750000000001, 23.775], [86.39750000000001, 23.77583333333333], [86.39666666666668, 23.77583333333333], [86.39666666666668, 23.775], [86.39583333333334, 23.775], [86.395, 23.775], [86.39416666666666, 23.775], [86.39416666666666, 23.774166666666666], [86.39333333333333, 23.774166666666666], [86.39333333333333, 23.773333333333333], [86.3925, 23.773333333333333], [86.3925, 23.7725], [86.39333333333333, 23.7725], [86.39333333333333, 23.771666666666665], [86.3925, 23.771666666666665]], [[86.39416666666666, 23.77583333333333], [86.39333333333333, 23.77583333333333], [86.39333333333333, 23.775], [86.39416666666666, 23.775], [86.39416666666666, 23.77583333333333]]]}}, {"type": "Feature", "properties": {"product": "water_loss", "area_ha": 7.06}, "geometry": {"type": "Polygon", "coordinates": [[[86.38666666666667, 23.7825], [86.3875, 23.7825], [86.38833333333334, 23.7825], [86.38916666666667, 23.7825], [86.38916666666667, 23.781666666666666], [86.38833333333334, 23.781666666666666], [86.38833333333334, 23.780833333333334], [86.3875, 23.780833333333334], [86.3875, 23.779999999999998], [86.3875, 23.779166666666665], [86.38666666666667, 23.779166666666665], [86.38666666666667, 23.778333333333332], [86.38583333333334, 23.778333333333332], [86.38583333333334, 23.779166666666665], [86.38583333333334, 23.779999999999998], [86.38666666666667, 23.779999999999998], [86.38666666666667, 23.780833333333334], [86.38666666666667, 23.781666666666666], [86.38666666666667, 23.7825]]]}}, {"type": "Feature", "properties": {"product": "water_loss", "area_ha": 27.46}, "geometry": {"type": "Polygon", "coordinates": [[[86.39833333333334, 23.675833333333333], [86.39750000000001, 23.675833333333333], [86.39750000000001, 23.676666666666666], [86.39666666666668, 23.676666666666666], [86.39583333333334, 23.676666666666666], [86.39583333333334, 23.675833333333333], [86.395, 23.675833333333333], [86.395, 23.676666666666666], [86.395, 23.6775], [86.39583333333334, 23.6775], [86.39583333333334, 23.67833333333333], [86.39666666666668, 23.67833333333333], [86.39750000000001, 23.67833333333333], [86.39750000000001, 23.6775], [86.39833333333334, 23.6775], [86.39916666666667, 23.6775], [86.39916666666667, 23.676666666666666], [86.4, 23.676666666666666], [86.40083333333334, 23.676666666666666], [86.40166666666667, 23.676666666666666], [86.4025, 23.676666666666666], [86.4025, 23.6775], [86.40333333333334, 23.6775], [86.40416666666667, 23.6775], [86.40416666666667, 23.676666666666666], [86.405, 23.676666666666666], [86.405, 23.675833333333333], [86.405, 23.675], [86.40416666666667, 23.675], [86.40416666666667, 23.674166666666665], [86.405, 23.674166666666665], [86.405, 23.673333333333332], [86.40416666666667, 23.673333333333332], [86.40333333333334, 23.673333333333332], [86.40333333333334, 23.674166666666665], [86.4025, 23.674166666666665], [86.4025, 23.675], [86.40166666666667, 23.675], [86.40166666666667, 23.674166666666665], [86.40166666666667, 23.673333333333332], [86.4025, 23.673333333333332], [86.4025, 23.6725], [86.40166666666667, 23.6725], [86.40083333333334, 23.6725], [86.40083333333334, 23.673333333333332], [86.40083333333334, 23.674166666666665], [86.4, 23.674166666666665], [86.4, 23.675], [86.39916666666667, 23.675], [86.39916666666667, 23.675833333333333], [86.39833333333334, 23.675833333333333]]]}}, {"type": "Feature", "properties": {"product": "water_loss", "area_ha": 11.76}, "geometry": {"type": "Polygon", "coordinates": [[[86.39833333333334, 23.7625], [86.39916666666667, 23.7625], [86.4, 23.7625], [86.4, 23.763333333333332], [86.40083333333334, 23.763333333333332], [86.40166666666667, 23.763333333333332], [86.40166666666667, 23.7625], [86.40166666666667, 23.761666666666667], [86.40083333333334, 23.761666666666667], [86.40083333333334, 23.760833333333334], [86.40083333333334, 23.759999999999998], [86.40083333333334, 23.759166666666665], [86.4, 23.759166666666665], [86.39916666666667, 23.759166666666665], [86.39916666666667, 23.759999999999998], [86.39833333333334, 23.759999999999998], [86.39833333333334, 23.760833333333334], [86.39833333333334, 23.761666666666667], [86.39750000000001, 23.761666666666667], [86.39750000000001, 23.7625], [86.39833333333334, 23.7625]]]}}, {"type": "Feature", "properties": {"product": "water_loss", "area_ha": 13.33}, "geometry": {"type": "Polygon", "coordinates": [[[86.4, 23.76833333333333], [86.4, 23.769166666666667], [86.40083333333334, 23.769166666666667], [86.40083333333334, 23.77], [86.40166666666667, 23.77], [86.40166666666667, 23.770833333333332], [86.4025, 23.770833333333332], [86.4025, 23.771666666666665], [86.40333333333334, 23.771666666666665], [86.40333333333334, 23.770833333333332], [86.40333333333334, 23.77], [86.4025, 23.77], [86.4025, 23.769166666666667], [86.40166666666667, 23.769166666666667], [86.40166666666667, 23.76833333333333], [86.40083333333334, 23.76833333333333], [86.40083333333334, 23.7675], [86.40083333333334, 23.766666666666666], [86.4, 23.766666666666666], [86.4, 23.765833333333333], [86.39916666666667, 23.765833333333333], [86.39833333333334, 23.765833333333333], [86.39833333333334, 23.765], [86.39750000000001, 23.765], [86.39750000000001, 23.764166666666664], [86.39666666666668, 23.764166666666664], [86.39666666666668, 23.765], [86.39666666666668, 23.765833333333333], [86.39750000000001, 23.765833333333333], [86.39750000000001, 23.766666666666666], [86.39833333333334, 23.766666666666666], [86.39916666666667, 23.766666666666666], [86.39916666666667, 23.7675], [86.39916666666667, 23.76833333333333], [86.4, 23.76833333333333]]]}}, {"type": "Feature", "properties": {"product": "water_loss", "area_ha": 21.17}, "geometry": {"type": "Polygon", "coordinates": [[[86.405, 23.775], [86.40416666666667, 23.775], [86.40333333333334, 23.775], [86.4025, 23.775], [86.40166666666667, 23.775], [86.40083333333334, 23.775], [86.40083333333334, 23.77583333333333], [86.40166666666667, 23.77583333333333], [86.40166666666667, 23.776666666666667], [86.4025, 23.776666666666667], [86.4025, 23.7775], [86.4025, 23.778333333333332], [86.4025, 23.779166666666665], [86.4025, 23.779999999999998], [86.40333333333334, 23.779999999999998], [86.40416666666667, 23.779999999999998], [86.40416666666667, 23.779166666666665], [86.405, 23.779166666666665], [86.405, 23.778333333333332], [86.405, 23.7775], [86.40583333333333, 23.7775], [86.40666666666667, 23.7775], [86.4075, 23.7775], [86.4075, 23.776666666666667], [86.4075, 23.77583333333333], [86.40666666666667, 23.77583333333333], [86.40583333333333, 23.77583333333333], [86.40583333333333, 23.775], [86.405, 23.775]]]}}, {"type": "Feature", "properties": {"product": "water_loss", "area_ha": 6.27}, "geometry": {"type": "Polygon", "coordinates": [[[86.405, 23.759166666666665], [86.405, 23.758333333333333], [86.40583333333333, 23.758333333333333], [86.40666666666667, 23.758333333333333], [86.40666666666667, 23.7575], [86.40583333333333, 23.7575], [86.40583333333333, 23.756666666666668], [86.40583333333333, 23.75583333333333], [86.405, 23.75583333333333], [86.405, 23.756666666666668], [86.40416666666667, 23.756666666666668], [86.40416666666667, 23.7575], [86.40333333333334, 23.7575], [86.40333333333334, 23.758333333333333], [86.40416666666667, 23.758333333333333], [86.40416666666667, 23.759166666666665], [86.405, 23.759166666666665]]]}}, {"type": "Feature", "properties": {"product": "water_loss", "area_ha": 6.27}, "geometry": {"type": "Polygon", "coordinates": [[[86.40833333333333, 23.7725], [86.40833333333333, 23.773333333333333], [86.40833333333333, 23.774166666666666], [86.40916666666666, 23.774166666666666], [86.40916666666666, 23.773333333333333], [86.40916666666666, 23.7725], [86.40916666666666, 23.771666666666665], [86.40833333333333, 23.771666666666665], [86.4075, 23.771666666666665], [86.40666666666667, 23.771666666666665], [86.40666666666667, 23.770833333333332], [86.40583333333333, 23.770833333333332], [86.40583333333333, 23.771666666666665], [86.405, 23.771666666666665], [86.405, 23.7725], [86.40583333333333, 23.7725], [86.40666666666667, 23.7725], [86.4075, 23.7725], [86.40833333333333, 23.7725]]]}}, {"type": "Feature", "properties": {"product": "water_loss", "area_ha": 7.84}, "geometry": {"type": "Polygon", "coordinates": [[[86.41, 23.779999999999998], [86.41, 23.780833333333334], [86.41, 23.781666666666666], [86.41083333333333, 23.781666666666666], [86.41083333333333, 23.780833333333334], [86.41083333333333, 23.779999999999998], [86.41166666666668, 23.779999999999998], [86.41166666666668, 23.779166666666665], [86.41250000000001, 23.779166666666665], [86.41333333333334, 23.779166666666665], [86.41333333333334, 23.778333333333332], [86.41333333333334, 23.7775], [86.41333333333334, 23.776666666666667], [86.41250000000001, 23.776666666666667], [86.41250000000001, 23.7775], [86.41250000000001, 23.778333333333332], [86.41166666666668, 23.778333333333332], [86.41083333333333, 23.778333333333332], [86.41, 23.778333333333332], [86.41, 23.779166666666665], [86.41, 23.779999999999998]]]}}, {"type": "Feature", "properties": {"product": "water_loss", "area_ha": 6.27}, "geometry": {"type": "Polygon", "coordinates": [[[86.42750000000001, 23.715833333333332], [86.42833333333334, 23.715833333333332], [86.42833333333334, 23.715], [86.42916666666667, 23.715], [86.42916666666667, 23.715833333333332], [86.43, 23.715833333333332], [86.43, 23.715], [86.43, 23.714166666666667], [86.42916666666667, 23.714166666666667], [86.42833333333334, 23.714166666666667], [86.42750000000001, 23.714166666666667], [86.42666666666668, 23.714166666666667], [86.42583333333333, 23.714166666666667], [86.42583333333333, 23.715], [86.42666666666668, 23.715], [86.42666666666668, 23.715833333333332], [86.42750000000001, 23.715833333333332]]]}}, {"type": "Feature", "properties": {"product": "water_loss", "area_ha": 15.68}, "geometry": {"type": "Polygon", "coordinates": [[[86.42833333333334, 23.732499999999998], [86.42916666666667, 23.732499999999998], [86.43, 23.732499999999998], [86.43083333333334, 23.732499999999998], [86.43083333333334, 23.733333333333334], [86.43166666666667, 23.733333333333334], [86.43166666666667, 23.732499999999998], [86.43166666666667, 23.731666666666666], [86.43166666666667, 23.730833333333333], [86.43083333333334, 23.730833333333333], [86.43, 23.730833333333333], [86.43, 23.73], [86.43, 23.729166666666664], [86.42916666666667, 23.729166666666664], [86.42916666666667, 23.72833333333333], [86.43, 23.72833333333333], [86.43, 23.7275], [86.43, 23.726666666666667], [86.42916666666667, 23.726666666666667], [86.42833333333334, 23.726666666666667], [86.42833333333334, 23.7275], [86.42833333333334, 23.72833333333333], [86.42833333333334, 23.729166666666664], [86.42750000000001, 23.729166666666664], [86.42750000000001, 23.73], [86.42750000000001, 23.730833333333333], [86.42750000000001, 23.731666666666666], [86.42833333333334, 23.731666666666666], [86.42833333333334, 23.732499999999998]], [[86.42916666666667, 23.730833333333333], [86.42833333333334, 23.730833333333333], [86.42833333333334, 23.73], [86.42916666666667, 23.73], [86.42916666666667, 23.730833333333333]]]}}, {"type": "Feature", "properties": {"product": "water_loss", "area_ha": 7.84}, "geometry": {"type": "Polygon", "coordinates": [[[86.42750000000001, 23.75], [86.42833333333334, 23.75], [86.42833333333334, 23.749166666666667], [86.42833333333334, 23.74833333333333], [86.42916666666667, 23.74833333333333], [86.43, 23.74833333333333], [86.43, 23.7475], [86.43083333333334, 23.7475], [86.43166666666667, 23.7475], [86.43166666666667, 23.746666666666666], [86.43083333333334, 23.746666666666666], [86.43, 23.746666666666666], [86.42916666666667, 23.746666666666666], [86.42833333333334, 23.746666666666666], [86.42750000000001, 23.746666666666666], [86.42750000000001, 23.7475], [86.42750000000001, 23.74833333333333], [86.42750000000001, 23.749166666666667], [86.42750000000001, 23.75]]]}}, {"type": "Feature", "properties": {"product": "water_loss", "area_ha": 6.27}, "geometry": {"type": "Polygon", "coordinates": [[[86.42416666666666, 23.75583333333333], [86.42416666666666, 23.756666666666668], [86.425, 23.756666666666668], [86.425, 23.75583333333333], [86.42583333333333, 23.75583333333333], [86.42583333333333, 23.755], [86.42666666666668, 23.755], [86.42666666666668, 23.754166666666666], [86.42750000000001, 23.754166666666666], [86.42750000000001, 23.753333333333334], [86.42750000000001, 23.752499999999998], [86.42666666666668, 23.752499999999998], [86.42666666666668, 23.753333333333334], [86.42583333333333, 23.753333333333334], [86.42583333333333, 23.754166666666666], [86.425, 23.754166666666666], [86.425, 23.755], [86.42416666666666, 23.755], [86.42416666666666, 23.75583333333333]]]}}, {"type": "Feature", "properties": {"product": "water_loss", "area_ha": 18.03}, "geometry": {"type": "Polygon", "coordinates": [[[86.41916666666667, 23.800833333333333], [86.41833333333334, 23.800833333333333], [86.4175, 23.800833333333333], [86.4175, 23.801666666666666], [86.4175, 23.8025], [86.4175, 23.80333333333333], [86.4175, 23.804166666666667], [86.41833333333334, 23.804166666666667], [86.41833333333334, 23.80333333333333], [86.41916666666667, 23.80333333333333], [86.41916666666667, 23.8025], [86.42, 23.8025], [86.42083333333333, 23.8025], [86.42083333333333, 23.801666666666666], [86.42166666666667, 23.801666666666666], [86.4225, 23.801666666666666], [86.4225, 23.800833333333333], [86.42333333333333, 23.800833333333333], [86.42333333333333, 23.8], [86.42333333333333, 23.799166666666665], [86.42333333333333, 23.798333333333332], [86.4225, 23.798333333333332], [86.4225, 23.799166666666665], [86.42166666666667, 23.799166666666665], [86.42083333333333, 23.799166666666665], [86.42, 23.799166666666665], [86.42, 23.8], [86.41916666666667, 23.8], [86.41916666666667, 23.800833333333333]]]}}, {"type": "Feature", "properties": {"product": "water_loss", "area_ha": 7.06}, "geometry": {"type": "Polygon", "coordinates": [[[86.43166666666667, 23.7], [86.43166666666667, 23.700833333333332], [86.4325, 23.700833333333332], [86.43333333333334, 23.700833333333332], [86.43333333333334, 23.7], [86.43333333333334, 23.699166666666667], [86.4325, 23.699166666666667], [86.4325, 23.698333333333334], [86.43166666666667, 23.698333333333334], [86.43166666666667, 23.699166666666667], [86.43083333333334, 23.699166666666667], [86.43083333333334, 23.698333333333334], [86.43, 23.698333333333334], [86.42916666666667, 23.698333333333334], [86.42916666666667, 23.699166666666667], [86.43, 23.699166666666667], [86.43, 23.7], [86.43083333333334, 23.7], [86.43166666666667, 23.7]]]}}, {"type": "Feature", "properties": {"product": "water_loss", "area_ha": 7.84}, "geometry": {"type": "Polygon", "coordinates": [[[86.44250000000001, 23.724166666666665], [86.44250000000001, 23.724999999999998], [86.44250000000001, 23.725833333333334], [86.44250000000001, 23.726666666666667], [86.44333333333334, 23.726666666666667], [86.44416666666667, 23.726666666666667], [86.44500000000001, 23.726666666666667], [86.44583333333334, 23.726666666666667], [86.44583333333334, 23.725833333333334], [86.44500000000001, 23.725833333333334], [86.44416666666667, 23.725833333333334], [86.44416666666667, 23.724999999999998], [86.44416666666667, 23.724166666666665], [86.44333333333334, 23.724166666666665], [86.44333333333334, 23.723333333333333], [86.44250000000001, 23.723333333333333], [86.44166666666666, 23.723333333333333], [86.44166666666666, 23.724166666666665], [86.44250000000001, 23.724166666666665]]]}}, {"type": "Feature", "properties": {"product": "water_loss", "area_ha": 10.98}, "geometry": {"type": "Polygon", "coordinates": [[[86.44083333333333, 23.735833333333332], [86.44, 23.735833333333332], [86.43916666666667, 23.735833333333332], [86.43916666666667, 23.736666666666665], [86.43833333333333, 23.736666666666665], [86.43833333333333, 23.7375], [86.4375, 23.7375], [86.4375, 23.738333333333333], [86.43833333333333, 23.738333333333333], [86.43916666666667, 23.738333333333333], [86.43916666666667, 23.7375], [86.44, 23.7375], [86.44083333333333, 23.7375], [86.44083333333333, 23.736666666666665], [86.44166666666666, 23.736666666666665], [86.44250000000001, 23.736666666666665], [86.44333333333334, 23.736666666666665], [86.44333333333334, 23.7375], [86.44416666666667, 23.7375], [86.44416666666667, 23.736666666666665], [86.44416666666667, 23.735833333333332], [86.44333333333334, 23.735833333333332], [86.44250000000001, 23.735833333333332], [86.44250000000001, 23.735], [86.44250000000001, 23.734166666666667], [86.44166666666666, 23.734166666666667], [86.44166666666666, 23.735], [86.44166666666666, 23.735833333333332], [86.44083333333333, 23.735833333333332]]]}}, {"type": "Feature", "properties": {"product": "water_loss", "area_ha": 16.47}, "geometry": {"type": "Polygon", "coordinates": [[[86.43416666666667, 23.758333333333333], [86.435, 23.758333333333333], [86.43583333333333, 23.758333333333333], [86.43583333333333, 23.759166666666665], [86.43666666666667, 23.759166666666665], [86.4375, 23.759166666666665], [86.43833333333333, 23.759166666666665], [86.43833333333333, 23.759999999999998], [86.43916666666667, 23.759999999999998], [86.43916666666667, 23.759166666666665], [86.43916666666667, 23.758333333333333], [86.43916666666667, 23.7575], [86.43833333333333, 23.7575], [86.43833333333333, 23.756666666666668], [86.43833333333333, 23.75583333333333], [86.4375, 23.75583333333333], [86.4375, 23.756666666666668], [86.43666666666667, 23.756666666666668], [86.43666666666667, 23.75583333333333], [86.43583333333333, 23.75583333333333], [86.43583333333333, 23.755], [86.435, 23.755], [86.435, 23.75583333333333], [86.435, 23.756666666666668], [86.43416666666667, 23.756666666666668], [86.43333333333334, 23.756666666666668], [86.43333333333334, 23.7575], [86.43416666666667, 23.7575], [86.43416666666667, 23.758333333333333]]]}}, {"type": "Feature", "properties": {"product": "water_loss", "area_ha": 6.27}, "geometry": {"type": "Polygon", "coordinates": [[[86.43, 23.759166666666665], [86.42916666666667, 23.759166666666665], [86.42916666666667, 23.759999999999998], [86.43, 23.759999999999998], [86.43083333333334, 23.759999999999998], [86.43166666666667, 23.759999999999998], [86.43166666666667, 23.760833333333334], [86.4325, 23.760833333333334], [86.4325, 23.759999999999998], [86.43333333333334, 23.759999999999998], [86.43333333333334, 23.759166666666665], [86.4325, 23.759166666666665], [86.4325, 23.758333333333333], [86.43166666666667, 23.758333333333333], [86.43083333333334, 23.758333333333333], [86.43083333333334, 23.759166666666665], [86.43, 23.759166666666665]]]}}, {"type": "Feature", "properties": {"product": "water_loss", "area_ha": 80.04}, "geometry": {"type": "Polygon", "coordinates": [[[86.48833333333333, 23.659166666666668], [86.48833333333333, 23.66], [86.48916666666668, 23.66], [86.49000000000001, 23.66], [86.49083333333334, 23.66], [86.49083333333334, 23.660833333333333], [86.49000000000001, 23.660833333333333], [86.49000000000001, 23.661666666666665], [86.48916666666668, 23.661666666666665], [86.48833333333333, 23.661666666666665], [86.48833333333333, 23.662499999999998], [86.48833333333333, 23.663333333333334], [86.48916666666668, 23.663333333333334], [86.48916666666668, 23.662499999999998], [86.49000000000001, 23.662499999999998], [86.49083333333334, 23.662499999999998], [86.49083333333334, 23.661666666666665], [86.49166666666667, 23.661666666666665], [86.4925, 23.661666666666665], [86.4925, 23.662499999999998], [86.49333333333334, 23.662499999999998], [86.49333333333334, 23.661666666666665], [86.49416666666667, 23.661666666666665], [86.49416666666667, 23.660833333333333], [86.49416666666667, 23.66], [86.49416666666667, 23.659166666666668], [86.49416666666667, 23.65833333333333], [86.49416666666667, 23.6575], [86.49416666666667, 23.656666666666666], [86.495, 23.656666666666666], [86.495, 23.6575], [86.495, 23.65833333333333], [86.49583333333334, 23.65833333333333], [86.49666666666667, 23.65833333333333], [86.49666666666667, 23.6575], [86.49583333333334, 23.6575], [86.49583333333334, 23.656666666666666], [86.49583333333334, 23.655833333333334], [86.49666666666667, 23.655833333333334], [86.4975, 23.655833333333334], [86.49833333333333, 23.655833333333334], [86.49833333333333, 23.654999999999998], [86.49916666666667, 23.654999999999998], [86.49916666666667, 23.654166666666665], [86.5, 23.654166666666665], [86.5, 23.653333333333332], [86.5, 23.6525], [86.5, 23.651666666666667], [86.5, 23.65083333333333], [86.49916666666667, 23.65083333333333], [86.49833333333333, 23.65083333333333], [86.49833333333333, 23.65], [86.4975, 23.65], [86.49666666666667, 23.65], [86.49583333333334, 23.65], [86.495, 23.65], [86.49416666666667, 23.65], [86.49333333333334, 23.65], [86.4925, 23.65], [86.4925, 23.65083333333333], [86.4925, 23.651666666666667], [86.49333333333334, 23.651666666666667], [86.49333333333334, 23.6525], [86.49333333333334, 23.653333333333332], [86.49333333333334, 23.654166666666665], [86.49333333333334, 23.654999999999998], [86.4925, 23.654999999999998], [86.4925, 23.655833333333334], [86.49166666666667, 23.655833333333334], [86.49166666666667, 23.656666666666666], [86.49166666666667, 23.6575], [86.49083333333334, 23.6575], [86.49083333333334, 23.656666666666666], [86.49000000000001, 23.656666666666666], [86.48916666666668, 23.656666666666666], [86.48916666666668, 23.655833333333334], [86.48916666666668, 23.654999999999998], [86.48916666666668, 23.654166666666665], [86.48833333333333, 23.654166666666665], [86.48833333333333, 23.654999999999998], [86.48833333333333, 23.655833333333334], [86.4875, 23.655833333333334], [86.4875, 23.656666666666666], [86.48666666666666, 23.656666666666666], [86.48583333333333, 23.656666666666666], [86.48583333333333, 23.6575], [86.48583333333333, 23.65833333333333], [86.48583333333333, 23.659166666666668], [86.48666666666666, 23.659166666666668], [86.4875, 23.659166666666668], [86.48833333333333, 23.659166666666668]], [[86.49083333333334, 23.659166666666668], [86.49166666666667, 23.659166666666668], [86.4925, 23.659166666666668], [86.49333333333334, 23.659166666666668], [86.49333333333334, 23.66], [86.49333333333334, 23.660833333333333], [86.4925, 23.660833333333333], [86.49166666666667, 23.660833333333333], [86.49166666666667, 23.66], [86.49083333333334, 23.66], [86.49083333333334, 23.659166666666668]], [[86.49000000000001, 23.659166666666668], [86.49000000000001, 23.65833333333333], [86.49083333333334, 23.65833333333333], [86.49083333333334, 23.659166666666668], [86.49000000000001, 23.659166666666668]], [[86.49833333333333, 23.654166666666665], [86.49833333333333, 23.653333333333332], [86.49833333333333, 23.6525], [86.49916666666667, 23.6525], [86.49916666666667, 23.653333333333332], [86.49916666666667, 23.654166666666665], [86.49833333333333, 23.654166666666665]], [[86.48916666666668, 23.6575], [86.48833333333333, 23.6575], [86.48833333333333, 23.656666666666666], [86.48916666666668, 23.656666666666666], [86.48916666666668, 23.6575]], [[86.4925, 23.6575], [86.4925, 23.656666666666666], [86.49333333333334, 23.656666666666666], [86.49333333333334, 23.6575], [86.49333333333334, 23.65833333333333], [86.4925, 23.65833333333333], [86.4925, 23.6575]], [[86.49666666666667, 23.651666666666667], [86.49666666666667, 23.6525], [86.49583333333334, 23.6525], [86.49583333333334, 23.651666666666667], [86.49666666666667, 23.651666666666667]], [[86.4975, 23.654166666666665], [86.49666666666667, 23.654166666666665], [86.49666666666667, 23.653333333333332], [86.4975, 23.653333333333332], [86.4975, 23.654166666666665]], [[86.495, 23.653333333333332], [86.49583333333334, 23.653333333333332], [86.49583333333334, 23.654166666666665], [86.495, 23.654166666666665], [86.495, 23.653333333333332]]]}}, {"type": "Feature", "properties": {"product": "water_loss", "area_ha": 14.12}, "geometry": {"type": "Polygon", "coordinates": [[[86.48416666666667, 23.661666666666665], [86.48416666666667, 23.662499999999998], [86.485, 23.662499999999998], [86.48583333333333, 23.662499999999998], [86.48583333333333, 23.663333333333334], [86.48583333333333, 23.664166666666667], [86.48666666666666, 23.664166666666667], [86.48666666666666, 23.665], [86.4875, 23.665], [86.4875, 23.664166666666667], [86.48833333333333, 23.664166666666667], [86.48833333333333, 23.663333333333334], [86.4875, 23.663333333333334], [86.4875, 23.662499999999998], [86.4875, 23.661666666666665], [86.48833333333333, 23.661666666666665], [86.48833333333333, 23.660833333333333], [86.48833333333333, 23.66], [86.4875, 23.66], [86.48666666666666, 23.66], [86.48583333333333, 23.66], [86.485, 23.66], [86.485, 23.660833333333333], [86.485, 23.661666666666665], [86.48416666666667, 23.661666666666665]]]}}, {"type": "Feature", "properties": {"product": "water_loss", "area_ha": 9.41}, "geometry": {"type": "Polygon", "coordinates": [[[86.44916666666667, 23.7025], [86.44916666666667, 23.701666666666664], [86.44833333333334, 23.701666666666664], [86.4475, 23.701666666666664], [86.44666666666667, 23.701666666666664], [86.44583333333334, 23.701666666666664], [86.44500000000001, 23.701666666666664], [86.44500000000001, 23.7025], [86.44500000000001, 23.703333333333333], [86.44583333333334, 23.703333333333333], [86.44666666666667, 23.703333333333333], [86.4475, 23.703333333333333], [86.44833333333334, 23.703333333333333], [86.44833333333334, 23.704166666666666], [86.44916666666667, 23.704166666666666], [86.44916666666667, 23.703333333333333], [86.45, 23.703333333333333], [86.45, 23.7025], [86.44916666666667, 23.7025]]]}}, {"type": "Feature", "properties": {"product": "water_loss", "area_ha": 6.27}, "geometry": {"type": "Polygon", "coordinates": [[[86.455, 23.71333333333333], [86.455, 23.714166666666667], [86.455, 23.715], [86.45416666666667, 23.715], [86.45416666666667, 23.715833333333332], [86.45416666666667, 23.716666666666665], [86.455, 23.716666666666665], [86.455, 23.715833333333332], [86.45583333333333, 23.715833333333332], [86.45583333333333, 23.715], [86.45583333333333, 23.714166666666667], [86.45583333333333, 23.71333333333333], [86.45583333333333, 23.7125], [86.455, 23.7125], [86.455, 23.711666666666666], [86.45416666666667, 23.711666666666666], [86.45416666666667, 23.7125], [86.45416666666667, 23.71333333333333], [86.455, 23.71333333333333]]]}}, {"type": "Feature", "properties": {"product": "water_loss", "area_ha": 10.2}, "geometry": {"type": "Polygon", "coordinates": [[[86.44583333333334, 23.724999999999998], [86.44666666666667, 23.724999999999998], [86.44666666666667, 23.725833333333334], [86.4475, 23.725833333333334], [86.4475, 23.724999999999998], [86.44833333333334, 23.724999999999998], [86.44916666666667, 23.724999999999998], [86.44916666666667, 23.724166666666665], [86.44833333333334, 23.724166666666665], [86.44833333333334, 23.723333333333333], [86.4475, 23.723333333333333], [86.44666666666667, 23.723333333333333], [86.44666666666667, 23.7225], [86.44583333333334, 23.7225], [86.44500000000001, 23.7225], [86.44500000000001, 23.723333333333333], [86.44416666666667, 23.723333333333333], [86.44416666666667, 23.724166666666665], [86.44500000000001, 23.724166666666665], [86.44500000000001, 23.724999999999998], [86.44583333333334, 23.724999999999998]]]}}], "properties": {"aoi": "jharia", "product": "water_loss", "total_ha": 1092.1, "n_patches": 60}}