{"type": "FeatureCollection", "features": [{"type": "Feature", "properties": {"product": "bare_expansion", "area_ha": 12.21}, "geometry": {"type": "Polygon", "coordinates": [[[93.90916666666666, 27.079166666666666], [93.90916666666666, 27.08], [93.90833333333333, 27.08], [93.9075, 27.08], [93.9075, 27.080833333333334], [93.90833333333333, 27.080833333333334], [93.90916666666666, 27.080833333333334], [93.91, 27.080833333333334], [93.91, 27.08], [93.91083333333333, 27.08], [93.91083333333333, 27.079166666666666], [93.91166666666666, 27.079166666666666], [93.91166666666666, 27.078333333333333], [93.9125, 27.078333333333333], [93.9125, 27.0775], [93.9125, 27.076666666666668], [93.91333333333333, 27.076666666666668], [93.91333333333333, 27.075833333333332], [93.91333333333333, 27.075], [93.9125, 27.075], [93.91166666666666, 27.075], [93.91166666666666, 27.075833333333332], [93.91166666666666, 27.076666666666668], [93.91166666666666, 27.0775], [93.91083333333333, 27.0775], [93.91, 27.0775], [93.91, 27.078333333333333], [93.90916666666666, 27.078333333333333], [93.90916666666666, 27.079166666666666]]]}}, {"type": "Feature", "properties": {"product": "bare_expansion", "area_ha": 9.17}, "geometry": {"type": "Polygon", "coordinates": [[[93.99416666666666, 26.974166666666665], [93.99499999999999, 26.974166666666665], [93.99499999999999, 26.975], [93.99499999999999, 26.975833333333334], [93.99499999999999, 26.976666666666667], [93.99499999999999, 26.9775], [93.99583333333332, 26.9775], [93.99583333333332, 26.976666666666667], [93.99583333333332, 26.975833333333334], [93.99666666666666, 26.975833333333334], [93.99666666666666, 26.976666666666667], [93.99749999999999, 26.976666666666667], [93.99749999999999, 26.975833333333334], [93.99749999999999, 26.975], [93.99666666666666, 26.975], [93.99583333333332, 26.975], [93.99583333333332, 26.974166666666665], [93.99583333333332, 26.973333333333333], [93.99499999999999, 26.973333333333333], [93.99499999999999, 26.9725], [93.99416666666666, 26.9725], [93.99416666666666, 26.971666666666668], [93.99333333333333, 26.971666666666668], [93.99333333333333, 26.9725], [93.99333333333333, 26.973333333333333], [93.99416666666666, 26.973333333333333], [93.99416666666666, 26.974166666666665]]]}}], "properties": {"aoi": "papum-pare", "product": "bare_expansion", "total_ha": 21.4, "n_patches": 2}}