{"type": "FeatureCollection", "features": [{"type": "Feature", "properties": {"product": "new_water", "area_ha": 136.88}, "geometry": {"type": "Polygon", "coordinates": [[[93.83333333333333, 26.85], [93.8325, 26.85], [93.83166666666666, 26.85], [93.83083333333333, 26.85], [93.83, 26.85], [93.82916666666667, 26.85], [93.82833333333333, 26.85], [93.8275, 26.85], [93.82666666666667, 26.85], [93.82583333333332, 26.85], [93.82583333333332, 26.850833333333334], [93.82666666666667, 26.850833333333334], [93.8275, 26.850833333333334], [93.8275, 26.851666666666667], [93.82833333333333, 26.851666666666667], [93.82916666666667, 26.851666666666667], [93.82916666666667, 26.8525], [93.83, 26.8525], [93.83083333333333, 26.8525], [93.83083333333333, 26.85333333333333], [93.83166666666666, 26.85333333333333], [93.8325, 26.85333333333333], [93.8325, 26.854166666666668], [93.8325, 26.855], [93.83166666666666, 26.855], [93.83083333333333, 26.855], [93.83083333333333, 26.855833333333333], [93.83, 26.855833333333333], [93.83, 26.856666666666666], [93.82916666666667, 26.856666666666666], [93.82916666666667, 26.8575], [93.83, 26.8575], [93.83083333333333, 26.8575], [93.83083333333333, 26.856666666666666], [93.83166666666666, 26.856666666666666], [93.8325, 26.856666666666666], [93.8325, 26.855833333333333], [93.83333333333333, 26.855833333333333], [93.83416666666666, 26.855833333333333], [93.835, 26.855833333333333], [93.835, 26.855], [93.83583333333333, 26.855], [93.83666666666666, 26.855], [93.83749999999999, 26.855], [93.83833333333332, 26.855], [93.83916666666666, 26.855], [93.83999999999999, 26.855], [93.84083333333332, 26.855], [93.84083333333332, 26.855833333333333], [93.84166666666665, 26.855833333333333], [93.8425, 26.855833333333333], [93.8425, 26.855], [93.84166666666665, 26.855], [93.84166666666665, 26.854166666666668], [93.8425, 26.854166666666668], [93.84333333333333, 26.854166666666668], [93.84416666666667, 26.854166666666668], [93.845, 26.854166666666668], [93.84583333333333, 26.854166666666668], [93.84666666666666, 26.854166666666668], [93.8475, 26.854166666666668], [93.84833333333333, 26.854166666666668], [93.84916666666666, 26.854166666666668], [93.85, 26.854166666666668], [93.85, 26.85333333333333], [93.85083333333333, 26.85333333333333], [93.85083333333333, 26.854166666666668], [93.85166666666666, 26.854166666666668], [93.85249999999999, 26.854166666666668], [93.85333333333332, 26.854166666666668], [93.85416666666666, 26.854166666666668], [93.85499999999999, 26.854166666666668], [93.85583333333332, 26.854166666666668], [93.85583333333332, 26.855], [93.85666666666665, 26.855], [93.85749999999999, 26.855], [93.85749999999999, 26.854166666666668], [93.85749999999999, 26.85333333333333], [93.85666666666665, 26.85333333333333], [93.85666666666665, 26.8525], [93.85583333333332, 26.8525], [93.85583333333332, 26.851666666666667], [93.85499999999999, 26.851666666666667], [93.85416666666666, 26.851666666666667], [93.85333333333332, 26.851666666666667], [93.85333333333332, 26.850833333333334], [93.85249999999999, 26.850833333333334], [93.85166666666666, 26.850833333333334], [93.85166666666666, 26.85], [93.85083333333333, 26.85], [93.85, 26.85], [93.84916666666666, 26.85], [93.84833333333333, 26.85], [93.8475, 26.85], [93.84666666666666, 26.85], [93.84583333333333, 26.85], [93.845, 26.85], [93.84416666666667, 26.85], [93.84333333333333, 26.85], [93.8425, 26.85], [93.84166666666665, 26.85], [93.84083333333332, 26.85], [93.83999999999999, 26.85], [93.83916666666666, 26.85], [93.83833333333332, 26.85], [93.83749999999999, 26.85], [93.83666666666666, 26.85], [93.83583333333333, 26.85], [93.835, 26.85], [93.83416666666666, 26.85], [93.83333333333333, 26.85]]]}}, {"type": "Feature", "properties": {"product": "new_water", "area_ha": 11.44}, "geometry": {"type": "Polygon", "coordinates": [[[93.82166666666666, 27.1175], [93.82166666666666, 27.118333333333332], [93.82166666666666, 27.11916666666667], [93.82166666666666, 27.12], [93.82249999999999, 27.12], [93.82249999999999, 27.11916666666667], [93.82249999999999, 27.118333333333332], [93.82249999999999, 27.1175], [93.82333333333332, 27.1175], [93.82333333333332, 27.116666666666667], [93.82333333333332, 27.115833333333335], [93.82416666666666, 27.115833333333335], [93.82416666666666, 27.115], [93.82499999999999, 27.115], [93.82499999999999, 27.114166666666666], [93.82499999999999, 27.113333333333333], [93.82416666666666, 27.113333333333333], [93.82333333333332, 27.113333333333333], [93.82333333333332, 27.114166666666666], [93.82249999999999, 27.114166666666666], [93.82249999999999, 27.115], [93.82166666666666, 27.115], [93.82166666666666, 27.115833333333335], [93.82166666666666, 27.116666666666667], [93.82166666666666, 27.1175]]]}}, {"type": "Feature", "properties": {"product": "new_water", "area_ha": 198.77}, "geometry": {"type": "Polygon", "coordinates": [[[93.8775, 26.874166666666667], [93.87833333333333, 26.874166666666667], [93.87916666666666, 26.874166666666667], [93.87916666666666, 26.875], [93.88, 26.875], [93.88083333333333, 26.875], [93.88083333333333, 26.875833333333333], [93.88166666666666, 26.875833333333333], [93.8825, 26.875833333333333], [93.88333333333333, 26.875833333333333], [93.88333333333333, 26.876666666666665], [93.88416666666666, 26.876666666666665], [93.88499999999999, 26.876666666666665], [93.88583333333332, 26.876666666666665], [93.88583333333332, 26.8775], [93.88666666666666, 26.8775], [93.88666666666666, 26.878333333333334], [93.88749999999999, 26.878333333333334], [93.88749999999999, 26.879166666666666], [93.88749999999999, 26.88], [93.88833333333332, 26.88], [93.88833333333332, 26.88083333333333], [93.88833333333332, 26.881666666666668], [93.88916666666667, 26.881666666666668], [93.88916666666667, 26.8825], [93.88916666666667, 26.883333333333333], [93.89, 26.883333333333333], [93.89, 26.884166666666665], [93.89, 26.885], [93.89, 26.885833333333334], [93.89083333333333, 26.885833333333334], [93.89083333333333, 26.886666666666667], [93.89083333333333, 26.8875], [93.89166666666667, 26.8875], [93.89166666666667, 26.888333333333332], [93.8925, 26.888333333333332], [93.8925, 26.889166666666668], [93.8925, 26.89], [93.89333333333333, 26.89], [93.89333333333333, 26.890833333333333], [93.89416666666666, 26.890833333333333], [93.89416666666666, 26.891666666666666], [93.89416666666666, 26.8925], [93.895, 26.8925], [93.895, 26.893333333333334], [93.89583333333333, 26.893333333333334], [93.89666666666666, 26.893333333333334], [93.89666666666666, 26.894166666666667], [93.8975, 26.894166666666667], [93.8975, 26.895], [93.89833333333333, 26.895], [93.89916666666666, 26.895], [93.89999999999999, 26.895], [93.90083333333332, 26.895], [93.90166666666666, 26.895], [93.90166666666666, 26.895833333333332], [93.90083333333332, 26.895833333333332], [93.89999999999999, 26.895833333333332], [93.89916666666666, 26.895833333333332], [93.89916666666666, 26.89666666666667], [93.89999999999999, 26.89666666666667], [93.90083333333332, 26.89666666666667], [93.90166666666666, 26.89666666666667], [93.90166666666666, 26.8975], [93.90249999999999, 26.8975], [93.90249999999999, 26.898333333333333], [93.90333333333332, 26.898333333333333], [93.90416666666665, 26.898333333333333], [93.90416666666665, 26.899166666666666], [93.905, 26.899166666666666], [93.905, 26.898333333333333], [93.905, 26.8975], [93.90583333333333, 26.8975], [93.90583333333333, 26.89666666666667], [93.90583333333333, 26.895833333333332], [93.90583333333333, 26.895], [93.90666666666667, 26.895], [93.90666666666667, 26.894166666666667], [93.90583333333333, 26.894166666666667], [93.905, 26.894166666666667], [93.905, 26.893333333333334], [93.90416666666665, 26.893333333333334], [93.90333333333332, 26.893333333333334], [93.90333333333332, 26.894166666666667], [93.90249999999999, 26.894166666666667], [93.90166666666666, 26.894166666666667], [93.90166666666666, 26.893333333333334], [93.90166666666666, 26.8925], [93.90166666666666, 26.891666666666666], [93.90083333333332, 26.891666666666666], [93.89999999999999, 26.891666666666666], [93.89999999999999, 26.890833333333333], [93.90083333333332, 26.890833333333333], [93.90166666666666, 26.890833333333333], [93.90166666666666, 26.89], [93.90249999999999, 26.89], [93.90333333333332, 26.89], [93.90333333333332, 26.889166666666668], [93.90249999999999, 26.889166666666668], [93.90249999999999, 26.888333333333332], [93.90249999999999, 26.8875], [93.90166666666666, 26.8875], [93.90166666666666, 26.886666666666667], [93.90166666666666, 26.885833333333334], [93.90083333333332, 26.885833333333334], [93.90083333333332, 26.885], [93.90083333333332, 26.884166666666665], [93.89999999999999, 26.884166666666665], [93.89999999999999, 26.883333333333333], [93.89916666666666, 26.883333333333333], [93.89916666666666, 26.8825], [93.89833333333333, 26.8825], [93.89833333333333, 26.881666666666668], [93.8975, 26.881666666666668], [93.8975, 26.88083333333333], [93.89666666666666, 26.88083333333333], [93.89583333333333, 26.88083333333333], [93.895, 26.88083333333333], [93.89416666666666, 26.88083333333333], [93.89333333333333, 26.88083333333333], [93.8925, 26.88083333333333], [93.8925, 26.88], [93.89166666666667, 26.88], [93.89083333333333, 26.88], [93.89083333333333, 26.879166666666666], [93.89, 26.879166666666666], [93.89, 26.878333333333334], [93.88916666666667, 26.878333333333334], [93.88916666666667, 26.8775], [93.88833333333332, 26.8775], [93.88833333333332, 26.876666666666665], [93.88749999999999, 26.876666666666665], [93.88749999999999, 26.875833333333333], [93.88666666666666, 26.875833333333333], [93.88583333333332, 26.875833333333333], [93.88583333333332, 26.875], [93.88499999999999, 26.875], [93.88416666666666, 26.875], [93.88416666666666, 26.874166666666667], [93.88333333333333, 26.874166666666667], [93.88333333333333, 26.873333333333335], [93.8825, 26.873333333333335], [93.88166666666666, 26.873333333333335], [93.88166666666666, 26.8725], [93.88083333333333, 26.8725], [93.88, 26.8725], [93.87916666666666, 26.8725], [93.87916666666666, 26.871666666666666], [93.87833333333333, 26.871666666666666], [93.8775, 26.871666666666666], [93.87666666666667, 26.871666666666666], [93.87583333333333, 26.871666666666666], [93.875, 26.871666666666666], [93.875, 26.8725], [93.87583333333333, 26.8725], [93.87583333333333, 26.873333333333335], [93.87666666666667, 26.873333333333335], [93.8775, 26.873333333333335], [93.8775, 26.874166666666667]], [[93.89916666666666, 26.890833333333333], [93.89833333333333, 26.890833333333333], [93.89833333333333, 26.89], [93.89916666666666, 26.89], [93.89999999999999, 26.89], [93.89999999999999, 26.890833333333333], [93.89916666666666, 26.890833333333333]], [[93.8975, 26.89], [93.8975, 26.889166666666668], [93.89833333333333, 26.889166666666668], [93.89833333333333, 26.89], [93.8975, 26.89]], [[93.89666666666666, 26.889166666666668], [93.89666666666666, 26.888333333333332], [93.8975, 26.888333333333332], [93.8975, 26.889166666666668], [93.89666666666666, 26.889166666666668]], [[93.89416666666666, 26.885833333333334], [93.89333333333333, 26.885833333333334], [93.89333333333333, 26.885], [93.89416666666666, 26.885], [93.89416666666666, 26.885833333333334]]]}}, {"type": "Feature", "properties": {"product": "new_water", "area_ha": 9.16}, "geometry": {"type": "Polygon", "coordinates": [[[93.87249999999999, 27.086666666666666], [93.87166666666666, 27.086666666666666], [93.87083333333332, 27.086666666666666], [93.86999999999999, 27.086666666666666], [93.86999999999999, 27.0875], [93.87083333333332, 27.0875], [93.87166666666666, 27.0875], [93.87166666666666, 27.088333333333335], [93.87249999999999, 27.088333333333335], [93.87333333333332, 27.088333333333335], [93.87416666666667, 27.088333333333335], [93.875, 27.088333333333335], [93.87583333333333, 27.088333333333335], [93.87666666666667, 27.088333333333335], [93.8775, 27.088333333333335], [93.87833333333333, 27.088333333333335], [93.87833333333333, 27.0875], [93.8775, 27.0875], [93.87666666666667, 27.0875], [93.87583333333333, 27.0875], [93.875, 27.0875], [93.87416666666667, 27.0875], [93.87416666666667, 27.086666666666666], [93.87333333333332, 27.086666666666666], [93.87333333333332, 27.0875], [93.87249999999999, 27.0875], [93.87249999999999, 27.086666666666666]]]}}, {"type": "Feature", "properties": {"product": "new_water", "area_ha": 10.71}, "geometry": {"type": "Polygon", "coordinates": [[[93.90416666666665, 26.860833333333332], [93.90416666666665, 26.861666666666668], [93.90416666666665, 26.8625], [93.90416666666665, 26.863333333333333], [93.905, 26.863333333333333], [93.90583333333333, 26.863333333333333], [93.90583333333333, 26.8625], [93.90666666666667, 26.8625], [93.9075, 26.8625], [93.9075, 26.861666666666668], [93.90833333333333, 26.861666666666668], [93.90916666666666, 26.861666666666668], [93.91, 26.861666666666668], [93.91083333333333, 26.861666666666668], [93.91083333333333, 26.860833333333332], [93.91, 26.860833333333332], [93.90916666666666, 26.860833333333332], [93.90833333333333, 26.860833333333332], [93.9075, 26.860833333333332], [93.90666666666667, 26.860833333333332], [93.90583333333333, 26.860833333333332], [93.905, 26.860833333333332], [93.90416666666665, 26.860833333333332]]]}}, {"type": "Feature", "properties": {"product": "new_water", "area_ha": 215.56}, "geometry": {"type": "Polygon", "coordinates": [[[93.90666666666667, 26.899166666666666], [93.90666666666667, 26.9], [93.9075, 26.9], [93.90833333333333, 26.9], [93.90833333333333, 26.900833333333335], [93.90916666666666, 26.900833333333335], [93.91, 26.900833333333335], [93.91083333333333, 26.900833333333335], [93.91166666666666, 26.900833333333335], [93.91166666666666, 26.901666666666667], [93.9125, 26.901666666666667], [93.91333333333333, 26.901666666666667], [93.91416666666666, 26.901666666666667], [93.91499999999999, 26.901666666666667], [93.91499999999999, 26.9025], [93.91583333333332, 26.9025], [93.91666666666666, 26.9025], [93.91749999999999, 26.9025], [93.91749999999999, 26.903333333333332], [93.91833333333332, 26.903333333333332], [93.91916666666665, 26.903333333333332], [93.91999999999999, 26.903333333333332], [93.92083333333333, 26.903333333333332], [93.92083333333333, 26.904166666666665], [93.92166666666667, 26.904166666666665], [93.9225, 26.904166666666665], [93.92333333333333, 26.904166666666665], [93.92416666666666, 26.904166666666665], [93.925, 26.904166666666665], [93.92583333333333, 26.904166666666665], [93.92666666666666, 26.904166666666665], [93.9275, 26.904166666666665], [93.9275, 26.905], [93.92833333333333, 26.905], [93.92916666666666, 26.905], [93.92916666666666, 26.905833333333334], [93.92916666666666, 26.906666666666666], [93.92999999999999, 26.906666666666666], [93.92999999999999, 26.905833333333334], [93.92999999999999, 26.905], [93.93083333333333, 26.905], [93.93083333333333, 26.904166666666665], [93.93083333333333, 26.903333333333332], [93.92999999999999, 26.903333333333332], [93.92999999999999, 26.9025], [93.92999999999999, 26.901666666666667], [93.92916666666666, 26.901666666666667], [93.92833333333333, 26.901666666666667], [93.92833333333333, 26.900833333333335], [93.9275, 26.900833333333335], [93.9275, 26.9], [93.92666666666666, 26.9], [93.92666666666666, 26.899166666666666], [93.92666666666666, 26.898333333333333], [93.92583333333333, 26.898333333333333], [93.92583333333333, 26.8975], [93.92583333333333, 26.89666666666667], [93.925, 26.89666666666667], [93.925, 26.895833333333332], [93.92416666666666, 26.895833333333332], [93.92416666666666, 26.895], [93.92333333333333, 26.895], [93.9225, 26.895], [93.92166666666667, 26.895], [93.92083333333333, 26.895], [93.92083333333333, 26.894166666666667], [93.91999999999999, 26.894166666666667], [93.91916666666665, 26.894166666666667], [93.91833333333332, 26.894166666666667], [93.91749999999999, 26.894166666666667], [93.91749999999999, 26.893333333333334], [93.91666666666666, 26.893333333333334], [93.91583333333332, 26.893333333333334], [93.91499999999999, 26.893333333333334], [93.91416666666666, 26.893333333333334], [93.91416666666666, 26.8925], [93.91333333333333, 26.8925], [93.91333333333333, 26.891666666666666], [93.91333333333333, 26.890833333333333], [93.91333333333333, 26.89], [93.9125, 26.89], [93.9125, 26.889166666666668], [93.91166666666666, 26.889166666666668], [93.91166666666666, 26.89], [93.91166666666666, 26.890833333333333], [93.91083333333333, 26.890833333333333], [93.91, 26.890833333333333], [93.91, 26.891666666666666], [93.90916666666666, 26.891666666666666], [93.90833333333333, 26.891666666666666], [93.9075, 26.891666666666666], [93.9075, 26.8925], [93.9075, 26.893333333333334], [93.9075, 26.894166666666667], [93.9075, 26.895], [93.9075, 26.895833333333332], [93.90666666666667, 26.895833333333332], [93.90666666666667, 26.89666666666667], [93.90666666666667, 26.8975], [93.90583333333333, 26.8975], [93.90583333333333, 26.898333333333333], [93.90583333333333, 26.899166666666666], [93.90666666666667, 26.899166666666666]]]}}, {"type": "Feature", "properties": {"product": "new_water", "area_ha": 6.11}, "geometry": {"type": "Polygon", "coordinates": [[[93.90666666666667, 27.074166666666667], [93.9075, 27.074166666666667], [93.9075, 27.073333333333334], [93.90833333333333, 27.073333333333334], [93.90833333333333, 27.0725], [93.90916666666666, 27.0725], [93.90916666666666, 27.071666666666665], [93.91, 27.071666666666665], [93.91, 27.070833333333333], [93.91, 27.07], [93.90916666666666, 27.07], [93.90916666666666, 27.070833333333333], [93.90833333333333, 27.070833333333333], [93.90833333333333, 27.071666666666665], [93.9075, 27.071666666666665], [93.9075, 27.0725], [93.90666666666667, 27.0725], [93.90666666666667, 27.073333333333334], [93.90666666666667, 27.074166666666667]]]}}, {"type": "Feature", "properties": {"product": "new_water", "area_ha": 12.23}, "geometry": {"type": "Polygon", "coordinates": [[[93.92083333333333, 26.860833333333332], [93.91999999999999, 26.860833333333332], [93.91999999999999, 26.861666666666668], [93.92083333333333, 26.861666666666668], [93.92166666666667, 26.861666666666668], [93.9225, 26.861666666666668], [93.92333333333333, 26.861666666666668], [93.92416666666666, 26.861666666666668], [93.92416666666666, 26.8625], [93.925, 26.8625], [93.925, 26.861666666666668], [93.92583333333333, 26.861666666666668], [93.92666666666666, 26.861666666666668], [93.92666666666666, 26.860833333333332], [93.92583333333333, 26.860833333333332], [93.925, 26.860833333333332], [93.925, 26.86], [93.92416666666666, 26.86], [93.92416666666666, 26.859166666666667], [93.92333333333333, 26.859166666666667], [93.9225, 26.859166666666667], [93.9225, 26.86], [93.92166666666667, 26.86], [93.92083333333333, 26.86], [93.92083333333333, 26.860833333333332]]]}}, {"type": "Feature", "properties": {"product": "new_water", "area_ha": 12.23}, "geometry": {"type": "Polygon", "coordinates": [[[93.92583333333333, 26.895833333333332], [93.92666666666666, 26.895833333333332], [93.92666666666666, 26.89666666666667], [93.9275, 26.89666666666667], [93.9275, 26.8975], [93.92833333333333, 26.8975], [93.92833333333333, 26.898333333333333], [93.92916666666666, 26.898333333333333], [93.92916666666666, 26.899166666666666], [93.92999999999999, 26.899166666666666], [93.92999999999999, 26.898333333333333], [93.92999999999999, 26.8975], [93.92999999999999, 26.89666666666667], [93.92999999999999, 26.895833333333332], [93.92916666666666, 26.895833333333332], [93.92916666666666, 26.895], [93.92833333333333, 26.895], [93.9275, 26.895], [93.92666666666666, 26.895], [93.92666666666666, 26.894166666666667], [93.92583333333333, 26.894166666666667], [93.925, 26.894166666666667], [93.925, 26.895], [93.92583333333333, 26.895], [93.92583333333333, 26.895833333333332]]]}}, {"type": "Feature", "properties": {"product": "new_water", "area_ha": 6.11}, "geometry": {"type": "Polygon", "coordinates": [[[93.92416666666666, 27.015833333333333], [93.92416666666666, 27.015], [93.92416666666666, 27.014166666666668], [93.92416666666666, 27.013333333333332], [93.92416666666666, 27.0125], [93.92333333333333, 27.0125], [93.92333333333333, 27.013333333333332], [93.9225, 27.013333333333332], [93.9225, 27.014166666666668], [93.9225, 27.015], [93.9225, 27.015833333333333], [93.9225, 27.016666666666666], [93.92333333333333, 27.016666666666666], [93.92333333333333, 27.015833333333333], [93.92416666666666, 27.015833333333333]]]}}, {"type": "Feature", "properties": {"product": "new_water", "area_ha": 13.74}, "geometry": {"type": "Polygon", "coordinates": [[[93.91999999999999, 27.056666666666665], [93.91999999999999, 27.0575], [93.91999999999999, 27.058333333333334], [93.91916666666665, 27.058333333333334], [93.91833333333332, 27.058333333333334], [93.91833333333332, 27.059166666666666], [93.91916666666665, 27.059166666666666], [93.91916666666665, 27.06], [93.91999999999999, 27.06], [93.92083333333333, 27.06], [93.92083333333333, 27.059166666666666], [93.92166666666667, 27.059166666666666], [93.92166666666667, 27.058333333333334], [93.92166666666667, 27.0575], [93.9225, 27.0575], [93.9225, 27.056666666666665], [93.9225, 27.055833333333332], [93.92333333333333, 27.055833333333332], [93.92333333333333, 27.055], [93.92416666666666, 27.055], [93.92416666666666, 27.054166666666667], [93.92416666666666, 27.053333333333335], [93.92333333333333, 27.053333333333335], [93.92333333333333, 27.054166666666667], [93.9225, 27.054166666666667], [93.9225, 27.055], [93.92166666666667, 27.055], [93.92166666666667, 27.055833333333332], [93.92083333333333, 27.055833333333332], [93.92083333333333, 27.056666666666665], [93.91999999999999, 27.056666666666665]]]}}, {"type": "Feature", "properties": {"product": "new_water", "area_ha": 6.88}, "geometry": {"type": "Polygon", "coordinates": [[[93.9375, 26.86], [93.93833333333333, 26.86], [93.93833333333333, 26.859166666666667], [93.93916666666667, 26.859166666666667], [93.93916666666667, 26.858333333333334], [93.93833333333333, 26.858333333333334], [93.93833333333333, 26.8575], [93.9375, 26.8575], [93.93666666666667, 26.8575], [93.93666666666667, 26.858333333333334], [93.93583333333332, 26.858333333333334], [93.93583333333332, 26.859166666666667], [93.93583333333332, 26.86], [93.93666666666667, 26.86], [93.9375, 26.86]]]}}, {"type": "Feature", "properties": {"product": "new_water", "area_ha": 84.84}, "geometry": {"type": "Polygon", "coordinates": [[[93.94, 26.905833333333334], [93.94, 26.906666666666666], [93.94, 26.9075], [93.94083333333333, 26.9075], [93.94083333333333, 26.908333333333335], [93.94083333333333, 26.909166666666668], [93.94083333333333, 26.91], [93.94166666666666, 26.91], [93.94166666666666, 26.909166666666668], [93.94166666666666, 26.908333333333335], [93.9425, 26.908333333333335], [93.9425, 26.909166666666668], [93.94333333333333, 26.909166666666668], [93.94333333333333, 26.91], [93.94416666666666, 26.91], [93.94416666666666, 26.910833333333333], [93.945, 26.910833333333333], [93.94583333333333, 26.910833333333333], [93.94583333333333, 26.911666666666665], [93.94666666666666, 26.911666666666665], [93.94666666666666, 26.9125], [93.94749999999999, 26.9125], [93.94749999999999, 26.913333333333334], [93.94833333333332, 26.913333333333334], [93.94833333333332, 26.914166666666667], [93.94916666666666, 26.914166666666667], [93.94916666666666, 26.915], [93.94999999999999, 26.915], [93.94999999999999, 26.91583333333333], [93.95083333333332, 26.91583333333333], [93.95083333333332, 26.916666666666668], [93.95166666666667, 26.916666666666668], [93.95166666666667, 26.9175], [93.9525, 26.9175], [93.95333333333333, 26.9175], [93.95333333333333, 26.918333333333333], [93.95416666666667, 26.918333333333333], [93.95416666666667, 26.919166666666666], [93.955, 26.919166666666666], [93.955, 26.92], [93.95583333333333, 26.92], [93.95666666666666, 26.92], [93.95666666666666, 26.920833333333334], [93.9575, 26.920833333333334], [93.9575, 26.921666666666667], [93.9575, 26.9225], [93.95666666666666, 26.9225], [93.95583333333333, 26.9225], [93.955, 26.9225], [93.95416666666667, 26.9225], [93.95416666666667, 26.923333333333332], [93.95333333333333, 26.923333333333332], [93.9525, 26.923333333333332], [93.9525, 26.924166666666668], [93.95166666666667, 26.924166666666668], [93.95166666666667, 26.925], [93.9525, 26.925], [93.95333333333333, 26.925], [93.95416666666667, 26.925], [93.955, 26.925], [93.95583333333333, 26.925], [93.95583333333333, 26.924166666666668], [93.95666666666666, 26.924166666666668], [93.9575, 26.924166666666668], [93.95833333333333, 26.924166666666668], [93.95833333333333, 26.923333333333332], [93.95916666666666, 26.923333333333332], [93.96, 26.923333333333332], [93.96083333333333, 26.923333333333332], [93.96083333333333, 26.924166666666668], [93.96166666666666, 26.924166666666668], [93.96249999999999, 26.924166666666668], [93.96333333333332, 26.924166666666668], [93.96333333333332, 26.925], [93.96333333333332, 26.925833333333333], [93.96416666666666, 26.925833333333333], [93.96416666666666, 26.925], [93.96416666666666, 26.924166666666668], [93.96416666666666, 26.923333333333332], [93.96333333333332, 26.923333333333332], [93.96333333333332, 26.9225], [93.96249999999999, 26.9225], [93.96166666666666, 26.9225], [93.96083333333333, 26.9225], [93.96083333333333, 26.921666666666667], [93.96, 26.921666666666667], [93.96, 26.920833333333334], [93.95916666666666, 26.920833333333334], [93.95916666666666, 26.92], [93.95833333333333, 26.92], [93.95833333333333, 26.919166666666666], [93.9575, 26.919166666666666], [93.95666666666666, 26.919166666666666], [93.95666666666666, 26.918333333333333], [93.95583333333333, 26.918333333333333], [93.95583333333333, 26.9175], [93.955, 26.9175], [93.955, 26.916666666666668], [93.95416666666667, 26.916666666666668], [93.95333333333333, 26.916666666666668], [93.95333333333333, 26.91583333333333], [93.9525, 26.91583333333333], [93.9525, 26.915], [93.95166666666667, 26.915], [93.95166666666667, 26.914166666666667], [93.95083333333332, 26.914166666666667], [93.95083333333332, 26.913333333333334], [93.94999999999999, 26.913333333333334], [93.94999999999999, 26.9125], [93.94916666666666, 26.9125], [93.94916666666666, 26.911666666666665], [93.94833333333332, 26.911666666666665], [93.94833333333332, 26.910833333333333], [93.94749999999999, 26.910833333333333], [93.94749999999999, 26.91], [93.94749999999999, 26.909166666666668], [93.94666666666666, 26.909166666666668], [93.94583333333333, 26.909166666666668], [93.945, 26.909166666666668], [93.945, 26.908333333333335], [93.945, 26.9075], [93.94416666666666, 26.9075], [93.94416666666666, 26.906666666666666], [93.94333333333333, 26.906666666666666], [93.94333333333333, 26.905833333333334], [93.9425, 26.905833333333334], [93.9425, 26.905], [93.94166666666666, 26.905], [93.94166666666666, 26.904166666666665], [93.94083333333333, 26.904166666666665], [93.94, 26.904166666666665], [93.94, 26.903333333333332], [93.93916666666667, 26.903333333333332], [93.93916666666667, 26.904166666666665], [93.93833333333333, 26.904166666666665], [93.93833333333333, 26.905], [93.93916666666667, 26.905], [93.93916666666667, 26.905833333333334], [93.94, 26.905833333333334]]]}}, {"type": "Feature", "properties": {"product": "new_water", "area_ha": 17.56}, "geometry": {"type": "Polygon", "coordinates": [[[93.92666666666666, 27.035833333333333], [93.92666666666666, 27.036666666666665], [93.9275, 27.036666666666665], [93.9275, 27.0375], [93.9275, 27.038333333333334], [93.9275, 27.039166666666667], [93.9275, 27.04], [93.92833333333333, 27.04], [93.92916666666666, 27.04], [93.92916666666666, 27.039166666666667], [93.92916666666666, 27.038333333333334], [93.92916666666666, 27.0375], [93.92916666666666, 27.036666666666665], [93.92916666666666, 27.035833333333333], [93.92916666666666, 27.035], [93.92833333333333, 27.035], [93.92833333333333, 27.035833333333333], [93.9275, 27.035833333333333], [93.9275, 27.035], [93.9275, 27.034166666666668], [93.9275, 27.033333333333335], [93.9275, 27.0325], [93.92833333333333, 27.0325], [93.92916666666666, 27.0325], [93.92916666666666, 27.031666666666666], [93.92833333333333, 27.031666666666666], [93.92833333333333, 27.030833333333334], [93.9275, 27.030833333333334], [93.9275, 27.031666666666666], [93.92666666666666, 27.031666666666666], [93.92583333333333, 27.031666666666666], [93.92583333333333, 27.0325], [93.92583333333333, 27.033333333333335], [93.92583333333333, 27.034166666666668], [93.92666666666666, 27.034166666666668], [93.92666666666666, 27.035], [93.92666666666666, 27.035833333333333]]]}}, {"type": "Feature", "properties": {"product": "new_water", "area_ha": 13.0}, "geometry": {"type": "Polygon", "coordinates": [[[93.95416666666667, 26.8825], [93.95416666666667, 26.883333333333333], [93.955, 26.883333333333333], [93.955, 26.884166666666665], [93.95583333333333, 26.884166666666665], [93.95666666666666, 26.884166666666665], [93.9575, 26.884166666666665], [93.95833333333333, 26.884166666666665], [93.95916666666666, 26.884166666666665], [93.96, 26.884166666666665], [93.96, 26.883333333333333], [93.95916666666666, 26.883333333333333], [93.95916666666666, 26.8825], [93.95833333333333, 26.8825], [93.95833333333333, 26.881666666666668], [93.95833333333333, 26.88083333333333], [93.9575, 26.88083333333333], [93.95666666666666, 26.88083333333333], [93.95666666666666, 26.881666666666668], [93.95583333333333, 26.881666666666668], [93.95583333333333, 26.8825], [93.955, 26.8825], [93.95416666666667, 26.8825]]]}}, {"type": "Feature", "properties": {"product": "new_water", "area_ha": 6.88}, "geometry": {"type": "Polygon", "coordinates": [[[93.955, 26.895833333333332], [93.955, 26.89666666666667], [93.95583333333333, 26.89666666666667], [93.95666666666666, 26.89666666666667], [93.9575, 26.89666666666667], [93.95833333333333, 26.89666666666667], [93.95916666666666, 26.89666666666667], [93.95916666666666, 26.895833333333332], [93.95833333333333, 26.895833333333332], [93.9575, 26.895833333333332], [93.9575, 26.895], [93.95666666666666, 26.895], [93.95583333333333, 26.895], [93.955, 26.895], [93.95416666666667, 26.895], [93.95416666666667, 26.895833333333332], [93.955, 26.895833333333332]]]}}, {"type": "Feature", "properties": {"product": "new_water", "area_ha": 6.88}, "geometry": {"type": "Polygon", "coordinates": [[[93.9525, 26.913333333333334], [93.95333333333333, 26.913333333333334], [93.95333333333333, 26.914166666666667], [93.95416666666667, 26.914166666666667], [93.955, 26.914166666666667], [93.955, 26.913333333333334], [93.95416666666667, 26.913333333333334], [93.95416666666667, 26.9125], [93.95333333333333, 26.9125], [93.95333333333333, 26.911666666666665], [93.9525, 26.911666666666665], [93.9525, 26.910833333333333], [93.95166666666667, 26.910833333333333], [93.95166666666667, 26.91], [93.95083333333332, 26.91], [93.95083333333332, 26.910833333333333], [93.95083333333332, 26.911666666666665], [93.95166666666667, 26.911666666666665], [93.95166666666667, 26.9125], [93.9525, 26.9125], [93.9525, 26.913333333333334]]]}}, {"type": "Feature", "properties": {"product": "new_water", "area_ha": 6.88}, "geometry": {"type": "Polygon", "coordinates": [[[93.94416666666666, 26.916666666666668], [93.94416666666666, 26.9175], [93.945, 26.9175], [93.945, 26.916666666666668], [93.945, 26.91583333333333], [93.94416666666666, 26.91583333333333], [93.94416666666666, 26.915], [93.94416666666666, 26.914166666666667], [93.94333333333333, 26.914166666666667], [93.94333333333333, 26.913333333333334], [93.94333333333333, 26.9125], [93.9425, 26.9125], [93.9425, 26.913333333333334], [93.9425, 26.914166666666667], [93.9425, 26.915], [93.9425, 26.91583333333333], [93.94333333333333, 26.91583333333333], [93.94333333333333, 26.916666666666668], [93.94416666666666, 26.916666666666668]]]}}, {"type": "Feature", "properties": {"product": "new_water", "area_ha": 16.05}, "geometry": {"type": "Polygon", "coordinates": [[[93.94999999999999, 26.935833333333335], [93.94999999999999, 26.936666666666667], [93.95083333333332, 26.936666666666667], [93.95083333333332, 26.9375], [93.95166666666667, 26.9375], [93.9525, 26.9375], [93.9525, 26.938333333333333], [93.9525, 26.939166666666665], [93.95333333333333, 26.939166666666665], [93.95333333333333, 26.938333333333333], [93.95333333333333, 26.9375], [93.95416666666667, 26.9375], [93.95416666666667, 26.936666666666667], [93.95333333333333, 26.936666666666667], [93.95333333333333, 26.935833333333335], [93.9525, 26.935833333333335], [93.9525, 26.935], [93.95166666666667, 26.935], [93.95083333333332, 26.935], [93.95083333333332, 26.934166666666666], [93.94999999999999, 26.934166666666666], [93.94916666666666, 26.934166666666666], [93.94916666666666, 26.933333333333334], [93.94833333333332, 26.933333333333334], [93.94833333333332, 26.9325], [93.94749999999999, 26.9325], [93.94666666666666, 26.9325], [93.94666666666666, 26.933333333333334], [93.94749999999999, 26.933333333333334], [93.94749999999999, 26.934166666666666], [93.94833333333332, 26.934166666666666], [93.94833333333332, 26.935], [93.94916666666666, 26.935], [93.94916666666666, 26.935833333333335], [93.94999999999999, 26.935833333333335]]]}}, {"type": "Feature", "properties": {"product": "new_water", "area_ha": 18.33}, "geometry": {"type": "Polygon", "coordinates": [[[93.94916666666666, 26.981666666666666], [93.94916666666666, 26.9825], [93.94833333333332, 26.9825], [93.94749999999999, 26.9825], [93.94749999999999, 26.983333333333334], [93.94666666666666, 26.983333333333334], [93.94666666666666, 26.984166666666667], [93.94583333333333, 26.984166666666667], [93.94583333333333, 26.985], [93.94666666666666, 26.985], [93.94749999999999, 26.985], [93.94749999999999, 26.984166666666667], [93.94833333333332, 26.984166666666667], [93.94916666666666, 26.984166666666667], [93.94916666666666, 26.983333333333334], [93.94999999999999, 26.983333333333334], [93.94999999999999, 26.9825], [93.95083333333332, 26.9825], [93.95083333333332, 26.981666666666666], [93.95166666666667, 26.981666666666666], [93.95166666666667, 26.9825], [93.9525, 26.9825], [93.95333333333333, 26.9825], [93.95333333333333, 26.981666666666666], [93.95416666666667, 26.981666666666666], [93.955, 26.981666666666666], [93.95583333333333, 26.981666666666666], [93.95583333333333, 26.980833333333333], [93.95583333333333, 26.98], [93.955, 26.98], [93.95416666666667, 26.98], [93.95333333333333, 26.98], [93.9525, 26.98], [93.95166666666667, 26.98], [93.95166666666667, 26.980833333333333], [93.95083333333332, 26.980833333333333], [93.94999999999999, 26.980833333333333], [93.94999999999999, 26.981666666666666], [93.94916666666666, 26.981666666666666]]]}}, {"type": "Feature", "properties": {"product": "new_water", "area_ha": 6.88}, "geometry": {"type": "Polygon", "coordinates": [[[93.9575, 26.851666666666667], [93.9575, 26.850833333333334], [93.95833333333333, 26.850833333333334], [93.95916666666666, 26.850833333333334], [93.96, 26.850833333333334], [93.96083333333333, 26.850833333333334], [93.96166666666666, 26.850833333333334], [93.96249999999999, 26.850833333333334], [93.96249999999999, 26.85], [93.96166666666666, 26.85], [93.96083333333333, 26.85], [93.96, 26.85], [93.95916666666666, 26.85], [93.95833333333333, 26.85], [93.9575, 26.85], [93.95666666666666, 26.85], [93.95583333333333, 26.85], [93.95583333333333, 26.850833333333334], [93.95666666666666, 26.850833333333334], [93.95666666666666, 26.851666666666667], [93.9575, 26.851666666666667]]]}}, {"type": "Feature", "properties": {"product": "new_water", "area_ha": 30.59}, "geometry": {"type": "Polygon", "coordinates": [[[93.96333333333332, 26.854166666666668], [93.96416666666666, 26.854166666666668], [93.96416666666666, 26.855], [93.96499999999999, 26.855], [93.96583333333332, 26.855], [93.96666666666665, 26.855], [93.9675, 26.855], [93.9675, 26.854166666666668], [93.96833333333333, 26.854166666666668], [93.96833333333333, 26.85333333333333], [93.96916666666667, 26.85333333333333], [93.97, 26.85333333333333], [93.97, 26.8525], [93.97083333333333, 26.8525], [93.97166666666666, 26.8525], [93.97166666666666, 26.851666666666667], [93.97083333333333, 26.851666666666667], [93.97, 26.851666666666667], [93.96916666666667, 26.851666666666667], [93.96833333333333, 26.851666666666667], [93.96833333333333, 26.850833333333334], [93.96833333333333, 26.85], [93.9675, 26.85], [93.96666666666665, 26.85], [93.96583333333332, 26.85], [93.96583333333332, 26.850833333333334], [93.96499999999999, 26.850833333333334], [93.96499999999999, 26.85], [93.96416666666666, 26.85], [93.96416666666666, 26.850833333333334], [93.96333333333332, 26.850833333333334], [93.96333333333332, 26.851666666666667], [93.96249999999999, 26.851666666666667], [93.96249999999999, 26.8525], [93.96249999999999, 26.85333333333333], [93.96333333333332, 26.85333333333333], [93.96333333333332, 26.854166666666668]]]}}, {"type": "Feature", "properties": {"product": "new_water", "area_ha": 20.64}, "geometry": {"type": "Polygon", "coordinates": [[[93.96083333333333, 26.88083333333333], [93.96083333333333, 26.881666666666668], [93.96083333333333, 26.8825], [93.96166666666666, 26.8825], [93.96166666666666, 26.881666666666668], [93.96249999999999, 26.881666666666668], [93.96333333333332, 26.881666666666668], [93.96333333333332, 26.8825], [93.96416666666666, 26.8825], [93.96416666666666, 26.881666666666668], [93.96499999999999, 26.881666666666668], [93.96583333333332, 26.881666666666668], [93.96583333333332, 26.88083333333333], [93.96583333333332, 26.88], [93.96499999999999, 26.88], [93.96499999999999, 26.879166666666666], [93.96499999999999, 26.878333333333334], [93.96416666666666, 26.878333333333334], [93.96333333333332, 26.878333333333334], [93.96249999999999, 26.878333333333334], [93.96166666666666, 26.878333333333334], [93.96083333333333, 26.878333333333334], [93.96083333333333, 26.879166666666666], [93.96, 26.879166666666666], [93.96, 26.88], [93.95916666666666, 26.88], [93.95916666666666, 26.88083333333333], [93.96, 26.88083333333333], [93.96083333333333, 26.88083333333333]]]}}, {"type": "Feature", "properties": {"product": "new_water", "area_ha": 172.78}, "geometry": {"type": "Polygon", "coordinates": [[[93.96249999999999, 26.8875], [93.96333333333332, 26.8875], [93.96416666666666, 26.8875], [93.96499999999999, 26.8875], [93.96583333333332, 26.8875], [93.96583333333332, 26.888333333333332], [93.96666666666665, 26.888333333333332], [93.96666666666665, 26.889166666666668], [93.9675, 26.889166666666668], [93.9675, 26.89], [93.96833333333333, 26.89], [93.96916666666667, 26.89], [93.97, 26.89], [93.97083333333333, 26.89], [93.97166666666666, 26.89], [93.9725, 26.89], [93.97333333333333, 26.89], [93.97416666666666, 26.89], [93.975, 26.89], [93.97583333333333, 26.89], [93.97666666666666, 26.89], [93.97666666666666, 26.889166666666668], [93.97749999999999, 26.889166666666668], [93.97833333333332, 26.889166666666668], [93.97833333333332, 26.888333333333332], [93.97749999999999, 26.888333333333332], [93.97749999999999, 26.8875], [93.97833333333332, 26.8875], [93.97916666666666, 26.8875], [93.97916666666666, 26.888333333333332], [93.97999999999999, 26.888333333333332], [93.98083333333332, 26.888333333333332], [93.98166666666665, 26.888333333333332], [93.98249999999999, 26.888333333333332], [93.98249999999999, 26.8875], [93.98333333333333, 26.8875], [93.98416666666667, 26.8875], [93.985, 26.8875], [93.98583333333333, 26.8875], [93.98666666666666, 26.8875], [93.9875, 26.8875], [93.98833333333333, 26.8875], [93.98916666666666, 26.8875], [93.99, 26.8875], [93.99083333333333, 26.8875], [93.99083333333333, 26.886666666666667], [93.99, 26.886666666666667], [93.99, 26.885833333333334], [93.99083333333333, 26.885833333333334], [93.99083333333333, 26.885], [93.99166666666666, 26.885], [93.99249999999999, 26.885], [93.99333333333333, 26.885], [93.99333333333333, 26.884166666666665], [93.99249999999999, 26.884166666666665], [93.99249999999999, 26.883333333333333], [93.99333333333333, 26.883333333333333], [93.99416666666666, 26.883333333333333], [93.99416666666666, 26.884166666666665], [93.99499999999999, 26.884166666666665], [93.99499999999999, 26.885], [93.99583333333332, 26.885], [93.99666666666666, 26.885], [93.99749999999999, 26.885], [93.99833333333332, 26.885], [93.99833333333332, 26.884166666666665], [93.99833333333332, 26.883333333333333], [93.99916666666667, 26.883333333333333], [94.0, 26.883333333333333], [94.0, 26.8825], [94.0, 26.881666666666668], [94.0, 26.88083333333333], [94.0, 26.88], [94.0, 26.879166666666666], [93.99916666666667, 26.879166666666666], [93.99833333333332, 26.879166666666666], [93.99749999999999, 26.879166666666666], [93.99666666666666, 26.879166666666666], [93.99583333333332, 26.879166666666666], [93.99583333333332, 26.878333333333334], [93.99499999999999, 26.878333333333334], [93.99416666666666, 26.878333333333334], [93.99333333333333, 26.878333333333334], [93.99249999999999, 26.878333333333334], [93.99166666666666, 26.878333333333334], [93.99166666666666, 26.8775], [93.99083333333333, 26.8775], [93.99, 26.8775], [93.99, 26.878333333333334], [93.98916666666666, 26.878333333333334], [93.98916666666666, 26.879166666666666], [93.98833333333333, 26.879166666666666], [93.98833333333333, 26.88], [93.9875, 26.88], [93.98666666666666, 26.88], [93.98583333333333, 26.88], [93.98583333333333, 26.88083333333333], [93.985, 26.88083333333333], [93.98416666666667, 26.88083333333333], [93.98333333333333, 26.88083333333333], [93.98333333333333, 26.881666666666668], [93.98249999999999, 26.881666666666668], [93.98166666666665, 26.881666666666668], [93.98083333333332, 26.881666666666668], [93.98083333333332, 26.8825], [93.98166666666665, 26.8825], [93.98249999999999, 26.8825], [93.98333333333333, 26.8825], [93.98416666666667, 26.8825], [93.98416666666667, 26.883333333333333], [93.98333333333333, 26.883333333333333], [93.98249999999999, 26.883333333333333], [93.98249999999999, 26.884166666666665], [93.98166666666665, 26.884166666666665], [93.98083333333332, 26.884166666666665], [93.97999999999999, 26.884166666666665], [93.97999999999999, 26.885], [93.97916666666666, 26.885], [93.97916666666666, 26.885833333333334], [93.97833333333332, 26.885833333333334], [93.97749999999999, 26.885833333333334], [93.97666666666666, 26.885833333333334], [93.97666666666666, 26.886666666666667], [93.97583333333333, 26.886666666666667], [93.975, 26.886666666666667], [93.97416666666666, 26.886666666666667], [93.97333333333333, 26.886666666666667], [93.9725, 26.886666666666667], [93.97166666666666, 26.886666666666667], [93.97166666666666, 26.8875], [93.97083333333333, 26.8875], [93.97, 26.8875], [93.96916666666667, 26.8875], [93.96833333333333, 26.8875], [93.9675, 26.8875], [93.96666666666665, 26.8875], [93.96666666666665, 26.886666666666667], [93.96583333333332, 26.886666666666667], [93.96583333333332, 26.885833333333334], [93.96499999999999, 26.885833333333334], [93.96416666666666, 26.885833333333334], [93.96333333333332, 26.885833333333334], [93.96249999999999, 26.885833333333334], [93.96166666666666, 26.885833333333334], [93.96083333333333, 26.885833333333334], [93.96083333333333, 26.886666666666667], [93.96166666666666, 26.886666666666667], [93.96249999999999, 26.886666666666667], [93.96249999999999, 26.8875]], [[93.99166666666666, 26.883333333333333], [93.99083333333333, 26.883333333333333], [93.99083333333333, 26.8825], [93.99, 26.8825], [93.98916666666666, 26.8825], [93.98916666666666, 26.881666666666668], [93.98833333333333, 26.881666666666668], [93.9875, 26.881666666666668], [93.9875, 26.88083333333333], [93.98833333333333, 26.88083333333333], [93.98916666666666, 26.88083333333333], [93.99, 26.88083333333333], [93.99083333333333, 26.88083333333333], [93.99083333333333, 26.881666666666668], [93.99166666666666, 26.881666666666668], [93.99249999999999, 26.881666666666668], [93.99333333333333, 26.881666666666668], [93.99416666666666, 26.881666666666668], [93.99416666666666, 26.8825], [93.99333333333333, 26.8825], [93.99249999999999, 26.8825], [93.99249999999999, 26.883333333333333], [93.99166666666666, 26.883333333333333]], [[93.9875, 26.8825], [93.98666666666666, 26.8825], [93.98583333333333, 26.8825], [93.985, 26.8825], [93.985, 26.881666666666668], [93.98583333333333, 26.881666666666668], [93.98666666666666, 26.881666666666668], [93.9875, 26.881666666666668], [93.9875, 26.8825]], [[93.985, 26.883333333333333], [93.985, 26.884166666666665], [93.98416666666667, 26.884166666666665], [93.98416666666667, 26.883333333333333], [93.985, 26.883333333333333]], [[93.98583333333333, 26.885], [93.98666666666666, 26.885], [93.9875, 26.885], [93.98833333333333, 26.885], [93.98833333333333, 26.885833333333334], [93.9875, 26.885833333333334], [93.98666666666666, 26.885833333333334], [93.98583333333333, 26.885833333333334], [93.985, 26.885833333333334], [93.985, 26.885], [93.98583333333333, 26.885]], [[93.99749999999999, 26.883333333333333], [93.99666666666666, 26.883333333333333], [93.99666666666666, 26.8825], [93.99749999999999, 26.8825], [93.99749999999999, 26.883333333333333]]]}}, {"type": "Feature", "properties": {"product": "new_water", "area_ha": 15.29}, "geometry": {"type": "Polygon", "coordinates": [[[93.96333333333332, 26.921666666666667], [93.96416666666666, 26.921666666666667], [93.96416666666666, 26.9225], [93.96499999999999, 26.9225], [93.96499999999999, 26.923333333333332], [93.96583333333332, 26.923333333333332], [93.96666666666665, 26.923333333333332], [93.9675, 26.923333333333332], [93.96833333333333, 26.923333333333332], [93.96916666666667, 26.923333333333332], [93.96916666666667, 26.9225], [93.96916666666667, 26.921666666666667], [93.96833333333333, 26.921666666666667], [93.9675, 26.921666666666667], [93.96666666666665, 26.921666666666667], [93.96666666666665, 26.920833333333334], [93.96583333333332, 26.920833333333334], [93.96499999999999, 26.920833333333334], [93.96416666666666, 26.920833333333334], [93.96416666666666, 26.92], [93.96333333333332, 26.92], [93.96249999999999, 26.92], [93.96249999999999, 26.919166666666666], [93.96166666666666, 26.919166666666666], [93.96083333333333, 26.919166666666666], [93.96083333333333, 26.92], [93.96166666666666, 26.92], [93.96166666666666, 26.920833333333334], [93.96249999999999, 26.920833333333334], [93.96333333333332, 26.920833333333334], [93.96333333333332, 26.921666666666667]]]}}, {"type": "Feature", "properties": {"product": "new_water", "area_ha": 10.7}, "geometry": {"type": "Polygon", "coordinates": [[[93.95916666666666, 26.945], [93.95916666666666, 26.945833333333333], [93.96, 26.945833333333333], [93.96, 26.946666666666665], [93.96083333333333, 26.946666666666665], [93.96166666666666, 26.946666666666665], [93.96249999999999, 26.946666666666665], [93.96249999999999, 26.945833333333333], [93.96166666666666, 26.945833333333333], [93.96166666666666, 26.945], [93.96083333333333, 26.945], [93.96083333333333, 26.944166666666668], [93.96, 26.944166666666668], [93.96, 26.94333333333333], [93.95916666666666, 26.94333333333333], [93.95833333333333, 26.94333333333333], [93.95833333333333, 26.9425], [93.9575, 26.9425], [93.95666666666666, 26.9425], [93.95666666666666, 26.94333333333333], [93.9575, 26.94333333333333], [93.9575, 26.944166666666668], [93.95833333333333, 26.944166666666668], [93.95833333333333, 26.945], [93.95916666666666, 26.945]]]}}, {"type": "Feature", "properties": {"product": "new_water", "area_ha": 6.11}, "geometry": {"type": "Polygon", "coordinates": [[[93.96, 26.981666666666666], [93.96083333333333, 26.981666666666666], [93.96166666666666, 26.981666666666666], [93.96249999999999, 26.981666666666666], [93.96333333333332, 26.981666666666666], [93.96416666666666, 26.981666666666666], [93.96499999999999, 26.981666666666666], [93.96499999999999, 26.980833333333333], [93.96499999999999, 26.98], [93.96416666666666, 26.98], [93.96416666666666, 26.980833333333333], [93.96333333333332, 26.980833333333333], [93.96333333333332, 26.98], [93.96249999999999, 26.98], [93.96249999999999, 26.980833333333333], [93.96166666666666, 26.980833333333333], [93.96083333333333, 26.980833333333333], [93.96, 26.980833333333333], [93.96, 26.981666666666666]]]}}, {"type": "Feature", "properties": {"product": "new_water", "area_ha": 12.97}, "geometry": {"type": "Polygon", "coordinates": [[[93.95583333333333, 27.089166666666667], [93.95583333333333, 27.09], [93.95583333333333, 27.090833333333332], [93.95583333333333, 27.091666666666665], [93.95666666666666, 27.091666666666665], [93.9575, 27.091666666666665], [93.95833333333333, 27.091666666666665], [93.95833333333333, 27.090833333333332], [93.95916666666666, 27.090833333333332], [93.96, 27.090833333333332], [93.96, 27.09], [93.96083333333333, 27.09], [93.96083333333333, 27.089166666666667], [93.96166666666666, 27.089166666666667], [93.96166666666666, 27.088333333333335], [93.96083333333333, 27.088333333333335], [93.96, 27.088333333333335], [93.95916666666666, 27.088333333333335], [93.95916666666666, 27.089166666666667], [93.95833333333333, 27.089166666666667], [93.9575, 27.089166666666667], [93.95666666666666, 27.089166666666667], [93.95583333333333, 27.089166666666667]]]}}, {"type": "Feature", "properties": {"product": "new_water", "area_ha": 60.4}, "geometry": {"type": "Polygon", "coordinates": [[[93.96916666666667, 26.876666666666665], [93.97, 26.876666666666665], [93.97083333333333, 26.876666666666665], [93.97166666666666, 26.876666666666665], [93.9725, 26.876666666666665], [93.97333333333333, 26.876666666666665], [93.97333333333333, 26.875833333333333], [93.97416666666666, 26.875833333333333], [93.97416666666666, 26.876666666666665], [93.97416666666666, 26.8775], [93.975, 26.8775], [93.97583333333333, 26.8775], [93.97666666666666, 26.8775], [93.97749999999999, 26.8775], [93.97749999999999, 26.876666666666665], [93.97833333333332, 26.876666666666665], [93.97833333333332, 26.875833333333333], [93.97916666666666, 26.875833333333333], [93.97999999999999, 26.875833333333333], [93.98083333333332, 26.875833333333333], [93.98083333333332, 26.875], [93.98166666666665, 26.875], [93.98166666666665, 26.874166666666667], [93.98249999999999, 26.874166666666667], [93.98249999999999, 26.873333333333335], [93.98333333333333, 26.873333333333335], [93.98416666666667, 26.873333333333335], [93.98416666666667, 26.8725], [93.98333333333333, 26.8725], [93.98333333333333, 26.871666666666666], [93.98249999999999, 26.871666666666666], [93.98249999999999, 26.8725], [93.98166666666665, 26.8725], [93.98083333333332, 26.8725], [93.98083333333332, 26.871666666666666], [93.97999999999999, 26.871666666666666], [93.97916666666666, 26.871666666666666], [93.97916666666666, 26.8725], [93.97833333333332, 26.8725], [93.97833333333332, 26.871666666666666], [93.97749999999999, 26.871666666666666], [93.97666666666666, 26.871666666666666], [93.97583333333333, 26.871666666666666], [93.975, 26.871666666666666], [93.975, 26.8725], [93.97416666666666, 26.8725], [93.97333333333333, 26.8725], [93.9725, 26.8725], [93.9725, 26.873333333333335], [93.9725, 26.874166666666667], [93.97166666666666, 26.874166666666667], [93.97083333333333, 26.874166666666667], [93.97083333333333, 26.875], [93.97, 26.875], [93.96916666666667, 26.875], [93.96916666666667, 26.874166666666667], [93.96833333333333, 26.874166666666667], [93.9675, 26.874166666666667], [93.96666666666665, 26.874166666666667], [93.96583333333332, 26.874166666666667], [93.96583333333332, 26.875], [93.96666666666665, 26.875], [93.96666666666665, 26.875833333333333], [93.9675, 26.875833333333333], [93.96833333333333, 26.875833333333333], [93.96833333333333, 26.876666666666665], [93.96916666666667, 26.876666666666665]], [[93.97916666666666, 26.873333333333335], [93.97999999999999, 26.873333333333335], [93.97999999999999, 26.874166666666667], [93.97916666666666, 26.874166666666667], [93.97833333333332, 26.874166666666667], [93.97833333333332, 26.873333333333335], [93.97916666666666, 26.873333333333335]], [[93.97666666666666, 26.875], [93.97666666666666, 26.874166666666667], [93.97749999999999, 26.874166666666667], [93.97749999999999, 26.875], [93.97666666666666, 26.875]]]}}, {"type": "Feature", "properties": {"product": "new_water", "area_ha": 161.29}, "geometry": {"type": "Polygon", "coordinates": [[[93.96916666666667, 26.900833333333335], [93.96916666666667, 26.901666666666667], [93.97, 26.901666666666667], [93.97083333333333, 26.901666666666667], [93.97083333333333, 26.9025], [93.97166666666666, 26.9025], [93.9725, 26.9025], [93.97333333333333, 26.9025], [93.97333333333333, 26.903333333333332], [93.97416666666666, 26.903333333333332], [93.975, 26.903333333333332], [93.97583333333333, 26.903333333333332], [93.97666666666666, 26.903333333333332], [93.97666666666666, 26.904166666666665], [93.97749999999999, 26.904166666666665], [93.97833333333332, 26.904166666666665], [93.97833333333332, 26.903333333333332], [93.97749999999999, 26.903333333333332], [93.97749999999999, 26.9025], [93.97833333333332, 26.9025], [93.97833333333332, 26.901666666666667], [93.97916666666666, 26.901666666666667], [93.97916666666666, 26.9025], [93.97999999999999, 26.9025], [93.98083333333332, 26.9025], [93.98083333333332, 26.903333333333332], [93.98166666666665, 26.903333333333332], [93.98249999999999, 26.903333333333332], [93.98249999999999, 26.9025], [93.98333333333333, 26.9025], [93.98416666666667, 26.9025], [93.985, 26.9025], [93.985, 26.903333333333332], [93.98583333333333, 26.903333333333332], [93.98666666666666, 26.903333333333332], [93.9875, 26.903333333333332], [93.9875, 26.904166666666665], [93.98833333333333, 26.904166666666665], [93.98916666666666, 26.904166666666665], [93.98916666666666, 26.905], [93.99, 26.905], [93.99083333333333, 26.905], [93.99083333333333, 26.905833333333334], [93.99166666666666, 26.905833333333334], [93.99166666666666, 26.906666666666666], [93.99249999999999, 26.906666666666666], [93.99333333333333, 26.906666666666666], [93.99416666666666, 26.906666666666666], [93.99499999999999, 26.906666666666666], [93.99499999999999, 26.9075], [93.99583333333332, 26.9075], [93.99666666666666, 26.9075], [93.99749999999999, 26.9075], [93.99833333333332, 26.9075], [93.99916666666667, 26.9075], [94.0, 26.9075], [94.0, 26.906666666666666], [94.0, 26.905833333333334], [94.0, 26.905], [94.0, 26.904166666666665], [93.99916666666667, 26.904166666666665], [93.99833333333332, 26.904166666666665], [93.99833333333332, 26.903333333333332], [93.99749999999999, 26.903333333333332], [93.99749999999999, 26.9025], [93.99833333333332, 26.9025], [93.99916666666667, 26.9025], [94.0, 26.9025], [94.0, 26.901666666666667], [94.0, 26.900833333333335], [94.0, 26.9], [93.99916666666667, 26.9], [93.99833333333332, 26.9], [93.99749999999999, 26.9], [93.99666666666666, 26.9], [93.99583333333332, 26.9], [93.99499999999999, 26.9], [93.99416666666666, 26.9], [93.99333333333333, 26.9], [93.99249999999999, 26.9], [93.99166666666666, 26.9], [93.99166666666666, 26.899166666666666], [93.99083333333333, 26.899166666666666], [93.99, 26.899166666666666], [93.98916666666666, 26.899166666666666], [93.98833333333333, 26.899166666666666], [93.9875, 26.899166666666666], [93.9875, 26.9], [93.98666666666666, 26.9], [93.98583333333333, 26.9], [93.98583333333333, 26.899166666666666], [93.985, 26.899166666666666], [93.985, 26.898333333333333], [93.98416666666667, 26.898333333333333], [93.98333333333333, 26.898333333333333], [93.98249999999999, 26.898333333333333], [93.98166666666665, 26.898333333333333], [93.98083333333332, 26.898333333333333], [93.97999999999999, 26.898333333333333], [93.97916666666666, 26.898333333333333], [93.97916666666666, 26.899166666666666], [93.97833333333332, 26.899166666666666], [93.97749999999999, 26.899166666666666], [93.97666666666666, 26.899166666666666], [93.97583333333333, 26.899166666666666], [93.975, 26.899166666666666], [93.97416666666666, 26.899166666666666], [93.97333333333333, 26.899166666666666], [93.9725, 26.899166666666666], [93.97166666666666, 26.899166666666666], [93.97083333333333, 26.899166666666666], [93.97083333333333, 26.9], [93.97, 26.9], [93.96916666666667, 26.9], [93.96833333333333, 26.9], [93.96833333333333, 26.900833333333335], [93.96916666666667, 26.900833333333335]], [[93.97916666666666, 26.900833333333335], [93.97999999999999, 26.900833333333335], [93.98083333333332, 26.900833333333335], [93.98083333333332, 26.901666666666667], [93.97999999999999, 26.901666666666667], [93.97916666666666, 26.901666666666667], [93.97916666666666, 26.900833333333335]], [[93.98333333333333, 26.900833333333335], [93.98333333333333, 26.9], [93.98416666666667, 26.9], [93.98416666666667, 26.900833333333335], [93.98333333333333, 26.900833333333335]], [[93.99416666666666, 26.900833333333335], [93.99416666666666, 26.901666666666667], [93.99333333333333, 26.901666666666667], [93.99333333333333, 26.900833333333335], [93.99416666666666, 26.900833333333335]], [[93.99166666666666, 26.9025], [93.99166666666666, 26.901666666666667], [93.99249999999999, 26.901666666666667], [93.99249999999999, 26.9025], [93.99166666666666, 26.9025]]]}}, {"type": "Feature", "properties": {"product": "new_water", "area_ha": 28.28}, "geometry": {"type": "Polygon", "coordinates": [[[93.9675, 26.925833333333333], [93.96833333333333, 26.925833333333333], [93.96916666666667, 26.925833333333333], [93.96916666666667, 26.926666666666666], [93.97, 26.926666666666666], [93.97083333333333, 26.926666666666666], [93.97166666666666, 26.926666666666666], [93.97166666666666, 26.925833333333333], [93.9725, 26.925833333333333], [93.9725, 26.926666666666666], [93.97333333333333, 26.926666666666666], [93.97416666666666, 26.926666666666666], [93.975, 26.926666666666666], [93.97583333333333, 26.926666666666666], [93.97666666666666, 26.926666666666666], [93.97666666666666, 26.9275], [93.97749999999999, 26.9275], [93.97833333333332, 26.9275], [93.97916666666666, 26.9275], [93.97916666666666, 26.926666666666666], [93.97833333333332, 26.926666666666666], [93.97749999999999, 26.926666666666666], [93.97749999999999, 26.925833333333333], [93.97666666666666, 26.925833333333333], [93.97583333333333, 26.925833333333333], [93.97583333333333, 26.925], [93.975, 26.925], [93.97416666666666, 26.925], [93.97416666666666, 26.924166666666668], [93.97333333333333, 26.924166666666668], [93.9725, 26.924166666666668], [93.9725, 26.923333333333332], [93.97166666666666, 26.923333333333332], [93.97083333333333, 26.923333333333332], [93.97083333333333, 26.9225], [93.97, 26.9225], [93.97, 26.923333333333332], [93.96916666666667, 26.923333333333332], [93.96916666666667, 26.924166666666668], [93.96833333333333, 26.924166666666668], [93.9675, 26.924166666666668], [93.96666666666665, 26.924166666666668], [93.96666666666665, 26.925], [93.96666666666665, 26.925833333333333], [93.9675, 26.925833333333333]]]}}, {"type": "Feature", "properties": {"product": "new_water", "area_ha": 16.05}, "geometry": {"type": "Polygon", "coordinates": [[[93.96916666666667, 26.935], [93.96916666666667, 26.935833333333335], [93.96916666666667, 26.936666666666667], [93.96916666666667, 26.9375], [93.96916666666667, 26.938333333333333], [93.97, 26.938333333333333], [93.97083333333333, 26.938333333333333], [93.97083333333333, 26.939166666666665], [93.97166666666666, 26.939166666666665], [93.97166666666666, 26.938333333333333], [93.9725, 26.938333333333333], [93.97333333333333, 26.938333333333333], [93.97333333333333, 26.9375], [93.97333333333333, 26.936666666666667], [93.9725, 26.936666666666667], [93.9725, 26.935833333333335], [93.97166666666666, 26.935833333333335], [93.97166666666666, 26.935], [93.97083333333333, 26.935], [93.97083333333333, 26.934166666666666], [93.97, 26.934166666666666], [93.96916666666667, 26.934166666666666], [93.96833333333333, 26.934166666666666], [93.96833333333333, 26.935], [93.96916666666667, 26.935]]]}}, {"type": "Feature", "properties": {"product": "new_water", "area_ha": 16.05}, "geometry": {"type": "Polygon", "coordinates": [[[93.9675, 26.95], [93.9675, 26.950833333333332], [93.96833333333333, 26.950833333333332], [93.96916666666667, 26.950833333333332], [93.96916666666667, 26.951666666666668], [93.97, 26.951666666666668], [93.97083333333333, 26.951666666666668], [93.97083333333333, 26.9525], [93.97166666666666, 26.9525], [93.9725, 26.9525], [93.9725, 26.951666666666668], [93.9725, 26.950833333333332], [93.97166666666666, 26.950833333333332], [93.97083333333333, 26.950833333333332], [93.97, 26.950833333333332], [93.97, 26.95], [93.96916666666667, 26.95], [93.96916666666667, 26.949166666666667], [93.96833333333333, 26.949166666666667], [93.9675, 26.949166666666667], [93.9675, 26.948333333333334], [93.96666666666665, 26.948333333333334], [93.96583333333332, 26.948333333333334], [93.96583333333332, 26.9475], [93.96499999999999, 26.9475], [93.96416666666666, 26.9475], [93.96416666666666, 26.946666666666665], [93.96333333333332, 26.946666666666665], [93.96333333333332, 26.9475], [93.96333333333332, 26.948333333333334], [93.96416666666666, 26.948333333333334], [93.96416666666666, 26.949166666666667], [93.96499999999999, 26.949166666666667], [93.96583333333332, 26.949166666666667], [93.96583333333332, 26.95], [93.96666666666665, 26.95], [93.9675, 26.95]]]}}, {"type": "Feature", "properties": {"product": "new_water", "area_ha": 29.8}, "geometry": {"type": "Polygon", "coordinates": [[[93.97416666666666, 26.944166666666668], [93.975, 26.944166666666668], [93.97583333333333, 26.944166666666668], [93.97666666666666, 26.944166666666668], [93.97749999999999, 26.944166666666668], [93.97749999999999, 26.945], [93.97833333333332, 26.945], [93.97916666666666, 26.945], [93.97916666666666, 26.945833333333333], [93.97999999999999, 26.945833333333333], [93.97999999999999, 26.946666666666665], [93.98083333333332, 26.946666666666665], [93.98166666666665, 26.946666666666665], [93.98249999999999, 26.946666666666665], [93.98249999999999, 26.945833333333333], [93.98166666666665, 26.945833333333333], [93.98166666666665, 26.945], [93.98166666666665, 26.944166666666668], [93.98166666666665, 26.94333333333333], [93.98083333333332, 26.94333333333333], [93.98083333333332, 26.9425], [93.97999999999999, 26.9425], [93.97999999999999, 26.941666666666666], [93.97916666666666, 26.941666666666666], [93.97916666666666, 26.9425], [93.97916666666666, 26.94333333333333], [93.97916666666666, 26.944166666666668], [93.97833333333332, 26.944166666666668], [93.97833333333332, 26.94333333333333], [93.97833333333332, 26.9425], [93.97833333333332, 26.941666666666666], [93.97749999999999, 26.941666666666666], [93.97666666666666, 26.941666666666666], [93.97666666666666, 26.940833333333334], [93.97749999999999, 26.940833333333334], [93.97749999999999, 26.94], [93.97666666666666, 26.94], [93.97583333333333, 26.94], [93.97583333333333, 26.940833333333334], [93.975, 26.940833333333334], [93.97416666666666, 26.940833333333334], [93.97416666666666, 26.941666666666666], [93.97333333333333, 26.941666666666666], [93.9725, 26.941666666666666], [93.9725, 26.9425], [93.9725, 26.94333333333333], [93.97333333333333, 26.94333333333333], [93.97416666666666, 26.94333333333333], [93.97416666666666, 26.944166666666668]], [[93.97666666666666, 26.9425], [93.97583333333333, 26.9425], [93.975, 26.9425], [93.975, 26.941666666666666], [93.97583333333333, 26.941666666666666], [93.97666666666666, 26.941666666666666], [93.97666666666666, 26.9425]]]}}, {"type": "Feature", "properties": {"product": "new_water", "area_ha": 9.93}, "geometry": {"type": "Polygon", "coordinates": [[[93.9725, 26.979166666666668], [93.97166666666666, 26.979166666666668], [93.97166666666666, 26.98], [93.9725, 26.98], [93.97333333333333, 26.98], [93.97333333333333, 26.980833333333333], [93.97416666666666, 26.980833333333333], [93.975, 26.980833333333333], [93.975, 26.981666666666666], [93.97583333333333, 26.981666666666666], [93.97666666666666, 26.981666666666666], [93.97666666666666, 26.9825], [93.97749999999999, 26.9825], [93.97749999999999, 26.981666666666666], [93.97833333333332, 26.981666666666666], [93.97833333333332, 26.980833333333333], [93.97749999999999, 26.980833333333333], [93.97666666666666, 26.980833333333333], [93.97666666666666, 26.98], [93.97583333333333, 26.98], [93.975, 26.98], [93.975, 26.979166666666668], [93.97416666666666, 26.979166666666668], [93.97333333333333, 26.979166666666668], [93.9725, 26.979166666666668]]]}}, {"type": "Feature", "properties": {"product": "new_water", "area_ha": 19.87}, "geometry": {"type": "Polygon", "coordinates": [[[93.97833333333332, 26.91], [93.97833333333332, 26.910833333333333], [93.97916666666666, 26.910833333333333], [93.97999999999999, 26.910833333333333], [93.97999999999999, 26.911666666666665], [93.98083333333332, 26.911666666666665], [93.98166666666665, 26.911666666666665], [93.98166666666665, 26.9125], [93.98249999999999, 26.9125], [93.98249999999999, 26.913333333333334], [93.98333333333333, 26.913333333333334], [93.98416666666667, 26.913333333333334], [93.985, 26.913333333333334], [93.98583333333333, 26.913333333333334], [93.98666666666666, 26.913333333333334], [93.9875, 26.913333333333334], [93.98833333333333, 26.913333333333334], [93.98916666666666, 26.913333333333334], [93.98916666666666, 26.9125], [93.98833333333333, 26.9125], [93.98833333333333, 26.911666666666665], [93.9875, 26.911666666666665], [93.98666666666666, 26.911666666666665], [93.98583333333333, 26.911666666666665], [93.985, 26.911666666666665], [93.98416666666667, 26.911666666666665], [93.98416666666667, 26.910833333333333], [93.98333333333333, 26.910833333333333], [93.98249999999999, 26.910833333333333], [93.98249999999999, 26.91], [93.98166666666665, 26.91], [93.98083333333332, 26.91], [93.97999999999999, 26.91], [93.97916666666666, 26.91], [93.97833333333332, 26.91]]]}}, {"type": "Feature", "properties": {"product": "new_water", "area_ha": 7.64}, "geometry": {"type": "Polygon", "coordinates": [[[93.97749999999999, 26.950833333333332], [93.97666666666666, 26.950833333333332], [93.97583333333333, 26.950833333333332], [93.975, 26.950833333333332], [93.975, 26.951666666666668], [93.97583333333333, 26.951666666666668], [93.97666666666666, 26.951666666666668], [93.97749999999999, 26.951666666666668], [93.97833333333332, 26.951666666666668], [93.97833333333332, 26.9525], [93.97916666666666, 26.9525], [93.97916666666666, 26.951666666666668], [93.97999999999999, 26.951666666666668], [93.97999999999999, 26.9525], [93.98083333333332, 26.9525], [93.98083333333332, 26.951666666666668], [93.98166666666665, 26.951666666666668], [93.98166666666665, 26.950833333333332], [93.98083333333332, 26.950833333333332], [93.97999999999999, 26.950833333333332], [93.97916666666666, 26.950833333333332], [93.97833333333332, 26.950833333333332], [93.97749999999999, 26.950833333333332]]]}}, {"type": "Feature", "properties": {"product": "new_water", "area_ha": 6.87}, "geometry": {"type": "Polygon", "coordinates": [[[93.97833333333332, 26.983333333333334], [93.97916666666666, 26.983333333333334], [93.97916666666666, 26.984166666666667], [93.97999999999999, 26.984166666666667], [93.98083333333332, 26.984166666666667], [93.98166666666665, 26.984166666666667], [93.98249999999999, 26.984166666666667], [93.98249999999999, 26.983333333333334], [93.98166666666665, 26.983333333333334], [93.98083333333332, 26.983333333333334], [93.98083333333332, 26.9825], [93.97999999999999, 26.9825], [93.97999999999999, 26.981666666666666], [93.97916666666666, 26.981666666666666], [93.97833333333332, 26.981666666666666], [93.97833333333332, 26.9825], [93.97833333333332, 26.983333333333334]]]}}, {"type": "Feature", "properties": {"product": "new_water", "area_ha": 51.2}, "geometry": {"type": "Polygon", "coordinates": [[[93.98916666666666, 26.939166666666665], [93.99, 26.939166666666665], [93.99, 26.938333333333333], [93.99083333333333, 26.938333333333333], [93.99083333333333, 26.939166666666665], [93.99166666666666, 26.939166666666665], [93.99166666666666, 26.94], [93.99166666666666, 26.940833333333334], [93.99166666666666, 26.941666666666666], [93.99249999999999, 26.941666666666666], [93.99249999999999, 26.9425], [93.99333333333333, 26.9425], [93.99416666666666, 26.9425], [93.99499999999999, 26.9425], [93.99499999999999, 26.94333333333333], [93.99583333333332, 26.94333333333333], [93.99666666666666, 26.94333333333333], [93.99666666666666, 26.944166666666668], [93.99749999999999, 26.944166666666668], [93.99833333333332, 26.944166666666668], [93.99833333333332, 26.94333333333333], [93.99833333333332, 26.9425], [93.99916666666667, 26.9425], [94.0, 26.9425], [94.0, 26.941666666666666], [94.0, 26.940833333333334], [94.0, 26.94], [93.99916666666667, 26.94], [93.99916666666667, 26.939166666666665], [93.99916666666667, 26.938333333333333], [93.99833333333332, 26.938333333333333], [93.99749999999999, 26.938333333333333], [93.99666666666666, 26.938333333333333], [93.99583333333332, 26.938333333333333], [93.99583333333332, 26.9375], [93.99499999999999, 26.9375], [93.99416666666666, 26.9375], [93.99333333333333, 26.9375], [93.99249999999999, 26.9375], [93.99166666666666, 26.9375], [93.99083333333333, 26.9375], [93.99083333333333, 26.936666666666667], [93.99, 26.936666666666667], [93.98916666666666, 26.936666666666667], [93.98916666666666, 26.9375], [93.98833333333333, 26.9375], [93.9875, 26.9375], [93.9875, 26.938333333333333], [93.98833333333333, 26.938333333333333], [93.98916666666666, 26.938333333333333], [93.98916666666666, 26.939166666666665]]]}}, {"type": "Feature", "properties": {"product": "new_water", "area_ha": 11.46}, "geometry": {"type": "Polygon", "coordinates": [[[93.98916666666666, 26.955], [93.99, 26.955], [93.99, 26.955833333333334], [93.99083333333333, 26.955833333333334], [93.99083333333333, 26.956666666666667], [93.99166666666666, 26.956666666666667], [93.99249999999999, 26.956666666666667], [93.99333333333333, 26.956666666666667], [93.99333333333333, 26.9575], [93.99416666666666, 26.9575], [93.99416666666666, 26.956666666666667], [93.99416666666666, 26.955833333333334], [93.99333333333333, 26.955833333333334], [93.99333333333333, 26.955], [93.99249999999999, 26.955], [93.99166666666666, 26.955], [93.99166666666666, 26.954166666666666], [93.99083333333333, 26.954166666666666], [93.99083333333333, 26.953333333333333], [93.99, 26.953333333333333], [93.99, 26.9525], [93.98916666666666, 26.9525], [93.98916666666666, 26.953333333333333], [93.98916666666666, 26.954166666666666], [93.98916666666666, 26.955]]]}}, {"type": "Feature", "properties": {"product": "new_water", "area_ha": 6.1}, "geometry": {"type": "Polygon", "coordinates": [[[93.98833333333333, 27.095833333333335], [93.98833333333333, 27.096666666666668], [93.98916666666666, 27.096666666666668], [93.98916666666666, 27.095833333333335], [93.98916666666666, 27.095], [93.99, 27.095], [93.99, 27.094166666666666], [93.99, 27.093333333333334], [93.98916666666666, 27.093333333333334], [93.98916666666666, 27.0925], [93.98833333333333, 27.0925], [93.98833333333333, 27.093333333333334], [93.9875, 27.093333333333334], [93.9875, 27.094166666666666], [93.98833333333333, 27.094166666666666], [93.98833333333333, 27.095], [93.98833333333333, 27.095833333333335]]]}}, {"type": "Feature", "properties": {"product": "new_water", "area_ha": 14.52}, "geometry": {"type": "Polygon", "coordinates": [[[93.99416666666666, 26.913333333333334], [93.99499999999999, 26.913333333333334], [93.99583333333332, 26.913333333333334], [93.99666666666666, 26.913333333333334], [93.99749999999999, 26.913333333333334], [93.99833333333332, 26.913333333333334], [93.99916666666667, 26.913333333333334], [94.0, 26.913333333333334], [94.0, 26.9125], [93.99916666666667, 26.9125], [93.99833333333332, 26.9125], [93.99749999999999, 26.9125], [93.99749999999999, 26.911666666666665], [93.99666666666666, 26.911666666666665], [93.99583333333332, 26.911666666666665], [93.99583333333332, 26.910833333333333], [93.99499999999999, 26.910833333333333], [93.99499999999999, 26.911666666666665], [93.99416666666666, 26.911666666666665], [93.99333333333333, 26.911666666666665], [93.99249999999999, 26.911666666666665], [93.99166666666666, 26.911666666666665], [93.99166666666666, 26.9125], [93.99083333333333, 26.9125], [93.99083333333333, 26.913333333333334], [93.99166666666666, 26.913333333333334], [93.99249999999999, 26.913333333333334], [93.99333333333333, 26.913333333333334], [93.99416666666666, 26.913333333333334]]]}}, {"type": "Feature", "properties": {"product": "new_water", "area_ha": 6.88}, "geometry": {"type": "Polygon", "coordinates": [[[93.99333333333333, 26.966666666666665], [93.99416666666666, 26.966666666666665], [93.99416666666666, 26.9675], [93.99499999999999, 26.9675], [93.99583333333332, 26.9675], [93.99583333333332, 26.966666666666665], [93.99583333333332, 26.965833333333332], [93.99499999999999, 26.965833333333332], [93.99416666666666, 26.965833333333332], [93.99416666666666, 26.965], [93.99416666666666, 26.964166666666667], [93.99333333333333, 26.964166666666667], [93.99249999999999, 26.964166666666667], [93.99249999999999, 26.965], [93.99249999999999, 26.965833333333332], [93.99333333333333, 26.965833333333332], [93.99333333333333, 26.966666666666665]]]}}, {"type": "Feature", "properties": {"product": "new_water", "area_ha": 7.63}, "geometry": {"type": "Polygon", "coordinates": [[[93.99166666666666, 27.083333333333332], [93.99166666666666, 27.08416666666667], [93.99249999999999, 27.08416666666667], [93.99333333333333, 27.08416666666667], [93.99333333333333, 27.083333333333332], [93.99333333333333, 27.0825], [93.99333333333333, 27.081666666666667], [93.99333333333333, 27.080833333333334], [93.99416666666666, 27.080833333333334], [93.99416666666666, 27.08], [93.99333333333333, 27.08], [93.99249999999999, 27.08], [93.99166666666666, 27.08], [93.99166666666666, 27.080833333333334], [93.99083333333333, 27.080833333333334], [93.99083333333333, 27.081666666666667], [93.99166666666666, 27.081666666666667], [93.99249999999999, 27.081666666666667], [93.99249999999999, 27.0825], [93.99249999999999, 27.083333333333332], [93.99166666666666, 27.083333333333332]]]}}, {"type": "Feature", "properties": {"product": "new_water", "area_ha": 23.7}, "geometry": {"type": "Polygon", "coordinates": [[[93.99499999999999, 26.8725], [93.99499999999999, 26.873333333333335], [93.99416666666666, 26.873333333333335], [93.99416666666666, 26.874166666666667], [93.99416666666666, 26.875], [93.99499999999999, 26.875], [93.99583333333332, 26.875], [93.99666666666666, 26.875], [93.99666666666666, 26.875833333333333], [93.99749999999999, 26.875833333333333], [93.99833333333332, 26.875833333333333], [93.99916666666667, 26.875833333333333], [93.99916666666667, 26.875], [94.0, 26.875], [94.0, 26.874166666666667], [94.0, 26.873333333333335], [94.0, 26.8725], [93.99916666666667, 26.8725], [93.99916666666667, 26.871666666666666], [93.99916666666667, 26.870833333333334], [93.99833333333332, 26.870833333333334], [93.99833333333332, 26.87], [93.99749999999999, 26.87], [93.99749999999999, 26.870833333333334], [93.99666666666666, 26.870833333333334], [93.99666666666666, 26.871666666666666], [93.99583333333332, 26.871666666666666], [93.99583333333332, 26.8725], [93.99499999999999, 26.8725]]]}}, {"type": "Feature", "properties": {"product": "new_water", "area_ha": 23.68}, "geometry": {"type": "Polygon", "coordinates": [[[93.99416666666666, 26.98], [93.99416666666666, 26.980833333333333], [93.99499999999999, 26.980833333333333], [93.99583333333332, 26.980833333333333], [93.99583333333332, 26.98], [93.99583333333332, 26.979166666666668], [93.99666666666666, 26.979166666666668], [93.99666666666666, 26.97833333333333], [93.99749999999999, 26.97833333333333], [93.99749999999999, 26.979166666666668], [93.99749999999999, 26.98], [93.99833333333332, 26.98], [93.99833333333332, 26.980833333333333], [93.99833333333332, 26.981666666666666], [93.99916666666667, 26.981666666666666], [93.99916666666667, 26.9825], [94.0, 26.9825], [94.0, 26.981666666666666], [94.0, 26.980833333333333], [94.0, 26.98], [94.0, 26.979166666666668], [94.0, 26.97833333333333], [94.0, 26.9775], [94.0, 26.976666666666667], [94.0, 26.975833333333334], [94.0, 26.975], [94.0, 26.974166666666665], [94.0, 26.973333333333333], [93.99916666666667, 26.973333333333333], [93.99916666666667, 26.974166666666665], [93.99916666666667, 26.975], [93.99916666666667, 26.975833333333334], [93.99833333333332, 26.975833333333334], [93.99833333333332, 26.976666666666667], [93.99749999999999, 26.976666666666667], [93.99666666666666, 26.976666666666667], [93.99666666666666, 26.9775], [93.99583333333332, 26.9775], [93.99499999999999, 26.9775], [93.99499999999999, 26.97833333333333], [93.99499999999999, 26.979166666666668], [93.99499999999999, 26.98], [93.99416666666666, 26.98]]]}}, {"type": "Feature", "properties": {"product": "new_water", "area_ha": 7.63}, "geometry": {"type": "Polygon", "coordinates": [[[94.0, 27.089166666666667], [94.0, 27.088333333333335], [93.99916666666667, 27.088333333333335], [93.99833333333332, 27.088333333333335], [93.99833333333332, 27.0875], [93.99916666666667, 27.0875], [93.99916666666667, 27.086666666666666], [94.0, 27.086666666666666], [94.0, 27.085833333333333], [93.99916666666667, 27.085833333333333], [93.99833333333332, 27.085833333333333], [93.99749999999999, 27.085833333333333], [93.99749999999999, 27.086666666666666], [93.99749999999999, 27.0875], [93.99749999999999, 27.088333333333335], [93.99749999999999, 27.089166666666667], [93.99833333333332, 27.089166666666667], [93.99916666666667, 27.089166666666667], [93.99916666666667, 27.09], [94.0, 27.09], [94.0, 27.089166666666667]]]}}, {"type": "Feature", "properties": {"product": "new_water", "area_ha": 6.1}, "geometry": {"type": "Polygon", "coordinates": [[[94.0, 27.11916666666667], [94.0, 27.118333333333332], [94.0, 27.1175], [94.0, 27.116666666666667], [93.99916666666667, 27.116666666666667], [93.99916666666667, 27.115833333333335], [93.99916666666667, 27.115], [93.99833333333332, 27.115], [93.99833333333332, 27.115833333333335], [93.99833333333332, 27.116666666666667], [93.99833333333332, 27.1175], [93.99749999999999, 27.1175], [93.99749999999999, 27.118333333333332], [93.99833333333332, 27.118333333333332], [93.99916666666667, 27.118333333333332], [93.99916666666667, 27.11916666666667], [94.0, 27.11916666666667]]]}}], "properties": {"aoi": "papum-pare", "product": "new_water", "total_ha": 1601.3, "n_patches": 48}}