{"type": "FeatureCollection", "features": [{"type": "Feature", "properties": {"product": "urban_growth", "area_ha": 11.47}, "geometry": {"type": "Polygon", "coordinates": [[[93.66, 26.859166666666667], [93.66083333333333, 26.859166666666667], [93.66083333333333, 26.858333333333334], [93.66166666666666, 26.858333333333334], [93.66166666666666, 26.859166666666667], [93.6625, 26.859166666666667], [93.66333333333333, 26.859166666666667], [93.66333333333333, 26.858333333333334], [93.6625, 26.858333333333334], [93.6625, 26.8575], [93.6625, 26.856666666666666], [93.6625, 26.855833333333333], [93.66166666666666, 26.855833333333333], [93.66166666666666, 26.855], [93.66083333333333, 26.855], [93.66, 26.855], [93.66, 26.855833333333333], [93.65916666666666, 26.855833333333333], [93.65916666666666, 26.856666666666666], [93.66, 26.856666666666666], [93.66, 26.8575], [93.66, 26.858333333333334], [93.66, 26.859166666666667]]]}}, {"type": "Feature", "properties": {"product": "urban_growth", "area_ha": 8.41}, "geometry": {"type": "Polygon", "coordinates": [[[93.66583333333332, 26.861666666666668], [93.66499999999999, 26.861666666666668], [93.66499999999999, 26.8625], [93.66499999999999, 26.863333333333333], [93.66499999999999, 26.864166666666666], [93.66583333333332, 26.864166666666666], [93.66666666666666, 26.864166666666666], [93.66749999999999, 26.864166666666666], [93.66749999999999, 26.863333333333333], [93.66666666666666, 26.863333333333333], [93.66666666666666, 26.8625], [93.66666666666666, 26.861666666666668], [93.66749999999999, 26.861666666666668], [93.66833333333332, 26.861666666666668], [93.66916666666665, 26.861666666666668], [93.66916666666665, 26.860833333333332], [93.66833333333332, 26.860833333333332], [93.66749999999999, 26.860833333333332], [93.66666666666666, 26.860833333333332], [93.66583333333332, 26.860833333333332], [93.66583333333332, 26.861666666666668]]]}}, {"type": "Feature", "properties": {"product": "urban_growth", "area_ha": 6.88}, "geometry": {"type": "Polygon", "coordinates": [[[93.64833333333333, 26.865], [93.64916666666666, 26.865], [93.64999999999999, 26.865], [93.65083333333332, 26.865], [93.65083333333332, 26.864166666666666], [93.65166666666666, 26.864166666666666], [93.65166666666666, 26.863333333333333], [93.65083333333332, 26.863333333333333], [93.65083333333332, 26.8625], [93.64999999999999, 26.8625], [93.64916666666666, 26.8625], [93.64833333333333, 26.8625], [93.64833333333333, 26.863333333333333], [93.64833333333333, 26.864166666666666], [93.64833333333333, 26.865]], [[93.64999999999999, 26.864166666666666], [93.64916666666666, 26.864166666666666], [93.64916666666666, 26.863333333333333], [93.64999999999999, 26.863333333333333], [93.64999999999999, 26.864166666666666]]]}}, {"type": "Feature", "properties": {"product": "urban_growth", "area_ha": 13.73}, "geometry": {"type": "Polygon", "coordinates": [[[93.705, 27.114166666666666], [93.705, 27.115], [93.705, 27.115833333333335], [93.70583333333333, 27.115833333333335], [93.70666666666666, 27.115833333333335], [93.70666666666666, 27.116666666666667], [93.7075, 27.116666666666667], [93.7075, 27.115833333333335], [93.7075, 27.115], [93.7075, 27.114166666666666], [93.7075, 27.113333333333333], [93.7075, 27.1125], [93.70833333333333, 27.1125], [93.70833333333333, 27.111666666666668], [93.7075, 27.111666666666668], [93.70666666666666, 27.111666666666668], [93.70583333333333, 27.111666666666668], [93.70583333333333, 27.110833333333332], [93.705, 27.110833333333332], [93.705, 27.111666666666668], [93.70416666666667, 27.111666666666668], [93.70416666666667, 27.1125], [93.70416666666667, 27.113333333333333], [93.705, 27.113333333333333], [93.705, 27.114166666666666]], [[93.705, 27.1125], [93.70583333333333, 27.1125], [93.70666666666666, 27.1125], [93.70666666666666, 27.113333333333333], [93.70583333333333, 27.113333333333333], [93.705, 27.113333333333333], [93.705, 27.1125]]]}}, {"type": "Feature", "properties": {"product": "urban_growth", "area_ha": 7.63}, "geometry": {"type": "Polygon", "coordinates": [[[93.7025, 27.1175], [93.70333333333333, 27.1175], [93.70416666666667, 27.1175], [93.705, 27.1175], [93.705, 27.116666666666667], [93.70416666666667, 27.116666666666667], [93.70416666666667, 27.115833333333335], [93.70416666666667, 27.115], [93.70416666666667, 27.114166666666666], [93.70416666666667, 27.113333333333333], [93.70333333333333, 27.113333333333333], [93.70333333333333, 27.114166666666666], [93.7025, 27.114166666666666], [93.7025, 27.115], [93.7025, 27.115833333333335], [93.7025, 27.116666666666667], [93.7025, 27.1175]]]}}, {"type": "Feature", "properties": {"product": "urban_growth", "area_ha": 6.87}, "geometry": {"type": "Polygon", "coordinates": [[[93.70583333333333, 27.126666666666665], [93.70666666666666, 27.126666666666665], [93.7075, 27.126666666666665], [93.7075, 27.125833333333333], [93.70666666666666, 27.125833333333333], [93.70666666666666, 27.125], [93.7075, 27.125], [93.70833333333333, 27.125], [93.70833333333333, 27.124166666666667], [93.7075, 27.124166666666667], [93.7075, 27.123333333333335], [93.70666666666666, 27.123333333333335], [93.70666666666666, 27.124166666666667], [93.70583333333333, 27.124166666666667], [93.70583333333333, 27.125], [93.705, 27.125], [93.705, 27.125833333333333], [93.705, 27.126666666666665], [93.70583333333333, 27.126666666666665]]]}}, {"type": "Feature", "properties": {"product": "urban_growth", "area_ha": 6.12}, "geometry": {"type": "Polygon", "coordinates": [[[93.83916666666666, 26.9025], [93.83916666666666, 26.903333333333332], [93.83833333333332, 26.903333333333332], [93.83833333333332, 26.9025], [93.83749999999999, 26.9025], [93.83749999999999, 26.903333333333332], [93.83749999999999, 26.904166666666665], [93.83833333333332, 26.904166666666665], [93.83916666666666, 26.904166666666665], [93.83999999999999, 26.904166666666665], [93.84083333333332, 26.904166666666665], [93.84083333333332, 26.903333333333332], [93.84083333333332, 26.9025], [93.83999999999999, 26.9025], [93.83999999999999, 26.901666666666667], [93.83916666666666, 26.901666666666667], [93.83916666666666, 26.9025]]]}}, {"type": "Feature", "properties": {"product": "urban_growth", "area_ha": 6.88}, "geometry": {"type": "Polygon", "coordinates": [[[93.90166666666666, 26.97], [93.90166666666666, 26.969166666666666], [93.90166666666666, 26.968333333333334], [93.90083333333332, 26.968333333333334], [93.90083333333332, 26.9675], [93.89999999999999, 26.9675], [93.89999999999999, 26.968333333333334], [93.89999999999999, 26.969166666666666], [93.89916666666666, 26.969166666666666], [93.89916666666666, 26.97], [93.89916666666666, 26.970833333333335], [93.89999999999999, 26.970833333333335], [93.90083333333332, 26.970833333333335], [93.90166666666666, 26.970833333333335], [93.90166666666666, 26.97]]]}}, {"type": "Feature", "properties": {"product": "urban_growth", "area_ha": 6.11}, "geometry": {"type": "Polygon", "coordinates": [[[93.95416666666667, 26.9375], [93.95333333333333, 26.9375], [93.95333333333333, 26.938333333333333], [93.95333333333333, 26.939166666666665], [93.95416666666667, 26.939166666666665], [93.95416666666667, 26.94], [93.955, 26.94], [93.95583333333333, 26.94], [93.95666666666666, 26.94], [93.95666666666666, 26.939166666666665], [93.95583333333333, 26.939166666666665], [93.95583333333333, 26.938333333333333], [93.955, 26.938333333333333], [93.955, 26.9375], [93.95416666666667, 26.9375]]]}}], "properties": {"aoi": "papum-pare", "product": "urban_growth", "total_ha": 74.1, "n_patches": 9}}