{"type": "FeatureCollection", "features": [{"type": "Feature", "properties": {"product": "forest_loss", "area_ha": 8.3}, "geometry": {"type": "Polygon", "coordinates": [[[76.945, 28.375], [76.945, 28.374166666666667], [76.94416666666666, 28.374166666666667], [76.94333333333333, 28.374166666666667], [76.94333333333333, 28.373333333333335], [76.9425, 28.373333333333335], [76.9425, 28.372500000000002], [76.94166666666666, 28.372500000000002], [76.94166666666666, 28.371666666666666], [76.94083333333333, 28.371666666666666], [76.94083333333333, 28.372500000000002], [76.94083333333333, 28.373333333333335], [76.94166666666666, 28.373333333333335], [76.94166666666666, 28.374166666666667], [76.9425, 28.374166666666667], [76.9425, 28.375], [76.9425, 28.375833333333333], [76.94333333333333, 28.375833333333333], [76.94416666666666, 28.375833333333333], [76.945, 28.375833333333333], [76.945, 28.375]]]}}, {"type": "Feature", "properties": {"product": "forest_loss", "area_ha": 7.53}, "geometry": {"type": "Polygon", "coordinates": [[[76.93249999999999, 28.5275], [76.93333333333332, 28.5275], [76.93333333333332, 28.528333333333332], [76.93416666666666, 28.528333333333332], [76.93499999999999, 28.528333333333332], [76.93499999999999, 28.5275], [76.93583333333332, 28.5275], [76.93583333333332, 28.526666666666667], [76.93499999999999, 28.526666666666667], [76.93499999999999, 28.525833333333335], [76.93416666666666, 28.525833333333335], [76.93333333333332, 28.525833333333335], [76.93249999999999, 28.525833333333335], [76.93166666666666, 28.525833333333335], [76.93166666666666, 28.526666666666667], [76.93249999999999, 28.526666666666667], [76.93249999999999, 28.5275]]]}}, {"type": "Feature", "properties": {"product": "forest_loss", "area_ha": 9.05}, "geometry": {"type": "Polygon", "coordinates": [[[76.9575, 28.373333333333335], [76.9575, 28.374166666666667], [76.95833333333333, 28.374166666666667], [76.95833333333333, 28.373333333333335], [76.95833333333333, 28.372500000000002], [76.95833333333333, 28.371666666666666], [76.95833333333333, 28.370833333333334], [76.95833333333333, 28.37], [76.95833333333333, 28.36916666666667], [76.9575, 28.36916666666667], [76.9575, 28.37], [76.95666666666666, 28.37], [76.95666666666666, 28.370833333333334], [76.95666666666666, 28.371666666666666], [76.95583333333333, 28.371666666666666], [76.95583333333333, 28.372500000000002], [76.95583333333333, 28.373333333333335], [76.95666666666666, 28.373333333333335], [76.9575, 28.373333333333335]]]}}, {"type": "Feature", "properties": {"product": "forest_loss", "area_ha": 29.41}, "geometry": {"type": "Polygon", "coordinates": [[[76.96666666666665, 28.425833333333333], [76.96583333333332, 28.425833333333333], [76.96499999999999, 28.425833333333333], [76.96499999999999, 28.426666666666666], [76.96416666666666, 28.426666666666666], [76.96333333333332, 28.426666666666666], [76.96249999999999, 28.426666666666666], [76.96249999999999, 28.427500000000002], [76.96249999999999, 28.428333333333335], [76.96249999999999, 28.429166666666667], [76.96333333333332, 28.429166666666667], [76.96333333333332, 28.428333333333335], [76.96416666666666, 28.428333333333335], [76.96416666666666, 28.427500000000002], [76.96499999999999, 28.427500000000002], [76.96583333333332, 28.427500000000002], [76.96583333333332, 28.428333333333335], [76.96583333333332, 28.429166666666667], [76.96583333333332, 28.43], [76.96583333333332, 28.430833333333332], [76.96583333333332, 28.43166666666667], [76.96499999999999, 28.43166666666667], [76.96499999999999, 28.4325], [76.96583333333332, 28.4325], [76.96666666666665, 28.4325], [76.96666666666665, 28.43166666666667], [76.9675, 28.43166666666667], [76.9675, 28.4325], [76.9675, 28.433333333333334], [76.96833333333333, 28.433333333333334], [76.96833333333333, 28.4325], [76.96916666666667, 28.4325], [76.96916666666667, 28.433333333333334], [76.97, 28.433333333333334], [76.97, 28.4325], [76.97, 28.43166666666667], [76.97, 28.430833333333332], [76.96916666666667, 28.430833333333332], [76.96916666666667, 28.43166666666667], [76.96833333333333, 28.43166666666667], [76.96833333333333, 28.430833333333332], [76.9675, 28.430833333333332], [76.96666666666665, 28.430833333333332], [76.96666666666665, 28.43], [76.96666666666665, 28.429166666666667], [76.96666666666665, 28.428333333333335], [76.96666666666665, 28.427500000000002], [76.9675, 28.427500000000002], [76.9675, 28.428333333333335], [76.96833333333333, 28.428333333333335], [76.96916666666667, 28.428333333333335], [76.97, 28.428333333333335], [76.97083333333333, 28.428333333333335], [76.97166666666666, 28.428333333333335], [76.97166666666666, 28.427500000000002], [76.97166666666666, 28.426666666666666], [76.97083333333333, 28.426666666666666], [76.97083333333333, 28.425833333333333], [76.97, 28.425833333333333], [76.96916666666667, 28.425833333333333], [76.96916666666667, 28.426666666666666], [76.96833333333333, 28.426666666666666], [76.96833333333333, 28.425833333333333], [76.9675, 28.425833333333333], [76.9675, 28.426666666666666], [76.96666666666665, 28.426666666666666], [76.96666666666665, 28.425833333333333]]]}}, {"type": "Feature", "properties": {"product": "forest_loss", "area_ha": 9.05}, "geometry": {"type": "Polygon", "coordinates": [[[76.975, 28.443333333333335], [76.975, 28.4425], [76.97583333333333, 28.4425], [76.97666666666666, 28.4425], [76.97666666666666, 28.441666666666666], [76.97583333333333, 28.441666666666666], [76.975, 28.441666666666666], [76.975, 28.440833333333334], [76.975, 28.44], [76.97583333333333, 28.44], [76.97583333333333, 28.43916666666667], [76.975, 28.43916666666667], [76.97416666666666, 28.43916666666667], [76.97416666666666, 28.438333333333333], [76.97333333333333, 28.438333333333333], [76.97333333333333, 28.43916666666667], [76.97333333333333, 28.44], [76.9725, 28.44], [76.9725, 28.440833333333334], [76.97333333333333, 28.440833333333334], [76.97416666666666, 28.440833333333334], [76.97416666666666, 28.441666666666666], [76.97416666666666, 28.4425], [76.97416666666666, 28.443333333333335], [76.975, 28.443333333333335]]]}}, {"type": "Feature", "properties": {"product": "forest_loss", "area_ha": 8.31}, "geometry": {"type": "Polygon", "coordinates": [[[77.00583333333333, 28.156666666666666], [77.00666666666666, 28.156666666666666], [77.00666666666666, 28.155833333333334], [77.00666666666666, 28.155], [77.00583333333333, 28.155], [77.00583333333333, 28.155833333333334], [77.005, 28.155833333333334], [77.00416666666666, 28.155833333333334], [77.00416666666666, 28.155], [77.00416666666666, 28.15416666666667], [77.00333333333333, 28.15416666666667], [77.0025, 28.15416666666667], [77.00166666666667, 28.15416666666667], [77.00166666666667, 28.155], [77.00166666666667, 28.155833333333334], [77.00166666666667, 28.156666666666666], [77.0025, 28.156666666666666], [77.0025, 28.155833333333334], [77.0025, 28.155], [77.00333333333333, 28.155], [77.00333333333333, 28.155833333333334], [77.00333333333333, 28.156666666666666], [77.00416666666666, 28.156666666666666], [77.005, 28.156666666666666], [77.00583333333333, 28.156666666666666]]]}}, {"type": "Feature", "properties": {"product": "forest_loss", "area_ha": 7.56}, "geometry": {"type": "Polygon", "coordinates": [[[77.005, 28.159166666666668], [77.00416666666666, 28.159166666666668], [77.00416666666666, 28.16], [77.005, 28.16], [77.00583333333333, 28.16], [77.00666666666666, 28.16], [77.00666666666666, 28.160833333333333], [77.0075, 28.160833333333333], [77.0075, 28.16], [77.00833333333333, 28.16], [77.00916666666666, 28.16], [77.00999999999999, 28.16], [77.00999999999999, 28.159166666666668], [77.00999999999999, 28.158333333333335], [77.00999999999999, 28.157500000000002], [77.00916666666666, 28.157500000000002], [77.00916666666666, 28.158333333333335], [77.00916666666666, 28.159166666666668], [77.00833333333333, 28.159166666666668], [77.0075, 28.159166666666668], [77.00666666666666, 28.159166666666668], [77.00583333333333, 28.159166666666668], [77.005, 28.159166666666668]]]}}, {"type": "Feature", "properties": {"product": "forest_loss", "area_ha": 8.31}, "geometry": {"type": "Polygon", "coordinates": [[[77.01333333333332, 28.184166666666666], [77.01333333333332, 28.185000000000002], [77.01333333333332, 28.185833333333335], [77.01416666666667, 28.185833333333335], [77.01416666666667, 28.185000000000002], [77.015, 28.185000000000002], [77.015, 28.184166666666666], [77.01416666666667, 28.184166666666666], [77.01416666666667, 28.183333333333334], [77.01416666666667, 28.1825], [77.01333333333332, 28.1825], [77.01249999999999, 28.1825], [77.01249999999999, 28.18166666666667], [77.01166666666666, 28.18166666666667], [77.01166666666666, 28.1825], [77.01166666666666, 28.183333333333334], [77.01166666666666, 28.184166666666666], [77.01166666666666, 28.185000000000002], [77.01166666666666, 28.185833333333335], [77.01249999999999, 28.185833333333335], [77.01249999999999, 28.185000000000002], [77.01249999999999, 28.184166666666666], [77.01249999999999, 28.183333333333334], [77.01333333333332, 28.183333333333334], [77.01333333333332, 28.184166666666666]]]}}, {"type": "Feature", "properties": {"product": "forest_loss", "area_ha": 9.06}, "geometry": {"type": "Polygon", "coordinates": [[[76.99583333333332, 28.305833333333332], [76.99666666666666, 28.305833333333332], [76.99666666666666, 28.305], [76.99749999999999, 28.305], [76.99749999999999, 28.304166666666667], [76.99833333333332, 28.304166666666667], [76.99833333333332, 28.305], [76.99916666666667, 28.305], [77.0, 28.305], [77.0, 28.304166666666667], [76.99916666666667, 28.304166666666667], [76.99916666666667, 28.303333333333335], [76.99833333333332, 28.303333333333335], [76.99833333333332, 28.302500000000002], [76.99749999999999, 28.302500000000002], [76.99666666666666, 28.302500000000002], [76.99583333333332, 28.302500000000002], [76.99583333333332, 28.303333333333335], [76.99499999999999, 28.303333333333335], [76.99499999999999, 28.304166666666667], [76.99583333333332, 28.304166666666667], [76.99583333333332, 28.305], [76.99583333333332, 28.305833333333332]], [[76.99666666666666, 28.304166666666667], [76.99666666666666, 28.303333333333335], [76.99749999999999, 28.303333333333335], [76.99749999999999, 28.304166666666667], [76.99666666666666, 28.304166666666667]]]}}, {"type": "Feature", "properties": {"product": "forest_loss", "area_ha": 22.68}, "geometry": {"type": "Polygon", "coordinates": [[[77.02916666666665, 28.155833333333334], [77.03, 28.155833333333334], [77.03, 28.155], [77.03083333333333, 28.155], [77.03083333333333, 28.15416666666667], [77.03083333333333, 28.153333333333332], [77.03166666666667, 28.153333333333332], [77.03166666666667, 28.15416666666667], [77.03166666666667, 28.155], [77.0325, 28.155], [77.03333333333333, 28.155], [77.03333333333333, 28.15416666666667], [77.03416666666666, 28.15416666666667], [77.035, 28.15416666666667], [77.035, 28.153333333333332], [77.035, 28.1525], [77.035, 28.151666666666667], [77.03416666666666, 28.151666666666667], [77.03416666666666, 28.150833333333335], [77.03416666666666, 28.150000000000002], [77.03333333333333, 28.150000000000002], [77.03333333333333, 28.150833333333335], [77.0325, 28.150833333333335], [77.0325, 28.151666666666667], [77.03333333333333, 28.151666666666667], [77.03333333333333, 28.1525], [77.03333333333333, 28.153333333333332], [77.0325, 28.153333333333332], [77.0325, 28.1525], [77.03166666666667, 28.1525], [77.03166666666667, 28.151666666666667], [77.03166666666667, 28.150833333333335], [77.03083333333333, 28.150833333333335], [77.03083333333333, 28.150000000000002], [77.03, 28.150000000000002], [77.03, 28.150833333333335], [77.02916666666665, 28.150833333333335], [77.02916666666665, 28.151666666666667], [77.03, 28.151666666666667], [77.03, 28.1525], [77.02916666666665, 28.1525], [77.02833333333332, 28.1525], [77.02833333333332, 28.153333333333332], [77.02916666666665, 28.153333333333332], [77.02916666666665, 28.15416666666667], [77.02833333333332, 28.15416666666667], [77.02833333333332, 28.155], [77.02916666666665, 28.155], [77.02916666666665, 28.155833333333334]]]}}, {"type": "Feature", "properties": {"product": "forest_loss", "area_ha": 8.31}, "geometry": {"type": "Polygon", "coordinates": [[[77.02333333333333, 28.1875], [77.02333333333333, 28.186666666666667], [77.02333333333333, 28.185833333333335], [77.0225, 28.185833333333335], [77.0225, 28.185000000000002], [77.02166666666666, 28.185000000000002], [77.02083333333333, 28.185000000000002], [77.02083333333333, 28.185833333333335], [77.02083333333333, 28.186666666666667], [77.02083333333333, 28.1875], [77.02083333333333, 28.188333333333333], [77.02166666666666, 28.188333333333333], [77.0225, 28.188333333333333], [77.02333333333333, 28.188333333333333], [77.02333333333333, 28.1875]]]}}, {"type": "Feature", "properties": {"product": "forest_loss", "area_ha": 6.04}, "geometry": {"type": "Polygon", "coordinates": [[[77.02416666666666, 28.2775], [77.02416666666666, 28.278333333333332], [77.02499999999999, 28.278333333333332], [77.02499999999999, 28.2775], [77.02583333333332, 28.2775], [77.02583333333332, 28.276666666666667], [77.02583333333332, 28.275833333333335], [77.02499999999999, 28.275833333333335], [77.02499999999999, 28.276666666666667], [77.02416666666666, 28.276666666666667], [77.02416666666666, 28.275833333333335], [77.02416666666666, 28.275000000000002], [77.02416666666666, 28.274166666666666], [77.02333333333333, 28.274166666666666], [77.02333333333333, 28.275000000000002], [77.02333333333333, 28.275833333333335], [77.02333333333333, 28.276666666666667], [77.02333333333333, 28.2775], [77.02416666666666, 28.2775]]]}}, {"type": "Feature", "properties": {"product": "forest_loss", "area_ha": 11.32}, "geometry": {"type": "Polygon", "coordinates": [[[77.01583333333333, 28.2975], [77.01583333333333, 28.298333333333336], [77.01666666666667, 28.298333333333336], [77.0175, 28.298333333333336], [77.0175, 28.2975], [77.01666666666667, 28.2975], [77.01666666666667, 28.296666666666667], [77.0175, 28.296666666666667], [77.0175, 28.295833333333334], [77.01666666666667, 28.295833333333334], [77.01666666666667, 28.295], [77.01666666666667, 28.29416666666667], [77.01583333333333, 28.29416666666667], [77.015, 28.29416666666667], [77.015, 28.293333333333333], [77.01416666666667, 28.293333333333333], [77.01416666666667, 28.29416666666667], [77.01333333333332, 28.29416666666667], [77.01333333333332, 28.295], [77.01416666666667, 28.295], [77.01416666666667, 28.295833333333334], [77.01416666666667, 28.296666666666667], [77.015, 28.296666666666667], [77.01583333333333, 28.296666666666667], [77.01583333333333, 28.2975]]]}}, {"type": "Feature", "properties": {"product": "forest_loss", "area_ha": 10.57}, "geometry": {"type": "Polygon", "coordinates": [[[77.0175, 28.309166666666666], [77.0175, 28.310000000000002], [77.0175, 28.310833333333335], [77.01833333333333, 28.310833333333335], [77.01916666666666, 28.310833333333335], [77.01916666666666, 28.310000000000002], [77.01916666666666, 28.309166666666666], [77.02, 28.309166666666666], [77.02, 28.308333333333334], [77.02, 28.3075], [77.02083333333333, 28.3075], [77.02083333333333, 28.30666666666667], [77.02, 28.30666666666667], [77.02, 28.305833333333332], [77.01916666666666, 28.305833333333332], [77.01833333333333, 28.305833333333332], [77.01833333333333, 28.30666666666667], [77.0175, 28.30666666666667], [77.0175, 28.3075], [77.01833333333333, 28.3075], [77.01833333333333, 28.308333333333334], [77.01833333333333, 28.309166666666666], [77.0175, 28.309166666666666]]]}}, {"type": "Feature", "properties": {"product": "forest_loss", "area_ha": 6.79}, "geometry": {"type": "Polygon", "coordinates": [[[77.02166666666666, 28.310833333333335], [77.0225, 28.310833333333335], [77.0225, 28.311666666666667], [77.02333333333333, 28.311666666666667], [77.02333333333333, 28.310833333333335], [77.02333333333333, 28.310000000000002], [77.02416666666666, 28.310000000000002], [77.02416666666666, 28.309166666666666], [77.02333333333333, 28.309166666666666], [77.0225, 28.309166666666666], [77.02166666666666, 28.309166666666666], [77.02166666666666, 28.308333333333334], [77.02083333333333, 28.308333333333334], [77.02083333333333, 28.309166666666666], [77.02, 28.309166666666666], [77.02, 28.310000000000002], [77.02083333333333, 28.310000000000002], [77.02166666666666, 28.310000000000002], [77.02166666666666, 28.310833333333335]]]}}, {"type": "Feature", "properties": {"product": "forest_loss", "area_ha": 6.03}, "geometry": {"type": "Polygon", "coordinates": [[[77.03416666666666, 28.5375], [77.03333333333333, 28.5375], [77.03333333333333, 28.538333333333334], [77.03416666666666, 28.538333333333334], [77.035, 28.538333333333334], [77.035, 28.5375], [77.03583333333333, 28.5375], [77.03666666666666, 28.5375], [77.03666666666666, 28.53666666666667], [77.03666666666666, 28.535833333333333], [77.03583333333333, 28.535833333333333], [77.035, 28.535833333333333], [77.03416666666666, 28.535833333333333], [77.03416666666666, 28.53666666666667], [77.03416666666666, 28.5375]]]}}, {"type": "Feature", "properties": {"product": "forest_loss", "area_ha": 12.85}, "geometry": {"type": "Polygon", "coordinates": [[[77.06083333333332, 28.199166666666667], [77.06083333333332, 28.198333333333334], [77.06083333333332, 28.1975], [77.06166666666667, 28.1975], [77.06166666666667, 28.198333333333334], [77.0625, 28.198333333333334], [77.0625, 28.199166666666667], [77.06333333333333, 28.199166666666667], [77.06333333333333, 28.198333333333334], [77.06416666666667, 28.198333333333334], [77.065, 28.198333333333334], [77.06583333333333, 28.198333333333334], [77.06666666666666, 28.198333333333334], [77.06666666666666, 28.1975], [77.06583333333333, 28.1975], [77.065, 28.1975], [77.06416666666667, 28.1975], [77.06333333333333, 28.1975], [77.06333333333333, 28.19666666666667], [77.0625, 28.19666666666667], [77.0625, 28.195833333333333], [77.06166666666667, 28.195833333333333], [77.06083333333332, 28.195833333333333], [77.05999999999999, 28.195833333333333], [77.05999999999999, 28.19666666666667], [77.05999999999999, 28.1975], [77.05916666666666, 28.1975], [77.05916666666666, 28.198333333333334], [77.05999999999999, 28.198333333333334], [77.05999999999999, 28.199166666666667], [77.06083333333332, 28.199166666666667]]]}}, {"type": "Feature", "properties": {"product": "forest_loss", "area_ha": 6.04}, "geometry": {"type": "Polygon", "coordinates": [[[77.06583333333333, 28.316666666666666], [77.06583333333333, 28.3175], [77.06666666666666, 28.3175], [77.06666666666666, 28.316666666666666], [77.06666666666666, 28.315833333333334], [77.06666666666666, 28.315], [77.06666666666666, 28.31416666666667], [77.06583333333333, 28.31416666666667], [77.06583333333333, 28.315], [77.065, 28.315], [77.065, 28.315833333333334], [77.06416666666667, 28.315833333333334], [77.06416666666667, 28.316666666666666], [77.06416666666667, 28.3175], [77.065, 28.3175], [77.065, 28.316666666666666], [77.06583333333333, 28.316666666666666]]]}}, {"type": "Feature", "properties": {"product": "forest_loss", "area_ha": 10.58}, "geometry": {"type": "Polygon", "coordinates": [[[77.07499999999999, 28.168333333333333], [77.07416666666666, 28.168333333333333], [77.07416666666666, 28.16916666666667], [77.07499999999999, 28.16916666666667], [77.07499999999999, 28.17], [77.07583333333332, 28.17], [77.07583333333332, 28.16916666666667], [77.07666666666667, 28.16916666666667], [77.0775, 28.16916666666667], [77.0775, 28.168333333333333], [77.07666666666667, 28.168333333333333], [77.07666666666667, 28.1675], [77.0775, 28.1675], [77.0775, 28.166666666666668], [77.07666666666667, 28.166666666666668], [77.07666666666667, 28.165833333333335], [77.07583333333332, 28.165833333333335], [77.07499999999999, 28.165833333333335], [77.07416666666666, 28.165833333333335], [77.07416666666666, 28.166666666666668], [77.07416666666666, 28.1675], [77.07499999999999, 28.1675], [77.07499999999999, 28.168333333333333]]]}}, {"type": "Feature", "properties": {"product": "forest_loss", "area_ha": 13.58}, "geometry": {"type": "Polygon", "coordinates": [[[77.06666666666666, 28.33416666666667], [77.06666666666666, 28.335], [77.0675, 28.335], [77.0675, 28.33416666666667], [77.06833333333333, 28.33416666666667], [77.06916666666666, 28.33416666666667], [77.07, 28.33416666666667], [77.07, 28.333333333333336], [77.06916666666666, 28.333333333333336], [77.06916666666666, 28.3325], [77.06833333333333, 28.3325], [77.06833333333333, 28.331666666666667], [77.06833333333333, 28.330833333333334], [77.0675, 28.330833333333334], [77.0675, 28.330000000000002], [77.0675, 28.329166666666666], [77.0675, 28.328333333333333], [77.0675, 28.3275], [77.0675, 28.326666666666668], [77.0675, 28.325833333333335], [77.06666666666666, 28.325833333333335], [77.06666666666666, 28.326666666666668], [77.06666666666666, 28.3275], [77.06666666666666, 28.328333333333333], [77.06666666666666, 28.329166666666666], [77.06666666666666, 28.330000000000002], [77.06666666666666, 28.330833333333334], [77.06666666666666, 28.331666666666667], [77.06666666666666, 28.3325], [77.06666666666666, 28.333333333333336], [77.06666666666666, 28.33416666666667]]]}}, {"type": "Feature", "properties": {"product": "forest_loss", "area_ha": 8.31}, "geometry": {"type": "Polygon", "coordinates": [[[77.10583333333332, 28.204166666666666], [77.10583333333332, 28.205000000000002], [77.10583333333332, 28.205833333333334], [77.10499999999999, 28.205833333333334], [77.10499999999999, 28.205000000000002], [77.10416666666666, 28.205000000000002], [77.10416666666666, 28.205833333333334], [77.10333333333332, 28.205833333333334], [77.10333333333332, 28.206666666666667], [77.10416666666666, 28.206666666666667], [77.10416666666666, 28.2075], [77.10499999999999, 28.2075], [77.10499999999999, 28.206666666666667], [77.10583333333332, 28.206666666666667], [77.10666666666665, 28.206666666666667], [77.10749999999999, 28.206666666666667], [77.10749999999999, 28.205833333333334], [77.10749999999999, 28.205000000000002], [77.10749999999999, 28.204166666666666], [77.10666666666665, 28.204166666666666], [77.10583333333332, 28.204166666666666]]]}}, {"type": "Feature", "properties": {"product": "forest_loss", "area_ha": 6.03}, "geometry": {"type": "Polygon", "coordinates": [[[77.10666666666665, 28.448333333333334], [77.10583333333332, 28.448333333333334], [77.10583333333332, 28.449166666666667], [77.10583333333332, 28.45], [77.10666666666665, 28.45], [77.10749999999999, 28.45], [77.10833333333333, 28.45], [77.10916666666667, 28.45], [77.11, 28.45], [77.11083333333333, 28.45], [77.11083333333333, 28.449166666666667], [77.11, 28.449166666666667], [77.10916666666667, 28.449166666666667], [77.10833333333333, 28.449166666666667], [77.10833333333333, 28.448333333333334], [77.10749999999999, 28.448333333333334], [77.10749999999999, 28.449166666666667], [77.10666666666665, 28.449166666666667], [77.10666666666665, 28.448333333333334]]]}}, {"type": "Feature", "properties": {"product": "forest_loss", "area_ha": 6.03}, "geometry": {"type": "Polygon", "coordinates": [[[77.10749999999999, 28.535833333333333], [77.10833333333333, 28.535833333333333], [77.10833333333333, 28.535], [77.10916666666667, 28.535], [77.10916666666667, 28.534166666666668], [77.10833333333333, 28.534166666666668], [77.10749999999999, 28.534166666666668], [77.10749999999999, 28.535], [77.10666666666665, 28.535], [77.10583333333332, 28.535], [77.10583333333332, 28.535833333333333], [77.10499999999999, 28.535833333333333], [77.10499999999999, 28.53666666666667], [77.10583333333332, 28.53666666666667], [77.10666666666665, 28.53666666666667], [77.10749999999999, 28.53666666666667], [77.10749999999999, 28.535833333333333]]]}}, {"type": "Feature", "properties": {"product": "forest_loss", "area_ha": 7.56}, "geometry": {"type": "Polygon", "coordinates": [[[77.11833333333333, 28.210833333333333], [77.11833333333333, 28.21], [77.11833333333333, 28.20916666666667], [77.11916666666666, 28.20916666666667], [77.11916666666666, 28.208333333333336], [77.11999999999999, 28.208333333333336], [77.11999999999999, 28.2075], [77.11916666666666, 28.2075], [77.11916666666666, 28.206666666666667], [77.11833333333333, 28.206666666666667], [77.11833333333333, 28.2075], [77.11749999999999, 28.2075], [77.11749999999999, 28.208333333333336], [77.11749999999999, 28.20916666666667], [77.11666666666666, 28.20916666666667], [77.11666666666666, 28.21], [77.11666666666666, 28.210833333333333], [77.11749999999999, 28.210833333333333], [77.11833333333333, 28.210833333333333]]]}}, {"type": "Feature", "properties": {"product": "forest_loss", "area_ha": 6.78}, "geometry": {"type": "Polygon", "coordinates": [[[77.11333333333333, 28.473333333333333], [77.11333333333333, 28.47416666666667], [77.11333333333333, 28.475], [77.11416666666666, 28.475], [77.11416666666666, 28.47416666666667], [77.11416666666666, 28.473333333333333], [77.11416666666666, 28.4725], [77.11416666666666, 28.471666666666668], [77.11333333333333, 28.471666666666668], [77.11333333333333, 28.470833333333335], [77.11333333333333, 28.470000000000002], [77.1125, 28.470000000000002], [77.1125, 28.470833333333335], [77.1125, 28.471666666666668], [77.11166666666666, 28.471666666666668], [77.11166666666666, 28.4725], [77.1125, 28.4725], [77.1125, 28.473333333333333], [77.11333333333333, 28.473333333333333]]]}}, {"type": "Feature", "properties": {"product": "forest_loss", "area_ha": 9.04}, "geometry": {"type": "Polygon", "coordinates": [[[77.11333333333333, 28.539166666666667], [77.11416666666666, 28.539166666666667], [77.11416666666666, 28.54], [77.115, 28.54], [77.115, 28.540833333333335], [77.11583333333333, 28.540833333333335], [77.11583333333333, 28.54], [77.11666666666666, 28.54], [77.11666666666666, 28.539166666666667], [77.11583333333333, 28.539166666666667], [77.11583333333333, 28.538333333333334], [77.115, 28.538333333333334], [77.115, 28.5375], [77.11416666666666, 28.5375], [77.11333333333333, 28.5375], [77.11333333333333, 28.538333333333334], [77.1125, 28.538333333333334], [77.11166666666666, 28.538333333333334], [77.11166666666666, 28.539166666666667], [77.1125, 28.539166666666667], [77.1125, 28.54], [77.11333333333333, 28.54], [77.11333333333333, 28.539166666666667]]]}}, {"type": "Feature", "properties": {"product": "forest_loss", "area_ha": 8.29}, "geometry": {"type": "Polygon", "coordinates": [[[77.11083333333333, 28.546666666666667], [77.11083333333333, 28.5475], [77.11166666666666, 28.5475], [77.1125, 28.5475], [77.1125, 28.546666666666667], [77.1125, 28.545833333333334], [77.11333333333333, 28.545833333333334], [77.11333333333333, 28.545], [77.1125, 28.545], [77.1125, 28.54416666666667], [77.11166666666666, 28.54416666666667], [77.11166666666666, 28.543333333333333], [77.11166666666666, 28.5425], [77.11083333333333, 28.5425], [77.11083333333333, 28.543333333333333], [77.11083333333333, 28.54416666666667], [77.11, 28.54416666666667], [77.11, 28.545], [77.11083333333333, 28.545], [77.11166666666666, 28.545], [77.11166666666666, 28.545833333333334], [77.11083333333333, 28.545833333333334], [77.11083333333333, 28.546666666666667]]]}}, {"type": "Feature", "properties": {"product": "forest_loss", "area_ha": 6.78}, "geometry": {"type": "Polygon", "coordinates": [[[77.15083333333332, 28.486666666666668], [77.15166666666666, 28.486666666666668], [77.15166666666666, 28.485833333333336], [77.15083333333332, 28.485833333333336], [77.15083333333332, 28.485], [77.15083333333332, 28.484166666666667], [77.15083333333332, 28.483333333333334], [77.15083333333332, 28.4825], [77.15083333333332, 28.48166666666667], [77.14999999999999, 28.48166666666667], [77.14999999999999, 28.4825], [77.14999999999999, 28.483333333333334], [77.14999999999999, 28.484166666666667], [77.14999999999999, 28.485], [77.14999999999999, 28.485833333333336], [77.14999999999999, 28.486666666666668], [77.14999999999999, 28.4875], [77.14999999999999, 28.488333333333333], [77.15083333333332, 28.488333333333333], [77.15083333333332, 28.4875], [77.15083333333332, 28.486666666666668]]]}}, {"type": "Feature", "properties": {"product": "forest_loss", "area_ha": 39.97}, "geometry": {"type": "Polygon", "coordinates": [[[77.16666666666666, 28.41916666666667], [77.16666666666666, 28.42], [77.16666666666666, 28.420833333333334], [77.16666666666666, 28.421666666666667], [77.16749999999999, 28.421666666666667], [77.16749999999999, 28.4225], [77.16833333333332, 28.4225], [77.16833333333332, 28.423333333333336], [77.16833333333332, 28.424166666666668], [77.16916666666665, 28.424166666666668], [77.16916666666665, 28.423333333333336], [77.16999999999999, 28.423333333333336], [77.17083333333333, 28.423333333333336], [77.17083333333333, 28.4225], [77.17166666666667, 28.4225], [77.1725, 28.4225], [77.1725, 28.421666666666667], [77.17166666666667, 28.421666666666667], [77.17083333333333, 28.421666666666667], [77.17083333333333, 28.420833333333334], [77.16999999999999, 28.420833333333334], [77.16999999999999, 28.42], [77.16916666666665, 28.42], [77.16833333333332, 28.42], [77.16749999999999, 28.42], [77.16749999999999, 28.41916666666667], [77.16833333333332, 28.41916666666667], [77.16833333333332, 28.418333333333333], [77.16916666666665, 28.418333333333333], [77.16999999999999, 28.418333333333333], [77.16999999999999, 28.41916666666667], [77.17083333333333, 28.41916666666667], [77.17083333333333, 28.418333333333333], [77.17083333333333, 28.4175], [77.17083333333333, 28.416666666666668], [77.17083333333333, 28.415833333333335], [77.17166666666667, 28.415833333333335], [77.17166666666667, 28.415], [77.17166666666667, 28.414166666666667], [77.17083333333333, 28.414166666666667], [77.17083333333333, 28.413333333333334], [77.16999999999999, 28.413333333333334], [77.16999999999999, 28.4125], [77.16916666666665, 28.4125], [77.16916666666665, 28.413333333333334], [77.16833333333332, 28.413333333333334], [77.16749999999999, 28.413333333333334], [77.16749999999999, 28.414166666666667], [77.16833333333332, 28.414166666666667], [77.16833333333332, 28.415], [77.16833333333332, 28.415833333333335], [77.16749999999999, 28.415833333333335], [77.16666666666666, 28.415833333333335], [77.16583333333332, 28.415833333333335], [77.16583333333332, 28.416666666666668], [77.16583333333332, 28.4175], [77.16583333333332, 28.418333333333333], [77.16583333333332, 28.41916666666667], [77.16666666666666, 28.41916666666667]], [[77.16999999999999, 28.421666666666667], [77.16999999999999, 28.4225], [77.16916666666665, 28.4225], [77.16916666666665, 28.421666666666667], [77.16916666666665, 28.420833333333334], [77.16999999999999, 28.420833333333334], [77.16999999999999, 28.421666666666667]]]}}, {"type": "Feature", "properties": {"product": "forest_loss", "area_ha": 6.03}, "geometry": {"type": "Polygon", "coordinates": [[[77.15833333333333, 28.50166666666667], [77.15833333333333, 28.500833333333333], [77.15916666666666, 28.500833333333333], [77.15916666666666, 28.5], [77.15833333333333, 28.5], [77.15833333333333, 28.499166666666667], [77.1575, 28.499166666666667], [77.1575, 28.5], [77.15666666666667, 28.5], [77.15666666666667, 28.500833333333333], [77.15666666666667, 28.50166666666667], [77.15666666666667, 28.5025], [77.1575, 28.5025], [77.15833333333333, 28.5025], [77.15833333333333, 28.50166666666667]]]}}, {"type": "Feature", "properties": {"product": "forest_loss", "area_ha": 10.58}, "geometry": {"type": "Polygon", "coordinates": [[[77.1725, 28.164166666666667], [77.1725, 28.165], [77.1725, 28.165833333333335], [77.17333333333333, 28.165833333333335], [77.17416666666666, 28.165833333333335], [77.17416666666666, 28.165], [77.17416666666666, 28.164166666666667], [77.17333333333333, 28.164166666666667], [77.17333333333333, 28.163333333333334], [77.17416666666666, 28.163333333333334], [77.17416666666666, 28.1625], [77.17333333333333, 28.1625], [77.17333333333333, 28.16166666666667], [77.1725, 28.16166666666667], [77.1725, 28.160833333333333], [77.17166666666667, 28.160833333333333], [77.17166666666667, 28.16166666666667], [77.17083333333333, 28.16166666666667], [77.17083333333333, 28.1625], [77.17083333333333, 28.163333333333334], [77.17083333333333, 28.164166666666667], [77.17166666666667, 28.164166666666667], [77.17166666666667, 28.163333333333334], [77.1725, 28.163333333333334], [77.1725, 28.164166666666667]]]}}, {"type": "Feature", "properties": {"product": "forest_loss", "area_ha": 16.59}, "geometry": {"type": "Polygon", "coordinates": [[[77.1725, 28.425], [77.1725, 28.425833333333333], [77.17333333333333, 28.425833333333333], [77.17416666666666, 28.425833333333333], [77.17416666666666, 28.425], [77.17416666666666, 28.424166666666668], [77.175, 28.424166666666668], [77.17583333333333, 28.424166666666668], [77.17583333333333, 28.423333333333336], [77.17583333333333, 28.4225], [77.17666666666666, 28.4225], [77.17666666666666, 28.421666666666667], [77.17583333333333, 28.421666666666667], [77.17583333333333, 28.420833333333334], [77.175, 28.420833333333334], [77.175, 28.42], [77.175, 28.41916666666667], [77.17416666666666, 28.41916666666667], [77.17416666666666, 28.42], [77.17333333333333, 28.42], [77.17333333333333, 28.420833333333334], [77.17333333333333, 28.421666666666667], [77.17333333333333, 28.4225], [77.1725, 28.4225], [77.1725, 28.423333333333336], [77.1725, 28.424166666666668], [77.1725, 28.425]]]}}, {"type": "Feature", "properties": {"product": "forest_loss", "area_ha": 6.03}, "geometry": {"type": "Polygon", "coordinates": [[[77.17583333333333, 28.41], [77.17666666666666, 28.41], [77.17666666666666, 28.410833333333333], [77.1775, 28.410833333333333], [77.1775, 28.41], [77.1775, 28.409166666666668], [77.17666666666666, 28.409166666666668], [77.17666666666666, 28.408333333333335], [77.17583333333333, 28.408333333333335], [77.17583333333333, 28.409166666666668], [77.175, 28.409166666666668], [77.175, 28.41], [77.17416666666666, 28.41], [77.17416666666666, 28.410833333333333], [77.175, 28.410833333333333], [77.175, 28.41166666666667], [77.17583333333333, 28.41166666666667], [77.17583333333333, 28.410833333333333], [77.17583333333333, 28.41]]]}}, {"type": "Feature", "properties": {"product": "forest_loss", "area_ha": 8.29}, "geometry": {"type": "Polygon", "coordinates": [[[77.18083333333333, 28.418333333333333], [77.18166666666666, 28.418333333333333], [77.18249999999999, 28.418333333333333], [77.18249999999999, 28.4175], [77.18249999999999, 28.416666666666668], [77.18249999999999, 28.415833333333335], [77.18333333333332, 28.415833333333335], [77.18333333333332, 28.416666666666668], [77.18333333333332, 28.4175], [77.18416666666666, 28.4175], [77.18416666666666, 28.416666666666668], [77.18416666666666, 28.415833333333335], [77.18416666666666, 28.415], [77.18333333333332, 28.415], [77.18249999999999, 28.415], [77.18166666666666, 28.415], [77.18166666666666, 28.415833333333335], [77.18083333333333, 28.415833333333335], [77.18083333333333, 28.416666666666668], [77.18083333333333, 28.4175], [77.18083333333333, 28.418333333333333]]]}}, {"type": "Feature", "properties": {"product": "forest_loss", "area_ha": 21.11}, "geometry": {"type": "Polygon", "coordinates": [[[77.21333333333332, 28.423333333333336], [77.21333333333332, 28.4225], [77.21249999999999, 28.4225], [77.21166666666666, 28.4225], [77.21083333333333, 28.4225], [77.21083333333333, 28.423333333333336], [77.21, 28.423333333333336], [77.21, 28.4225], [77.21, 28.421666666666667], [77.20916666666666, 28.421666666666667], [77.20916666666666, 28.4225], [77.20916666666666, 28.423333333333336], [77.20916666666666, 28.424166666666668], [77.20916666666666, 28.425], [77.20916666666666, 28.425833333333333], [77.20916666666666, 28.426666666666666], [77.20916666666666, 28.427500000000002], [77.21, 28.427500000000002], [77.21083333333333, 28.427500000000002], [77.21166666666666, 28.427500000000002], [77.21166666666666, 28.426666666666666], [77.21249999999999, 28.426666666666666], [77.21249999999999, 28.425833333333333], [77.21333333333332, 28.425833333333333], [77.21333333333332, 28.425], [77.21333333333332, 28.424166666666668], [77.21416666666666, 28.424166666666668], [77.21416666666666, 28.423333333333336], [77.21333333333332, 28.423333333333336]]]}}, {"type": "Feature", "properties": {"product": "forest_loss", "area_ha": 8.3}, "geometry": {"type": "Polygon", "coordinates": [[[77.2175, 28.38], [77.21833333333333, 28.38], [77.21833333333333, 28.379166666666666], [77.21916666666667, 28.379166666666666], [77.21916666666667, 28.378333333333334], [77.21916666666667, 28.3775], [77.22, 28.3775], [77.22, 28.37666666666667], [77.22, 28.375833333333333], [77.22, 28.375], [77.21916666666667, 28.375], [77.21916666666667, 28.375833333333333], [77.21833333333333, 28.375833333333333], [77.2175, 28.375833333333333], [77.2175, 28.37666666666667], [77.2175, 28.3775], [77.2175, 28.378333333333334], [77.2175, 28.379166666666666], [77.2175, 28.38]], [[77.21833333333333, 28.3775], [77.21833333333333, 28.37666666666667], [77.21916666666667, 28.37666666666667], [77.21916666666667, 28.3775], [77.21833333333333, 28.3775]]]}}, {"type": "Feature", "properties": {"product": "forest_loss", "area_ha": 19.6}, "geometry": {"type": "Polygon", "coordinates": [[[77.23166666666665, 28.4525], [77.23166666666665, 28.451666666666668], [77.23249999999999, 28.451666666666668], [77.23249999999999, 28.4525], [77.23249999999999, 28.453333333333333], [77.23333333333333, 28.453333333333333], [77.23333333333333, 28.454166666666666], [77.23249999999999, 28.454166666666666], [77.23249999999999, 28.455000000000002], [77.23333333333333, 28.455000000000002], [77.23416666666667, 28.455000000000002], [77.23416666666667, 28.454166666666666], [77.235, 28.454166666666666], [77.235, 28.453333333333333], [77.235, 28.4525], [77.23583333333333, 28.4525], [77.23583333333333, 28.451666666666668], [77.235, 28.451666666666668], [77.235, 28.450833333333335], [77.235, 28.45], [77.235, 28.449166666666667], [77.23416666666667, 28.449166666666667], [77.23333333333333, 28.449166666666667], [77.23333333333333, 28.45], [77.23249999999999, 28.45], [77.23166666666665, 28.45], [77.23166666666665, 28.450833333333335], [77.23083333333332, 28.450833333333335], [77.22999999999999, 28.450833333333335], [77.22999999999999, 28.451666666666668], [77.22916666666666, 28.451666666666668], [77.22916666666666, 28.4525], [77.22999999999999, 28.4525], [77.22999999999999, 28.453333333333333], [77.23083333333332, 28.453333333333333], [77.23166666666665, 28.453333333333333], [77.23166666666665, 28.4525]], [[77.23333333333333, 28.4525], [77.23333333333333, 28.451666666666668], [77.23416666666667, 28.451666666666668], [77.23416666666667, 28.4525], [77.23416666666667, 28.453333333333333], [77.23333333333333, 28.453333333333333], [77.23333333333333, 28.4525]]]}}, {"type": "Feature", "properties": {"product": "forest_loss", "area_ha": 15.83}, "geometry": {"type": "Polygon", "coordinates": [[[77.2175, 28.46], [77.21666666666665, 28.46], [77.21666666666665, 28.460833333333333], [77.2175, 28.460833333333333], [77.2175, 28.461666666666666], [77.21833333333333, 28.461666666666666], [77.21833333333333, 28.462500000000002], [77.21833333333333, 28.463333333333335], [77.2175, 28.463333333333335], [77.2175, 28.464166666666667], [77.2175, 28.465], [77.21833333333333, 28.465], [77.21916666666667, 28.465], [77.22, 28.465], [77.22, 28.464166666666667], [77.21916666666667, 28.464166666666667], [77.21916666666667, 28.463333333333335], [77.21916666666667, 28.462500000000002], [77.21916666666667, 28.461666666666666], [77.22, 28.461666666666666], [77.22, 28.460833333333333], [77.22, 28.46], [77.22083333333333, 28.46], [77.22083333333333, 28.460833333333333], [77.22083333333333, 28.461666666666666], [77.22166666666666, 28.461666666666666], [77.22166666666666, 28.460833333333333], [77.22166666666666, 28.46], [77.2225, 28.46], [77.2225, 28.45916666666667], [77.22166666666666, 28.45916666666667], [77.22083333333333, 28.45916666666667], [77.22, 28.45916666666667], [77.21916666666667, 28.45916666666667], [77.21916666666667, 28.46], [77.21833333333333, 28.46], [77.21833333333333, 28.45916666666667], [77.2175, 28.45916666666667], [77.2175, 28.46]]]}}, {"type": "Feature", "properties": {"product": "forest_loss", "area_ha": 14.32}, "geometry": {"type": "Polygon", "coordinates": [[[77.21666666666665, 28.475833333333334], [77.21666666666665, 28.476666666666667], [77.21583333333332, 28.476666666666667], [77.21583333333332, 28.4775], [77.21666666666665, 28.4775], [77.21666666666665, 28.478333333333335], [77.2175, 28.478333333333335], [77.2175, 28.4775], [77.21833333333333, 28.4775], [77.21916666666667, 28.4775], [77.22, 28.4775], [77.22, 28.476666666666667], [77.22, 28.475833333333334], [77.22, 28.475], [77.22, 28.47416666666667], [77.22, 28.473333333333333], [77.22083333333333, 28.473333333333333], [77.22083333333333, 28.4725], [77.22, 28.4725], [77.21916666666667, 28.4725], [77.21916666666667, 28.473333333333333], [77.21833333333333, 28.473333333333333], [77.21833333333333, 28.47416666666667], [77.21833333333333, 28.475], [77.2175, 28.475], [77.2175, 28.475833333333334], [77.21666666666665, 28.475833333333334]]]}}, {"type": "Feature", "properties": {"product": "forest_loss", "area_ha": 15.07}, "geometry": {"type": "Polygon", "coordinates": [[[77.22166666666666, 28.475833333333334], [77.22166666666666, 28.476666666666667], [77.22166666666666, 28.4775], [77.22083333333333, 28.4775], [77.22083333333333, 28.478333333333335], [77.22, 28.478333333333335], [77.22, 28.479166666666668], [77.21916666666667, 28.479166666666668], [77.21916666666667, 28.478333333333335], [77.21833333333333, 28.478333333333335], [77.21833333333333, 28.479166666666668], [77.21833333333333, 28.48], [77.21833333333333, 28.480833333333333], [77.21916666666667, 28.480833333333333], [77.22, 28.480833333333333], [77.22, 28.48], [77.22083333333333, 28.48], [77.22166666666666, 28.48], [77.22166666666666, 28.479166666666668], [77.2225, 28.479166666666668], [77.2225, 28.478333333333335], [77.2225, 28.4775], [77.2225, 28.476666666666667], [77.22333333333333, 28.476666666666667], [77.22416666666666, 28.476666666666667], [77.22416666666666, 28.475833333333334], [77.22416666666666, 28.475], [77.22416666666666, 28.47416666666667], [77.22416666666666, 28.473333333333333], [77.22333333333333, 28.473333333333333], [77.22333333333333, 28.47416666666667], [77.22333333333333, 28.475], [77.2225, 28.475], [77.2225, 28.475833333333334], [77.22166666666666, 28.475833333333334]]]}}, {"type": "Feature", "properties": {"product": "forest_loss", "area_ha": 11.31}, "geometry": {"type": "Polygon", "coordinates": [[[77.24083333333333, 28.41166666666667], [77.24166666666666, 28.41166666666667], [77.24166666666666, 28.410833333333333], [77.24249999999999, 28.410833333333333], [77.24333333333333, 28.410833333333333], [77.24333333333333, 28.41], [77.24416666666666, 28.41], [77.24416666666666, 28.410833333333333], [77.24499999999999, 28.410833333333333], [77.24499999999999, 28.41166666666667], [77.24583333333332, 28.41166666666667], [77.24583333333332, 28.410833333333333], [77.24583333333332, 28.41], [77.24499999999999, 28.41], [77.24499999999999, 28.409166666666668], [77.24416666666666, 28.409166666666668], [77.24333333333333, 28.409166666666668], [77.24333333333333, 28.408333333333335], [77.24249999999999, 28.408333333333335], [77.24249999999999, 28.409166666666668], [77.24166666666666, 28.409166666666668], [77.24083333333333, 28.409166666666668], [77.24, 28.409166666666668], [77.24, 28.41], [77.24, 28.410833333333333], [77.24083333333333, 28.410833333333333], [77.24083333333333, 28.41166666666667]]]}}, {"type": "Feature", "properties": {"product": "forest_loss", "area_ha": 6.79}, "geometry": {"type": "Polygon", "coordinates": [[[77.24166666666666, 28.414166666666667], [77.24249999999999, 28.414166666666667], [77.24249999999999, 28.415], [77.24333333333333, 28.415], [77.24333333333333, 28.414166666666667], [77.24416666666666, 28.414166666666667], [77.24416666666666, 28.413333333333334], [77.24333333333333, 28.413333333333334], [77.24333333333333, 28.4125], [77.24333333333333, 28.41166666666667], [77.24249999999999, 28.41166666666667], [77.24166666666666, 28.41166666666667], [77.24166666666666, 28.4125], [77.24083333333333, 28.4125], [77.24083333333333, 28.413333333333334], [77.24166666666666, 28.413333333333334], [77.24166666666666, 28.414166666666667]]]}}, {"type": "Feature", "properties": {"product": "forest_loss", "area_ha": 9.04}, "geometry": {"type": "Polygon", "coordinates": [[[77.24416666666666, 28.484166666666667], [77.24499999999999, 28.484166666666667], [77.24499999999999, 28.485], [77.24583333333332, 28.485], [77.24666666666666, 28.485], [77.24666666666666, 28.484166666666667], [77.24583333333332, 28.484166666666667], [77.24583333333332, 28.483333333333334], [77.24666666666666, 28.483333333333334], [77.24666666666666, 28.4825], [77.24749999999999, 28.4825], [77.24833333333332, 28.4825], [77.24833333333332, 28.48166666666667], [77.24833333333332, 28.480833333333333], [77.24749999999999, 28.480833333333333], [77.24666666666666, 28.480833333333333], [77.24666666666666, 28.48166666666667], [77.24583333333332, 28.48166666666667], [77.24499999999999, 28.48166666666667], [77.24499999999999, 28.4825], [77.24499999999999, 28.483333333333334], [77.24416666666666, 28.483333333333334], [77.24416666666666, 28.484166666666667]]]}}, {"type": "Feature", "properties": {"product": "forest_loss", "area_ha": 6.03}, "geometry": {"type": "Polygon", "coordinates": [[[77.24416666666666, 28.5125], [77.24499999999999, 28.5125], [77.24583333333332, 28.5125], [77.24666666666666, 28.5125], [77.24749999999999, 28.5125], [77.24833333333332, 28.5125], [77.24833333333332, 28.511666666666667], [77.24749999999999, 28.511666666666667], [77.24749999999999, 28.510833333333334], [77.24749999999999, 28.51], [77.24666666666666, 28.51], [77.24666666666666, 28.510833333333334], [77.24583333333332, 28.510833333333334], [77.24583333333332, 28.511666666666667], [77.24499999999999, 28.511666666666667], [77.24416666666666, 28.511666666666667], [77.24416666666666, 28.5125]]]}}], "properties": {"aoi": "ncr-gurugram", "product": "forest_loss", "total_ha": 485.1, "n_patches": 44}}